AXFMSFP Flymaster Live, V1.0, S/N 611819
HFFXA010
HFPLTPILOT:Lisa Dickinson
HFGTYGLIDERTYPE: 
HFGIDGLIDERID:
HFDTM100GPSDATUM:WGS-1984
HFCIDCOMPETITIONID:4075
HFCCLCOMPETITIONCLASS:
HOSITSITE:Chelan Butte-US
HFGPS:UBLOXNEO6
HFPRSPRESSALTSENSOR:NA
HFRFWFIRMWAREVERSION:203f
HFRHWHARDWAREVERSION:1.0R2
HFFTYFRTYPE:FLYMASTER,LIVE
HFDTE260625
B1910154748298N12002298WA0111301127
B1910164748299N12002296WA0111301127
B1910174748301N12002294WA0111301127
B1910184748302N12002292WA0111301126
B1910194748304N12002289WA0111201126
B1910204748306N12002286WA0111201126
B1910214748308N12002284WA0111201126
B1910224748310N12002281WA0111201125
B1910234748313N12002278WA0111201124
B1910244748315N12002276WA0111201123
B1910254748317N12002273WA0111201122
B1910264748319N12002271WA0111201121
B1910274748321N12002269WA0111201121
B1910284748322N12002267WA0111101121
B1910294748324N12002265WA0111101120
B1910304748326N12002263WA0111101120
B1910314748327N12002261WA0111101121
B1910324748328N12002260WA0111101120
B1910334748329N12002259WA0111101120
B1910344748330N12002258WA0111101120
B1910354748331N12002258WA0111101120
B1910364748333N12002257WA0111101121
B1910374748334N12002258WA0111101122
B1910384748335N12002258WA0111101122
B1910394748336N12002259WA0111101123
B1910404748336N12002261WA0111101123
B1910414748337N12002262WA0111101123
B1910424748337N12002264WA0111101123
B1910434748338N12002266WA0111101123
B1910444748339N12002269WA0111001124
B1910454748340N12002271WA0111001124
B1910464748340N12002274WA0111001125
B1910474748341N12002276WA0111001124
B1910484748341N12002279WA0110901124
B1910494748342N12002281WA0110901123
B1910504748342N12002284WA0110901123
B1910514748343N12002287WA0110801123
B1910524748343N12002290WA0110801122
B1910534748344N12002294WA0110801121
B1910544748344N12002297WA0110701120
B1910554748344N12002301WA0110601120
B1910564748344N12002305WA0110601120
B1910574748345N12002309WA0110501119
B1910584748345N12002312WA0110501119
B1910594748345N12002316WA0110401118
B1911004748345N12002319WA0110401118
B1911014748344N12002323WA0110301118
B1911024748344N12002326WA0110201118
B1911034748344N12002329WA0110201118
B1911044748343N12002333WA0110101117
B1911054748343N12002336WA0110101117
B1911064748342N12002340WA0110001117
B1911074748341N12002342WA0109901117
B1911084748341N12002345WA0109901116
B1911094748340N12002347WA0109801115
B1911104748338N12002349WA0109801116
B1911114748338N12002351WA0109701115
B1911124748336N12002353WA0109701114
B1911134748335N12002355WA0109601113
B1911144748334N12002357WA0109501113
B1911154748334N12002360WA0109501113
B1911164748332N12002363WA0109401113
B1911174748331N12002366WA0109401112
B1911184748330N12002369WA0109301111
B1911194748329N12002372WA0109201112
B1911204748327N12002376WA0109201111
B1911214748325N12002380WA0109101109
B1911224748323N12002383WA0109101109
B1911234748322N12002387WA0109001107
B1911244748320N12002392WA0108901106
B1911254748318N12002396WA0108901105
B1911264748316N12002401WA0108801103
B1911274748315N12002406WA0108701102
B1911284748313N12002411WA0108601101
B1911294748312N12002416WA0108601100
B1911304748310N12002421WA0108501099
B1911314748310N12002425WA0108401098
B1911324748309N12002430WA0108301097
B1911334748309N12002434WA0108201095
B1911344748309N12002438WA0108101094
B1911354748310N12002443WA0108001092
B1911364748310N12002447WA0108001091
B1911374748310N12002451WA0107901091
B1911384748310N12002456WA0107801090
B1911394748309N12002461WA0107701089
B1911404748308N12002465WA0107601088
B1911414748307N12002469WA0107501087
B1911424748306N12002473WA0107501086
B1911434748305N12002477WA0107301086
B1911444748304N12002481WA0107301085
B1911454748303N12002485WA0107201083
B1911464748302N12002489WA0107101082
B1911474748301N12002493WA0107001080
B1911484748300N12002497WA0106901079
B1911494748300N12002501WA0106801078
B1911504748300N12002505WA0106801077
B1911514748301N12002508WA0106701075
B1911524748301N12002512WA0106601074
B1911534748302N12002516WA0106501073
B1911544748303N12002520WA0106401073
B1911554748304N12002523WA0106301071
B1911564748305N12002527WA0106301070
B1911574748307N12002530WA0106201068
B1911584748308N12002534WA0106101068
B1911594748309N12002537WA0106001067
B1912004748309N12002540WA0105901067
B1912014748310N12002543WA0105801065
B1912024748310N12002546WA0105801065
B1912034748309N12002550WA0105701064
B1912044748309N12002553WA0105601063
B1912054748308N12002557WA0105501062
B1912064748307N12002560WA0105501062
B1912074748306N12002563WA0105401061
B1912084748305N12002566WA0105301060
B1912094748304N12002570WA0105301058
B1912104748302N12002573WA0105201057
B1912114748301N12002577WA0105101057
B1912124748300N12002581WA0105101056
B1912134748299N12002584WA0105001055
B1912144748298N12002588WA0104901055
B1912154748298N12002592WA0104901053
B1912164748298N12002596WA0104801052
B1912174748298N12002601WA0104701051
B1912184748299N12002605WA0104701050
B1912194748300N12002609WA0104601050
B1912204748301N12002613WA0104501049
B1912214748302N12002617WA0104401049
B1912224748303N12002620WA0104401048
B1912234748303N12002625WA0104301048
B1912244748303N12002629WA0104201047
B1912254748302N12002633WA0104101047
B1912264748301N12002637WA0104101046
B1912274748300N12002640WA0104001045
B1912284748299N12002643WA0103901044
B1912294748297N12002647WA0103801043
B1912304748296N12002650WA0103801043
B1912314748295N12002653WA0103701042
B1912324748293N12002657WA0103601041
B1912334748292N12002661WA0103501041
B1912344748290N12002664WA0103401040
B1912354748289N12002668WA0103301039
B1912364748288N12002672WA0103301038
B1912374748287N12002677WA0103201038
B1912384748286N12002681WA0103101037
B1912394748286N12002685WA0103001035
B1912404748286N12002690WA0102901034
B1912414748287N12002695WA0102801033
B1912424748287N12002699WA0102801032
B1912434748287N12002704WA0102701031
B1912444748288N12002708WA0102601030
B1912454748287N12002712WA0102501029
B1912464748287N12002716WA0102401028
B1912474748286N12002720WA0102401027
B1912484748284N12002724WA0102301025
B1912494748283N12002727WA0102201023
B1912504748281N12002731WA0102201021
B1912514748279N12002735WA0102101021
B1912524748277N12002738WA0102001019
B1912534748275N12002742WA0102001019
B1912544748273N12002746WA0101901019
B1912554748271N12002750WA0101801018
B1912564748269N12002754WA0101801019
B1912574748268N12002758WA0101701018
B1912584748266N12002762WA0101701017
B1912594748265N12002766WA0101601018
B1913004748264N12002770WA0101601018
B1913014748262N12002773WA0101501018
B1913024748261N12002776WA0101501017
B1913034748260N12002779WA0101401017
B1913044748259N12002782WA0101401016
B1913054748257N12002785WA0101301017
B1913064748255N12002786WA0101301017
B1913074748254N12002786WA0101301016
B1913084748253N12002787WA0101301017
B1913094748252N12002788WA0101201017
B1913104748251N12002789WA0101201018
B1913114748250N12002790WA0101201018
B1913124748249N12002792WA0101201018
B1913134748249N12002795WA0101101018
B1913144748249N12002797WA0101101017
B1913154748250N12002799WA0101101017
B1913164748251N12002801WA0101001017
B1913174748252N12002803WA0101001016
B1913184748254N12002804WA0101001017
B1913194748255N12002804WA0101001017
B1913204748256N12002804WA0100901016
B1913214748257N12002804WA0100901016
B1913224748258N12002804WA0100901015
B1913234748260N12002804WA0100801015
B1913244748261N12002804WA0100801014
B1913254748262N12002804WA0100801014
B1913264748264N12002803WA0100701014
B1913274748265N12002803WA0100701014
B1913284748266N12002802WA0100701013
B1913294748267N12002801WA0100601012
B1913304748268N12002799WA0100601012
B1913314748269N12002797WA0100601012
B1913324748270N12002796WA0100501012
B1913334748272N12002793WA0100501011
B1913344748273N12002791WA0100401011
B1913354748274N12002788WA0100401010
B1913364748275N12002786WA0100301010
B1913374748276N12002783WA0100301009
B1913384748278N12002781WA0100201009
B1913394748279N12002778WA0100201008
B1913404748280N12002776WA0100101007
B1913414748282N12002773WA0100101007
B1913424748284N12002770WA0100001006
B1913434748287N12002768WA0099901006
B1913444748289N12002766WA0099901005
B1913454748292N12002764WA0099801004
B1913464748295N12002762WA0099801003
B1913474748298N12002761WA0099701002
B1913484748301N12002760WA0099601001
B1913494748304N12002758WA0099501001
B1913504748306N12002757WA0099501000
B1913514748309N12002756WA0099400999
B1913524748311N12002754WA0099300998
B1913534748313N12002752WA0099300997
B1913544748315N12002749WA0099200997
B1913554748317N12002746WA0099100996
B1913564748319N12002743WA0099100995
B1913574748321N12002739WA0099000994
B1913584748322N12002735WA0098900993
B1913594748324N12002731WA0098800992
B1914004748325N12002728WA0098700992
B1914014748327N12002725WA0098700991
B1914024748329N12002723WA0098600990
B1914034748330N12002720WA0098500989
B1914044748333N12002718WA0098400988
B1914054748336N12002717WA0098300987
B1914064748340N12002716WA0098300986
B1914074748343N12002715WA0098200985
B1914084748346N12002714WA0098100984
B1914094748349N12002714WA0098000983
B1914104748352N12002713WA0098000982
B1914114748355N12002713WA0097900981
B1914124748357N12002711WA0097800980
B1914134748359N12002710WA0097700980
B1914144748362N12002708WA0097700980
B1914154748364N12002707WA0097600980
B1914164748366N12002704WA0097500979
B1914174748368N12002702WA0097400979
B1914184748370N12002700WA0097300977
B1914194748372N12002697WA0097300977
B1914204748374N12002695WA0097200975
B1914214748376N12002692WA0097100975
B1914224748378N12002689WA0097000974
B1914234748381N12002686WA0096900974
B1914244748382N12002683WA0096900973
B1914254748384N12002680WA0096800972
B1914264748385N12002678WA0096700972
B1914274748387N12002676WA0096600971
B1914284748390N12002674WA0096600971
B1914294748392N12002674WA0096500970
B1914304748395N12002674WA0096400969
B1914314748398N12002674WA0096400968
B1914324748401N12002674WA0096300967
B1914334748404N12002675WA0096200967
B1914344748406N12002676WA0096200966
B1914354748409N12002677WA0096100965
B1914364748412N12002677WA0096100965
B1914374748414N12002678WA0096000964
B1914384748417N12002678WA0096000964
B1914394748419N12002678WA0095900964
B1914404748420N12002677WA0095900964
B1914414748422N12002677WA0095800964
B1914424748424N12002677WA0095800964
B1914434748426N12002678WA0095700964
B1914444748427N12002679WA0095700963
B1914454748429N12002681WA0095600963
B1914464748430N12002683WA0095600962
B1914474748430N12002686WA0095600961
B1914484748430N12002689WA0095500961
B1914494748429N12002692WA0095500961
B1914504748428N12002694WA0095400960
B1914514748426N12002696WA0095400959
B1914524748424N12002697WA0095400959
B1914534748422N12002697WA0095300958
B1914544748419N12002697WA0095300957
B1914554748417N12002697WA0095200957
B1914564748414N12002697WA0095200956
B1914574748412N12002696WA0095200956
B1914584748409N12002695WA0095100955
B1914594748407N12002694WA0095100955
B1915004748405N12002693WA0095000954
B1915014748403N12002693WA0095000953
B1915024748401N12002694WA0094900952
B1915034748399N12002695WA0094900951
B1915044748398N12002697WA0094900951
B1915054748398N12002700WA0094800951
B1915064748397N12002703WA0094800950
B1915074748396N12002706WA0094700949
B1915084748395N12002710WA0094700949
B1915094748395N12002715WA0094600947
B1915104748394N12002719WA0094600946
B1915114748393N12002724WA0094500946
B1915124748392N12002729WA0094500945
B1915134748391N12002734WA0094400944
B1915144748390N12002740WA0094400944
B1915154748389N12002745WA0094300943
B1915164748387N12002749WA0094200942
B1915174748385N12002752WA0094200941
B1915184748383N12002755WA0094100940
B1915194748380N12002757WA0094000940
B1915204748378N12002759WA0094000939
B1915214748376N12002761WA0093900938
B1915224748375N12002763WA0093800938
B1915234748373N12002766WA0093800938
B1915244748372N12002769WA0093700938
B1915254748371N12002772WA0093600937
B1915264748371N12002776WA0093600936
B1915274748371N12002779WA0093500936
B1915284748371N12002783WA0093500934
B1915294748370N12002787WA0093400933
B1915304748369N12002790WA0093300933
B1915314748367N12002793WA0093300932
B1915324748365N12002796WA0093200932
B1915334748364N12002800WA0093100930
B1915344748363N12002803WA0093100930
B1915354748363N12002807WA0093000929
B1915364748363N12002811WA0093000928
B1915374748363N12002814WA0092900927
B1915384748364N12002817WA0092900927
B1915394748364N12002820WA0092800927
B1915404748364N12002823WA0092800926
B1915414748364N12002826WA0092700926
B1915424748364N12002829WA0092700925
B1915434748364N12002832WA0092600924
B1915444748365N12002836WA0092600924
B1915454748366N12002839WA0092500923
B1915464748367N12002843WA0092500923
B1915474748368N12002847WA0092400922
B1915484748370N12002851WA0092400922
B1915494748371N12002855WA0092300922
B1915504748372N12002858WA0092300920
B1915514748374N12002862WA0092200919
B1915524748374N12002866WA0092200918
B1915534748376N12002870WA0092100917
B1915544748377N12002874WA0092000916
B1915554748378N12002878WA0092000916
B1915564748380N12002882WA0091900915
B1915574748381N12002886WA0091800915
B1915584748383N12002889WA0091800914
B1915594748385N12002893WA0091700913
B1916004748387N12002896WA0091700913
B1916014748389N12002900WA0091600911
B1916024748390N12002903WA0091500911
B1916034748392N12002906WA0091500910
B1916044748393N12002909WA0091400909
B1916054748395N12002913WA0091300908
B1916064748396N12002916WA0091300908
B1916074748398N12002919WA0091200907
B1916084748399N12002923WA0091100906
B1916094748400N12002927WA0091100906
B1916104748402N12002931WA0091000905
B1916114748403N12002935WA0090900904
B1916124748404N12002939WA0090900903
B1916134748405N12002943WA0090800902
B1916144748407N12002947WA0090700901
B1916154748408N12002952WA0090600900
B1916164748409N12002956WA0090600900
B1916174748411N12002960WA0090500898
B1916184748412N12002964WA0090400897
B1916194748414N12002968WA0090300896
B1916204748415N12002972WA0090200896
B1916214748415N12002976WA0090200894
B1916224748416N12002980WA0090100894
B1916234748416N12002985WA0090000894
B1916244748416N12002989WA0089900893
B1916254748416N12002994WA0089800892
B1916264748416N12002998WA0089800891
B1916274748416N12003003WA0089700890
B1916284748417N12003007WA0089600889
B1916294748417N12003011WA0089500888
B1916304748419N12003015WA0089400888
B1916314748421N12003018WA0089300887
B1916324748423N12003021WA0089300886
B1916334748426N12003024WA0089200886
B1916344748428N12003027WA0089100885
B1916354748430N12003031WA0089000884
B1916364748433N12003035WA0088900884
B1916374748436N12003038WA0088800883
B1916384748438N12003042WA0088700883
B1916394748440N12003046WA0088600882
B1916404748443N12003049WA0088600881
B1916414748446N12003052WA0088500880
B1916424748448N12003054WA0088400880
B1916434748451N12003056WA0088300879
B1916444748455N12003058WA0088200878
B1916454748458N12003060WA0088100877
B1916464748461N12003061WA0088100876
B1916474748465N12003063WA0088000876
B1916484748468N12003065WA0087900875
B1916494748472N12003067WA0087800875
B1916504748475N12003070WA0087800875
B1916514748478N12003072WA0087700874
B1916524748482N12003075WA0087600874
B1916534748485N12003078WA0087500873
B1916544748488N12003081WA0087500873
B1916554748492N12003085WA0087400872
B1916564748495N12003088WA0087300871
B1916574748498N12003091WA0087300870
B1916584748501N12003095WA0087200870
B1916594748503N12003099WA0087100869
B1917004748505N12003102WA0087100869
B1917014748507N12003105WA0087000868
B1917024748509N12003108WA0086900868
B1917034748510N12003111WA0086900868
B1917044748512N12003114WA0086800867
B1917054748514N12003117WA0086700866
B1917064748517N12003120WA0086700865
B1917074748520N12003124WA0086600864
B1917084748522N12003128WA0086600864
B1917094748525N12003132WA0086500863
B1917104748527N12003136WA0086400861
B1917114748530N12003141WA0086300861
B1917124748532N12003146WA0086300859
B1917134748535N12003151WA0086100858
B1917144748537N12003157WA0086100857
B1917154748540N12003162WA0086000856
B1917164748543N12003167WA0085900856
B1917174748547N12003172WA0085800855
B1917184748550N12003175WA0085700855
B1917194748554N12003177WA0085600853
B1917204748558N12003178WA0085600853
B1917214748562N12003178WA0085500852
B1917224748565N12003178WA0085400852
B1917234748569N12003178WA0085300852
B1917244748573N12003178WA0085300852
B1917254748576N12003179WA0085200852
B1917264748580N12003179WA0085200852
B1917274748584N12003180WA0085100852
B1917284748587N12003181WA0085100851
B1917294748590N12003183WA0085100851
B1917304748593N12003184WA0085000851
B1917314748596N12003186WA0085000851
B1917324748599N12003189WA0085000851
B1917334748601N12003191WA0084900850
B1917344748603N12003194WA0084900850
B1917354748606N12003196WA0084900849
B1917364748608N12003198WA0084900849
B1917374748610N12003199WA0084800849
B1917384748613N12003200WA0084800848
B1917394748615N12003201WA0084800848
B1917404748617N12003202WA0084700848
B1917414748620N12003202WA0084700847
B1917424748623N12003202WA0084700848
B1917434748626N12003202WA0084600848
B1917444748629N12003203WA0084600848
B1917454748632N12003204WA0084600848
B1917464748635N12003204WA0084600848
B1917474748638N12003205WA0084500848
B1917484748641N12003206WA0084500848
B1917494748645N12003208WA0084500848
B1917504748648N12003209WA0084500847
B1917514748652N12003211WA0084400847
B1917524748655N12003213WA0084400846
B1917534748658N12003216WA0084400845
B1917544748661N12003218WA0084400845
B1917554748664N12003221WA0084300845
B1917564748667N12003223WA0084300844
B1917574748670N12003225WA0084200844
B1917584748673N12003227WA0084200843
B1917594748677N12003229WA0084100842
B1918004748680N12003230WA0084100842
B1918014748683N12003232WA0084000841
B1918024748686N12003233WA0084000840
B1918034748689N12003234WA0083900840
B1918044748692N12003235WA0083900839
B1918054748695N12003236WA0083800839
B1918064748699N12003237WA0083800837
B1918074748702N12003237WA0083700837
B1918084748706N12003237WA0083700836
B1918094748710N12003237WA0083600835
B1918104748714N12003237WA0083600834
B1918114748717N12003237WA0083500833
B1918124748721N12003237WA0083500832
B1918134748725N12003237WA0083400831
B1918144748728N12003237WA0083300831
B1918154748732N12003236WA0083200831
B1918164748736N12003236WA0083200830
B1918174748739N12003236WA0083100829
B1918184748743N12003235WA0083100829
B1918194748746N12003235WA0083000828
B1918204748750N12003235WA0082900827
B1918214748754N12003234WA0082800827
B1918224748758N12003234WA0082800826
B1918234748762N12003233WA0082700825
B1918244748766N12003233WA0082600824
B1918254748770N12003233WA0082600823
B1918264748774N12003233WA0082500822
B1918274748779N12003233WA0082400821
B1918284748783N12003233WA0082300820
B1918294748787N12003234WA0082200819
B1918304748792N12003234WA0082200818
B1918314748795N12003234WA0082100818
B1918324748799N12003234WA0082000818
B1918334748802N12003232WA0082000817
B1918344748804N12003230WA0081900817
B1918354748806N12003228WA0081800816
B1918364748808N12003225WA0081800816
B1918374748809N12003221WA0081700815
B1918384748810N12003218WA0081700815
B1918394748811N12003214WA0081600814
B1918404748812N12003210WA0081600813
B1918414748813N12003206WA0081500813
B1918424748813N12003202WA0081500812
B1918434748813N12003198WA0081400812
B1918444748811N12003194WA0081400811
B1918454748810N12003191WA0081300809
B1918464748808N12003187WA0081300808
B1918474748806N12003183WA0081200807
B1918484748803N12003180WA0081200807
B1918494748801N12003177WA0081100806
B1918504748798N12003175WA0081100806
B1918514748795N12003173WA0081000805
B1918524748792N12003170WA0081000804
B1918534748789N12003168WA0081000803
B1918544748787N12003167WA0080900803
B1918554748784N12003164WA0080900802
B1918564748781N12003162WA0080800801
B1918574748779N12003158WA0080800801
B1918584748777N12003155WA0080700800
B1918594748774N12003151WA0080700800
B1919004748772N12003147WA0080600800
B1919014748771N12003144WA0080600801
B1919024748770N12003139WA0080500800
B1919034748769N12003135WA0080500800
B1919044748770N12003131WA0080400799
B1919054748770N12003126WA0080400799
B1919064748771N12003122WA0080300799
B1919074748771N12003118WA0080300799
B1919084748772N12003113WA0080200800
B1919094748771N12003109WA0080200800
B1919104748771N12003105WA0080100800
B1919114748769N12003101WA0080100799
B1919124748767N12003097WA0080000799
B1919134748764N12003094WA0080000798
B1919144748762N12003091WA0079900797
B1919154748759N12003089WA0079900797
B1919164748755N12003088WA0079800797
B1919174748752N12003086WA0079800796
B1919184748749N12003085WA0079700796
B1919194748746N12003084WA0079700795
B1919204748742N12003084WA0079600794
B1919214748739N12003084WA0079600793
B1919224748735N12003085WA0079500793
B1919234748732N12003084WA0079400792
B1919244748728N12003084WA0079400792
B1919254748725N12003083WA0079300791
B1919264748722N12003082WA0079300791
B1919274748720N12003082WA0079200791
B1919284748717N12003081WA0079200791
B1919294748715N12003081WA0079200790
B1919304748712N12003081WA0079100789
B1919314748709N12003082WA0079100787
B1919324748705N12003082WA0079000787
B1919334748701N12003083WA0079000786
B1919344748697N12003083WA0078900785
B1919354748694N12003082WA0078900785
B1919364748690N12003082WA0078900784
B1919374748687N12003081WA0078800784
B1919384748684N12003081WA0078800783
B1919394748681N12003082WA0078700783
B1919404748678N12003082WA0078700782
B1919414748675N12003082WA0078700782
B1919424748672N12003082WA0078600781
B1919434748669N12003082WA0078600780
B1919444748667N12003082WA0078500780
B1919454748664N12003082WA0078400779
B1919464748661N12003082WA0078400778
B1919474748658N12003083WA0078300777
B1919484748655N12003083WA0078300776
B1919494748652N12003082WA0078200775
B1919504748649N12003081WA0078100773
B1919514748646N12003080WA0078000772
B1919524748643N12003078WA0078000771
B1919534748641N12003076WA0077900770
B1919544748638N12003072WA0077800770
B1919554748636N12003067WA0077700770
B1919564748635N12003062WA0077600770
B1919574748634N12003058WA0077500770
B1919584748634N12003053WA0077400770
B1919594748633N12003049WA0077300768
B1920004748633N12003044WA0077300767
B1920014748632N12003040WA0077100765
B1920024748631N12003036WA0077100764
B1920034748629N12003031WA0076900762
B1920044748628N12003028WA0076800761
B1920054748626N12003024WA0076700760
B1920064748625N12003019WA0076600758
B1920074748624N12003016WA0076500757
B1920084748622N12003012WA0076400757
B1920094748621N12003009WA0076300757
B1920104748621N12003005WA0076200756
B1920114748621N12003001WA0076100756
B1920124748623N12002999WA0076000755
B1920134748625N12002998WA0075900756
B1920144748628N12002999WA0075800757
B1920154748631N12003000WA0075700756
B1920164748633N12003002WA0075700755
B1920174748635N12003005WA0075600755
B1920184748638N12003007WA0075500755
B1920194748641N12003008WA0075400754
B1920204748645N12003009WA0075400754
B1920214748648N12003008WA0075300754
B1920224748652N12003007WA0075200754
B1920234748655N12003005WA0075100754
B1920244748659N12003004WA0075100754
B1920254748662N12003002WA0075000753
B1920264748666N12003000WA0074900751
B1920274748670N12002998WA0074800750
B1920284748673N12002996WA0074700749
B1920294748677N12002994WA0074600748
B1920304748680N12002992WA0074600748
B1920314748683N12002989WA0074400747
B1920324748686N12002986WA0074300745
B1920334748689N12002983WA0074200744
B1920344748692N12002980WA0074100741
B1920354748696N12002976WA0074000740
B1920364748699N12002973WA0073900739
B1920374748702N12002970WA0073700738
B1920384748706N12002968WA0073600735
B1920394748709N12002965WA0073500733
B1920404748713N12002962WA0073400731
B1920414748717N12002960WA0073200729
B1920424748720N12002957WA0073100728
B1920434748723N12002955WA0073000726
B1920444748726N12002954WA0072900725
B1920454748730N12002952WA0072700723
B1920464748733N12002951WA0072600721
B1920474748737N12002950WA0072500720
B1920484748741N12002949WA0072400718
B1920494748745N12002947WA0072300717
B1920504748749N12002946WA0072200716
B1920514748754N12002945WA0072000715
B1920524748758N12002944WA0071900714
B1920534748761N12002943WA0071800713
B1920544748765N12002942WA0071700712
B1920554748768N12002940WA0071500711
B1920564748772N12002938WA0071400710
B1920574748775N12002936WA0071300709
B1920584748778N12002935WA0071200709
B1920594748781N12002934WA0071100708
B1921004748784N12002934WA0071000707
B1921014748787N12002936WA0070900706
B1921024748790N12002938WA0070800705
B1921034748792N12002940WA0070700705
B1921044748794N12002943WA0070600703
B1921054748797N12002946WA0070400702
B1921064748799N12002948WA0070400701
B1921074748802N12002950WA0070200700
B1921084748805N12002950WA0070100700
B1921094748808N12002950WA0070000699
B1921104748812N12002949WA0070000699
B1921114748815N12002949WA0069800699
B1921124748819N12002948WA0069800698
B1921134748823N12002947WA0069700697
B1921144748827N12002946WA0069600696
B1921154748831N12002945WA0069500695
B1921164748836N12002944WA0069400693
B1921174748840N12002943WA0069200691
B1921184748845N12002943WA0069100689
B1921194748850N12002942WA0069000687
B1921204748854N12002941WA0068900686
B1921214748858N12002940WA0068800684
B1921224748862N12002939WA0068700683
B1921234748867N12002937WA0068500681
B1921244748871N12002936WA0068500679
B1921254748875N12002934WA0068300677
B1921264748879N12002933WA0068200675
B1921274748884N12002932WA0068100673
B1921284748888N12002931WA0068000672
B1921294748893N12002931WA0067800670
B1921304748898N12002930WA0067800669
B1921314748902N12002931WA0067600668
B1921324748906N12002931WA0067500667
B1921334748909N12002931WA0067400666
B1921344748913N12002932WA0067300665
B1921354748915N12002933WA0067200664
B1921364748918N12002934WA0067200664
B1921374748920N12002936WA0067100663
B1921384748922N12002939WA0067000662
B1921394748924N12002941WA0066900661
B1921404748927N12002944WA0066800660
B1921414748929N12002947WA0066700660
B1921424748932N12002950WA0066700659
B1921434748935N12002952WA0066600659
B1921444748938N12002954WA0066500659
B1921454748941N12002955WA0066400658
B1921464748944N12002956WA0066300658
B1921474748947N12002957WA0066200658
B1921484748950N12002958WA0066200656
B1921494748953N12002959WA0066100655
B1921504748955N12002961WA0066000654
B1921514748958N12002964WA0065900652
B1921524748960N12002966WA0065900650
B1921534748962N12002969WA0065700649
B1921544748964N12002971WA0065700648
B1921554748966N12002973WA0065600647
B1921564748968N12002974WA0065500646
B1921574748971N12002976WA0065400645
B1921584748973N12002976WA0065300645
B1921594748976N12002976WA0065300644
B1922004748979N12002976WA0065200643
B1922014748982N12002976WA0065100642
B1922024748985N12002977WA0065000641
B1922034748988N12002978WA0065000640
B1922044748991N12002979WA0064900639
B1922054748994N12002981WA0064800638
B1922064748997N12002983WA0064800637
B1922074749000N12002985WA0064700636
B1922084749003N12002988WA0064600635
B1922094749006N12002991WA0064500633
B1922104749009N12002993WA0064500632
B1922114749012N12002995WA0064400631
B1922124749015N12002997WA0064300630
B1922134749017N12002998WA0064200630
B1922144749020N12002999WA0064200630
B1922154749023N12002999WA0064100629
B1922164749026N12002999WA0064000628
B1922174749029N12002999WA0063900627
B1922184749031N12003000WA0063900626
B1922194749035N12003000WA0063800625
B1922204749038N12003001WA0063700624
B1922214749041N12003003WA0063700624
B1922224749045N12003005WA0063600623
B1922234749048N12003007WA0063500623
B1922244749052N12003009WA0063500622
B1922254749055N12003010WA0063400621
B1922264749059N12003011WA0063300620
B1922274749062N12003012WA0063200618
B1922284749066N12003013WA0063100617
B1922294749070N12003014WA0063000616
B1922304749074N12003016WA0062900615
B1922314749078N12003017WA0062800614
B1922324749081N12003019WA0062700613
B1922334749085N12003021WA0062600612
B1922344749089N12003023WA0062500611
B1922354749092N12003025WA0062400610
B1922364749096N12003028WA0062300610
B1922374749099N12003029WA0062100609
B1922384749103N12003030WA0062100609
B1922394749107N12003031WA0062000609
B1922404749111N12003030WA0061900609
B1922414749114N12003029WA0061800608
B1922424749118N12003029WA0061700608
B1922434749122N12003028WA0061600607
B1922444749126N12003028WA0061600606
B1922454749129N12003028WA0061500606
B1922464749133N12003029WA0061400604
B1922474749137N12003030WA0061300603
B1922484749141N12003032WA0061300602
B1922494749145N12003034WA0061200601
B1922504749149N12003035WA0061100600
B1922514749154N12003036WA0061000599
B1922524749158N12003036WA0060900598
B1922534749163N12003035WA0060800598
B1922544749167N12003035WA0060700597
B1922554749171N12003034WA0060600596
B1922564749175N12003033WA0060500595
B1922574749179N12003033WA0060400594
B1922584749183N12003034WA0060400593
B1922594749187N12003035WA0060300593
B1923004749191N12003036WA0060200592
B1923014749194N12003036WA0060100591
B1923024749198N12003037WA0060100591
B1923034749201N12003037WA0060000591
B1923044749204N12003038WA0060000590
B1923054749208N12003037WA0059900590
B1923064749211N12003037WA0059800590
B1923074749213N12003037WA0059800590
B1923084749215N12003036WA0059800589
B1923094749218N12003036WA0059700589
B1923104749220N12003036WA0059700589
B1923114749223N12003036WA0059700589
B1923124749226N12003037WA0059700589
B1923134749229N12003039WA0059600588
B1923144749231N12003040WA0059600588
B1923154749234N12003042WA0059600588
B1923164749238N12003043WA0059600588
B1923174749241N12003045WA0059600588
B1923184749245N12003045WA0059600587
B1923194749248N12003046WA0059600587
B1923204749252N12003047WA0059500587
B1923214749256N12003048WA0059500587
B1923224749261N12003049WA0059500587
B1923234749266N12003050WA0059500586
B1923244749271N12003052WA0059400586
B1923254749276N12003053WA0059400585
B1923264749281N12003054WA0059300584
B1923274749286N12003055WA0059300583
B1923284749291N12003056WA0059200583
B1923294749295N12003058WA0059100582
B1923304749299N12003059WA0059100582
B1923314749302N12003060WA0059000582
B1923324749306N12003061WA0059000582
B1923334749310N12003063WA0058900581
B1923344749314N12003064WA0058900580
B1923354749318N12003066WA0058800580
B1923364749323N12003067WA0058800578
B1923374749328N12003069WA0058700577
B1923384749333N12003069WA0058700576
B1923394749337N12003070WA0058600575
B1923404749342N12003070WA0058500574
B1923414749347N12003069WA0058500573
B1923424749352N12003069WA0058400573
B1923434749357N12003068WA0058400572
B1923444749361N12003067WA0058300571
B1923454749366N12003066WA0058200571
B1923464749371N12003065WA0058200570
B1923474749375N12003064WA0058100569
B1923484749380N12003063WA0058100569
B1923494749384N12003062WA0058000568
B1923504749389N12003061WA0058000568
B1923514749393N12003060WA0057900567
B1923524749397N12003059WA0057900567
B1923534749401N12003058WA0057900567
B1923544749405N12003057WA0057800566
B1923554749409N12003057WA0057800566
B1923564749413N12003057WA0057700566
B1923574749417N12003057WA0057700565
B1923584749422N12003057WA0057600564
B1923594749427N12003056WA0057600563
B1924004749431N12003056WA0057500562
B1924014749436N12003056WA0057500562
B1924024749442N12003055WA0057400561
B1924034749447N12003055WA0057300560
B1924044749453N12003054WA0057300559
B1924054749459N12003053WA0057200557
B1924064749465N12003053WA0057100557
B1924074749472N12003052WA0057100556
B1924084749478N12003050WA0057000555
B1924094749484N12003049WA0056900554
B1924104749490N12003048WA0056800554
B1924114749495N12003047WA0056700553
B1924124749500N12003048WA0056700552
B1924134749506N12003049WA0056600551
B1924144749511N12003051WA0056500550
B1924154749515N12003053WA0056500550
B1924164749520N12003055WA0056400549
B1924174749525N12003057WA0056300549
B1924184749530N12003059WA0056200548
B1924194749535N12003060WA0056100547
B1924204749540N12003061WA0056000545
B1924214749546N12003063WA0055900544
B1924224749551N12003065WA0055900542
B1924234749556N12003067WA0055700540
B1924244749562N12003069WA0055700539
B1924254749567N12003070WA0055500539
B1924264749572N12003070WA0055500539
B1924274749577N12003071WA0055400539
B1924284749581N12003072WA0055300539
B1924294749585N12003074WA0055200539
B1924304749589N12003077WA0055200539
B1924314749592N12003080WA0055100538
B1924324749595N12003083WA0055100538
B1924334749598N12003087WA0055000537
B1924344749602N12003091WA0055000537
B1924354749604N12003095WA0055000537
B1924364749607N12003099WA0054900537
B1924374749609N12003103WA0054900537
B1924384749611N12003108WA0054900538
B1924394749612N12003114WA0054900538
B1924404749613N12003119WA0054800538
B1924414749614N12003124WA0054800538
B1924424749615N12003130WA0054800538
B1924434749616N12003135WA0054800538
B1924444749616N12003141WA0054800539
B1924454749617N12003147WA0054900539
B1924464749617N12003153WA0054900539
B1924474749618N12003159WA0054900539
B1924484749619N12003165WA0054900539
B1924494749620N12003170WA0054900539
B1924504749621N12003176WA0054900539
B1924514749621N12003182WA0054900539
B1924524749622N12003188WA0054900539
B1924534749622N12003193WA0054900539
B1924544749623N12003199WA0054900539
B1924554749624N12003205WA0054900538
B1924564749625N12003212WA0054900537
B1924574749626N12003219WA0054900536
B1924584749628N12003226WA0054900535
B1924594749630N12003233WA0054900535
B1925004749631N12003240WA0054800535
B1925014749632N12003248WA0054800535
B1925024749631N12003255WA0054800535
B1925034749630N12003261WA0054800535
B1925044749629N12003266WA0054800535
B1925054749628N12003271WA0054800535
B1925064749629N12003277WA0054700535
B1925074749630N12003281WA0054700535
B1925084749632N12003285WA0054700535
B1925094749635N12003287WA0054700535
B1925104749637N12003290WA0054700535
B1925114749640N12003292WA0054700534
B1925124749643N12003294WA0054700534
B1925134749647N12003295WA0054700533
B1925144749650N12003297WA0054700533
B1925154749654N12003297WA0054600532
B1925164749659N12003297WA0054600531
B1925174749663N12003295WA0054600531
B1925184749668N12003293WA0054600531
B1925194749673N12003291WA0054500531
B1925204749677N12003290WA0054500531
B1925214749682N12003290WA0054500531
B1925224749686N12003291WA0054500531
B1925234749691N12003293WA0054400530
B1925244749694N12003295WA0054400530
B1925254749698N12003298WA0054300529
B1925264749702N12003302WA0054300529
B1925274749705N12003306WA0054200528
B1925284749707N12003311WA0054200529
B1925294749710N12003316WA0054100528
B1925304749712N12003322WA0054100528
B1925314749714N12003327WA0054000527
B1925324749717N12003332WA0054000527
B1925334749720N12003337WA0053900526
B1925344749723N12003341WA0053900526
B1925354749726N12003345WA0053800526
B1925364749730N12003349WA0053800525
B1925374749735N12003351WA0053700524
B1925384749740N12003354WA0053700522
B1925394749746N12003357WA0053600521
B1925404749752N12003359WA0053500519
B1925414749758N12003362WA0053400518
B1925424749764N12003365WA0053300517
B1925434749770N12003367WA0053200515
B1925444749776N12003370WA0053100514
B1925454749783N12003373WA0053000512
B1925464749790N12003376WA0052900511
B1925474749796N12003379WA0052800509
B1925484749802N12003382WA0052700507
B1925494749807N12003386WA0052600506
B1925504749811N12003392WA0052500505
B1925514749815N12003398WA0052300503
B1925524749818N12003404WA0052200502
B1925534749821N12003410WA0052100501
B1925544749824N12003417WA0052000500
B1925554749827N12003424WA0051900499
B1925564749829N12003432WA0051800498
B1925574749831N12003439WA0051600497
B1925584749832N12003446WA0051600496
B1925594749833N12003454WA0051400495
B1926004749835N12003461WA0051300494
B1926014749836N12003467WA0051200493
B1926024749838N12003474WA0051100492
B1926034749841N12003481WA0051000492
B1926044749843N12003487WA0050900491
B1926054749845N12003494WA0050800490
B1926064749848N12003500WA0050700489
B1926074749850N12003506WA0050600488
B1926084749852N12003512WA0050500487
B1926094749854N12003518WA0050400487
B1926104749857N12003523WA0050300486
B1926114749859N12003526WA0050200485
B1926124749862N12003529WA0050100484
B1926134749865N12003529WA0050000484
B1926144749867N12003528WA0049900484
B1926154749869N12003525WA0049800483
B1926164749870N12003521WA0049700483
B1926174749871N12003516WA0049600482
B1926184749872N12003512WA0049600481
B1926194749873N12003507WA0049500480
B1926204749874N12003501WA0049400478
B1926214749875N12003495WA0049300477
B1926224749876N12003490WA0049300476
B1926234749877N12003484WA0049200475
B1926244749878N12003479WA0049100473
B1926254749879N12003473WA0049000473
B1926264749880N12003468WA0049000472
B1926274749881N12003462WA0048900471
B1926284749882N12003457WA0048800470
B1926294749883N12003451WA0048700469
B1926304749884N12003445WA0048700468
B1926314749885N12003439WA0048600467
B1926324749885N12003434WA0048500467
B1926334749886N12003428WA0048400466
B1926344749887N12003422WA0048300465
B1926354749889N12003416WA0048200463
B1926364749890N12003410WA0048200462
B1926374749892N12003404WA0048100461
B1926384749894N12003398WA0048000460
B1926394749897N12003392WA0047900459
B1926404749899N12003386WA0047800458
B1926414749901N12003379WA0047700456
B1926424749903N12003372WA0047600455
B1926434749904N12003365WA0047500454
B1926444749905N12003358WA0047400453
B1926454749905N12003350WA0047300452
B1926464749905N12003343WA0047200452
B1926474749904N12003336WA0047100451
B1926484749904N12003328WA0047100450
B1926494749903N12003321WA0046900448
B1926504749902N12003313WA0046900447
B1926514749900N12003306WA0046700446
B1926524749898N12003298WA0046700445
B1926534749896N12003292WA0046500444
B1926544749893N12003286WA0046500442
B1926554749890N12003280WA0046300441
B1926564749887N12003275WA0046300440
B1926574749884N12003269WA0046100439
B1926584749880N12003263WA0046100438
B1926594749877N12003258WA0046000437
B1927004749874N12003252WA0045900435
B1927014749871N12003245WA0045800434
B1927024749869N12003239WA0045700433
B1927034749866N12003232WA0045600432
B1927044749864N12003225WA0045500431
B1927054749861N12003218WA0045400430
B1927064749859N12003212WA0045300429
B1927074749857N12003205WA0045100428
B1927084749855N12003199WA0045100427
B1927094749853N12003193WA0044900425
B1927104749849N12003189WA0044800424
B1927114749846N12003185WA0044700422
B1927124749841N12003183WA0044600422
B1927134749837N12003181WA0044500421
B1927144749833N12003180WA0044400420
B1927154749828N12003179WA0044300419
B1927164749825N12003178WA0044200418
B1927174749821N12003176WA0044000416
B1927184749818N12003174WA0044000415
B1927194749815N12003170WA0043800414
B1927204749814N12003166WA0043800414
B1927214749814N12003162WA0043700412
B1927224749816N12003159WA0043600411
B1927234749819N12003156WA0043500410
B1927244749821N12003155WA0043400410
B1927254749825N12003154WA0043300410
B1927264749828N12003154WA0043300409
B1927274749832N12003154WA0043200409
B1927284749837N12003155WA0043100410
B1927294749841N12003156WA0043100410
B1927304749846N12003157WA0043000409
B1927314749850N12003159WA0042900410
B1927324749855N12003161WA0042900409
B1927334749859N12003164WA0042800409
B1927344749864N12003167WA0042700408
B1927354749868N12003170WA0042600408
B1927364749873N12003174WA0042600407
B1927374749877N12003177WA0042500406
B1927384749881N12003182WA0042400406
B1927394749884N12003186WA0042300405
B1927404749887N12003191WA0042200404
B1927414749892N12003194WA0042100404
B1927424749897N12003197WA0042000402
B1927434749901N12003201WA0041900400
B1927444749906N12003204WA0041800399
B1927454749911N12003207WA0041700398
B1927464749915N12003210WA0041600396
B1927474749920N12003212WA0041500394
B1927484749925N12003214WA0041400393
B1927494749929N12003216WA0041300392
B1927504749934N12003217WA0041200391
B1927514749940N12003218WA0041100389
B1927524749945N12003219WA0041000387
B1927534749950N12003220WA0040900385
B1927544749955N12003221WA0040800384
B1927554749960N12003222WA0040700382
B1927564749965N12003223WA0040600381
B1927574749970N12003225WA0040400380
B1927584749976N12003226WA0040400379
B1927594749981N12003227WA0040200377
B1928004749985N12003229WA0040200377
B1928014749990N12003231WA0040000377
B1928024749995N12003234WA0040000377
B1928034750000N12003236WA0039900376
B1928044750005N12003239WA0039800378
B1928054750011N12003241WA0039700378
B1928064750016N12003244WA0039600378
B1928074750022N12003248WA0039500376
B1928084750028N12003252WA0039400375
B1928094750033N12003256WA0039300375
B1928104750039N12003259WA0039200376
B1928114750044N12003262WA0039100374
B1928124750049N12003264WA0039000373
B1928134750055N12003266WA0038800373
B1928144750060N12003267WA0038800373
B1928154750065N12003267WA0038600373
B1928164750070N12003267WA0038600374
B1928174750075N12003266WA0038400373
B1928184750079N12003266WA0038400374
B1928194750083N12003265WA0038300373
B1928204750088N12003264WA0038200373
B1928214750092N12003263WA0038100373
B1928224750097N12003262WA0038000373
B1928234750101N12003261WA0037900374
B1928244750106N12003260WA0037800374
B1928254750110N12003259WA0037800373
B1928264750115N12003258WA0037700372
B1928274750119N12003257WA0037600371
B1928284750123N12003256WA0037500371
B1928294750127N12003255WA0037400370
B1928304750131N12003254WA0037400370
B1928314750135N12003252WA0037300370
B1928324750138N12003251WA0037200369
B1928334750142N12003250WA0037100368
B1928344750145N12003249WA0037100367
B1928354750147N12003248WA0037000367
B1928364750150N12003247WA0037000366
B1928374750152N12003247WA0036900366
B1928384750153N12003246WA0036800365
B1928394750154N12003245WA0036800365
B1928404750154N12003244WA0036700365
B1928414750155N12003242WA0036700366
B1928424750156N12003240WA0036600365
B1928434750156N12003236WA0036600365
B1928444750156N12003232WA0036600364
B1928454750155N12003226WA0036500363
B1928464750154N12003220WA0036500362
B1928474750154N12003212WA0036500362
B1928484750153N12003205WA0036500362
B1928494750152N12003196WA0036500361
B1928504750151N12003187WA0036500360
B1928514750150N12003178WA0036500360
B1928524750150N12003169WA0036500360
B1928534750149N12003160WA0036500359
B1928544750148N12003151WA0036500358
B1928554750147N12003141WA0036600358
B1928564750145N12003131WA0036600358
B1928574750144N12003121WA0036600357
B1928584750143N12003111WA0036600356
B1928594750142N12003101WA0036600355
B1929004750141N12003090WA0036600354
B1929014750140N12003080WA0036500353
B1929024750139N12003070WA0036500352
B1929034750138N12003060WA0036500352
B1929044750137N12003049WA0036500351
B1929054750136N12003039WA0036500351
B1929064750135N12003029WA0036400350
B1929074750134N12003020WA0036400348
B1929084750133N12003010WA0036400348
B1929094750132N12003001WA0036400347
B1929104750131N12002991WA0036300346
B1929114750130N12002982WA0036300346
B1929124750129N12002972WA0036300346
B1929134750128N12002962WA0036200345
B1929144750127N12002952WA0036200344
B1929154750126N12002942WA0036200344
B1929164750124N12002932WA0036100343
B1929174750123N12002922WA0036100341
B1929184750123N12002912WA0036100341
B1929194750122N12002903WA0036000340
B1929204750121N12002893WA0036000339
B1929214750120N12002883WA0035900339
B1929224750119N12002872WA0035900338
B1929234750117N12002862WA0035800338
B1929244750116N12002851WA0035800337
B1929254750115N12002840WA0035700337
B1929264750114N12002829WA0035700337
B1929274750113N12002818WA0035700337
B1929284750111N12002807WA0035600337
B1929294750110N12002795WA0035600337
B1929304750108N12002784WA0035600337
B1929314750106N12002773WA0035500336
B1929324750104N12002762WA0035500336
B1929334750102N12002751WA0035500337
B1929344750099N12002739WA0035500337
B1929354750097N12002728WA0035400337
B1929364750094N12002716WA0035400338
B1929374750091N12002704WA0035400338
B1929384750089N12002692WA0035400338
B1929394750086N12002679WA0035400339
B1929404750083N12002667WA0035400339
B1929414750081N12002654WA0035400339
B1929424750079N12002642WA0035400340
B1929434750077N12002629WA0035400340
B1929444750075N12002616WA0035400341
B1929454750073N12002604WA0035400342
B1929464750071N12002591WA0035400343
B1929474750070N12002578WA0035400343
B1929484750068N12002565WA0035400344
B1929494750066N12002552WA0035400344
B1929504750065N12002540WA0035400345
B1929514750063N12002527WA0035400345
B1929524750062N12002515WA0035500346
B1929534750061N12002502WA0035500347
B1929544750059N12002488WA0035500347
B1929554750057N12002475WA0035500346
B1929564750056N12002462WA0035500346
B1929574750055N12002450WA0035500346
B1929584750053N12002437WA0035500346
B1929594750052N12002425WA0035500346
B1930004750051N12002413WA0035400346
B1930014750050N12002402WA0035400346
B1930024750050N12002390WA0035400346
B1930034750050N12002379WA0035400347
B1930044750051N12002369WA0035400347
B1930054750053N12002358WA0035400347
B1930064750056N12002349WA0035400347
B1930074750060N12002340WA0035400347
B1930084750064N12002331WA0035400348
B1930094750069N12002324WA0035400347
B1930104750074N12002317WA0035400347
B1930114750080N12002311WA0035400347
B1930124750086N12002307WA0035400346
B1930134750092N12002302WA0035400346
B1930144750099N12002298WA0035400345
B1930154750105N12002294WA0035400344
B1930164750111N12002290WA0035400344
B1930174750117N12002286WA0035400344
B1930184750123N12002282WA0035400344
B1930194750129N12002277WA0035400344
B1930204750134N12002271WA0035400344
B1930214750139N12002264WA0035400344
B1930224750143N12002256WA0035300344
B1930234750147N12002248WA0035300344
B1930244750150N12002240WA0035300344
B1930254750152N12002231WA0035300344
B1930264750154N12002221WA0035300344
B1930274750156N12002211WA0035300343
B1930284750156N12002201WA0035300342
B1930294750156N12002190WA0035300342
B1930304750156N12002180WA0035300341
B1930314750155N12002170WA0035300341
B1930324750154N12002160WA0035300340
B1930334750154N12002149WA0035300340
B1930344750153N12002139WA0035300339
B1930354750152N12002129WA0035300340
B1930364750151N12002118WA0035300340
B1930374750149N12002107WA0035300341
B1930384750148N12002096WA0035300341
B1930394750148N12002086WA0035300341
B1930404750147N12002076WA0035300340
B1930414750147N12002065WA0035300340
B1930424750147N12002055WA0035300339
B1930434750148N12002044WA0035300339
B1930444750149N12002033WA0035300339
B1930454750151N12002023WA0035300339
B1930464750153N12002012WA0035300339
B1930474750156N12002002WA0035400339
B1930484750159N12001992WA0035400339
B1930494750163N12001982WA0035400339
B1930504750166N12001972WA0035400338
B1930514750170N12001962WA0035400339
B1930524750173N12001952WA0035500339
B1930534750177N12001941WA0035500338
B1930544750180N12001930WA0035500338
B1930554750182N12001918WA0035500339
B1930564750184N12001906WA0035500338
B1930574750185N12001893WA0035600338
B1930584750186N12001881WA0035600337
B1930594750186N12001869WA0035600337
B1931004750185N12001856WA0035600337
B1931014750184N12001844WA0035600336
B1931024750184N12001831WA0035600335
B1931034750183N12001819WA0035700334
B1931044750183N12001807WA0035700335
B1931054750182N12001795WA0035700334
B1931064750182N12001782WA0035700335
B1931074750181N12001771WA0035700335
B1931084750180N12001759WA0035800336
B1931094750180N12001747WA0035800336
B1931104750179N12001736WA0035800336
B1931114750179N12001724WA0035800336
B1931124750178N12001713WA0035800335
B1931134750177N12001702WA0035800336
B1931144750176N12001690WA0035800336
B1931154750176N12001679WA0035800336
B1931164750175N12001668WA0035800336
B1931174750174N12001657WA0035800336
B1931184750173N12001646WA0035800337
B1931194750173N12001635WA0035800337
B1931204750172N12001624WA0035800338
B1931214750171N12001613WA0035800338
B1931224750170N12001603WA0035800338
B1931234750170N12001592WA0035700338
B1931244750169N12001581WA0035700338
B1931254750168N12001570WA0035700338
B1931264750167N12001558WA0035700339
B1931274750167N12001547WA0035700339
B1931284750166N12001536WA0035700339
B1931294750165N12001525WA0035700340
B1931304750165N12001514WA0035600342
B1931314750164N12001504WA0035600343
B1931324750164N12001493WA0035600344
B1931334750163N12001483WA0035700345
B1931344750163N12001473WA0035700345
B1931354750163N12001463WA0035700345
B1931364750162N12001453WA0035700345
B1931374750162N12001443WA0035700345
B1931384750161N12001434WA0035700345
B1931394750160N12001424WA0035800346
B1931404750160N12001415WA0035800346
B1931414750159N12001406WA0035800347
B1931424750159N12001397WA0035800347
B1931434750158N12001387WA0035900346
B1931444750158N12001378WA0035900346
B1931454750157N12001368WA0035900346
B1931464750156N12001358WA0036000347
B1931474750156N12001349WA0036000346
B1931484750155N12001339WA0036000347
B1931494750154N12001329WA0036100347
B1931504750154N12001319WA0036100347
B1931514750153N12001309WA0036100347
B1931524750153N12001299WA0036100347
B1931534750152N12001289WA0036200348
B1931544750151N12001279WA0036200349
B1931554750151N12001269WA0036200349
B1931564750150N12001258WA0036200349
B1931574750149N12001248WA0036200350
B1931584750149N12001238WA0036200350
B1931594750148N12001227WA0036300350
B1932004750148N12001217WA0036300350
B1932014750148N12001206WA0036300349
B1932024750147N12001196WA0036300348
B1932034750147N12001186WA0036300347
B1932044750146N12001176WA0036300348
B1932054750146N12001166WA0036300348
B1932064750146N12001157WA0036300346
B1932074750145N12001148WA0036300346
B1932084750145N12001138WA0036300345
B1932094750144N12001129WA0036300345
B1932104750143N12001120WA0036300346
B1932114750143N12001110WA0036300346
B1932124750142N12001101WA0036300345
B1932134750142N12001092WA0036300344
B1932144750142N12001083WA0036200344
B1932154750143N12001074WA0036200343
B1932164750144N12001065WA0036200343
B1932174750145N12001056WA0036200344
B1932184750148N12001047WA0036200344
B1932194750151N12001038WA0036200344
B1932204750154N12001029WA0036200344
B1932214750158N12001020WA0036200344
B1932224750161N12001010WA0036200344
B1932234750164N12001000WA0036200344
B1932244750168N12000991WA0036100344
B1932254750171N12000982WA0036100344
B1932264750174N12000972WA0036100344
B1932274750177N12000963WA0036100344
B1932284750180N12000954WA0036100344
B1932294750184N12000945WA0036000343
B1932304750187N12000935WA0036000343
B1932314750190N12000927WA0036000343
B1932324750194N12000919WA0036000343
B1932334750199N12000912WA0036000343
B1932344750205N12000907WA0036000344
B1932354750211N12000904WA0035900344
B1932364750217N12000902WA0035900343
B1932374750225N12000900WA0035900343
B1932384750232N12000899WA0035900343
B1932394750239N12000899WA0035900343
B1932404750247N12000898WA0035900343
B1932414750254N12000897WA0035900343
B1932424750261N12000897WA0035900344
B1932434750268N12000897WA0035900344
B1932444750276N12000896WA0035900345
B1932454750283N12000895WA0035900345
B1932464750290N12000895WA0035900346
B1932474750298N12000895WA0035900346
B1932484750305N12000895WA0035900346
B1932494750312N12000894WA0035900345
B1932504750319N12000894WA0035900345
B1932514750326N12000894WA0035900345
B1932524750333N12000893WA0035900345
B1932534750339N12000893WA0035800344
B1932544750346N12000893WA0035800344
B1932554750353N12000892WA0035800343
B1932564750359N12000892WA0035800343
B1932574750365N12000891WA0035800343
B1932584750370N12000890WA0035800343
B1932594750375N12000890WA0035800343
B1933004750378N12000890WA0035800343
B1933014750380N12000889WA0035800342
B1933024750381N12000889WA0035800342
B1933034750382N12000889WA0035800342
B1933044750382N12000889WA0035800342
B1933054750383N12000888WA0035800342
B1933064750384N12000888WA0035800342
B1933074750385N12000886WA0035800342
B1933084750387N12000884WA0035800342
B1933094750388N12000880WA0035800342
B1933104750389N12000875WA0035800342
B1933114750389N12000869WA0035800341
B1933124750389N12000861WA0035800341
B1933134750389N12000853WA0035800340
B1933144750388N12000844WA0035800341
B1933154750388N12000835WA0035800341
B1933164750388N12000825WA0035800341
B1933174750388N12000815WA0035900341
B1933184750388N12000804WA0035900341
B1933194750388N12000793WA0035900342
B1933204750388N12000781WA0035900342
B1933214750388N12000769WA0035900342
B1933224750387N12000757WA0035900342
B1933234750387N12000745WA0035900343
B1933244750387N12000732WA0036000343
B1933254750386N12000719WA0036000344
B1933264750386N12000706WA0036000345
B1933274750386N12000692WA0036000345
B1933284750386N12000678WA0036100345
B1933294750386N12000665WA0036100345
B1933304750385N12000651WA0036100345
B1933314750385N12000637WA0036200345
B1933324750385N12000624WA0036200345
B1933334750384N12000610WA0036300346
B1933344750384N12000596WA0036300347
B1933354750384N12000583WA0036300348
B1933364750384N12000570WA0036400348
B1933374750383N12000556WA0036400349
B1933384750383N12000543WA0036500350
B1933394750383N12000530WA0036600351
B1933404750382N12000517WA0036600351
B1933414750382N12000503WA0036700352
B1933424750382N12000490WA0036700352
B1933434750381N12000476WA0036800353
B1933444750381N12000463WA0036800353
B1933454750380N12000449WA0036900354
B1933464750380N12000435WA0037000354
B1933474750380N12000421WA0037000355
B1933484750379N12000407WA0037100355
B1933494750379N12000393WA0037200356
B1933504750379N12000379WA0037200356
B1933514750378N12000365WA0037300357
B1933524750378N12000351WA0037300357
B1933534750378N12000338WA0037400357
B1933544750377N12000324WA0037400358
B1933554750377N12000310WA0037500358
B1933564750377N12000297WA0037500358
B1933574750376N12000283WA0037600358
B1933584750376N12000269WA0037600358
B1933594750376N12000256WA0037600358
B1934004750375N12000242WA0037700358
B1934014750375N12000229WA0037700358
B1934024750375N12000215WA0037700358
B1934034750374N12000201WA0037800358
B1934044750374N12000187WA0037800358
B1934054750374N12000172WA0037800358
B1934064750373N12000158WA0037800358
B1934074750373N12000144WA0037800358
B1934084750372N12000129WA0037800358
B1934094750372N12000114WA0037900359
B1934104750371N12000099WA0037900359
B1934114750371N12000084WA0037900359
B1934124750370N12000070WA0037900360
B1934134750370N12000055WA0037900360
B1934144750370N12000040WA0037900360
B1934154750369N12000025WA0038000360
B1934164750369N12000011WA0038000360
B1934174750368N11959997WA0038000360
B1934184750368N11959983WA0038000361
B1934194750367N11959970WA0038000361
B1934204750367N11959956WA0038000362
B1934214750366N11959942WA0038000362
B1934224750364N11959929WA0038000363
B1934234750362N11959915WA0038100363
B1934244750361N11959901WA0038100363
B1934254750360N11959887WA0038100363
B1934264750358N11959873WA0038100364
B1934274750357N11959860WA0038200364
B1934284750356N11959846WA0038200364
B1934294750355N11959831WA0038300364
B1934304750354N11959817WA0038300365
B1934314750352N11959803WA0038300365
B1934324750352N11959788WA0038400365
B1934334750351N11959774WA0038400365
B1934344750350N11959759WA0038400365
B1934354750348N11959744WA0038500365
B1934364750348N11959730WA0038600366
B1934374750347N11959715WA0038600366
B1934384750346N11959701WA0038700367
B1934394750345N11959686WA0038800368
B1934404750344N11959672WA0038800369
B1934414750343N11959658WA0038900370
B1934424750342N11959644WA0039000371
B1934434750341N11959630WA0039100372
B1934444750340N11959616WA0039100373
B1934454750340N11959603WA0039200374
B1934464750340N11959590WA0039300375
B1934474750341N11959576WA0039400376
B1934484750342N11959563WA0039400377
B1934494750343N11959550WA0039500378
B1934504750345N11959537WA0039600379
B1934514750347N11959525WA0039700380
B1934524750350N11959513WA0039700381
B1934534750353N11959502WA0039800382
B1934544750356N11959490WA0039800383
B1934554750360N11959480WA0039900383
B1934564750364N11959469WA0040000384
B1934574750368N11959459WA0040000384
B1934584750372N11959449WA0040100385
B1934594750377N11959439WA0040100385
B1935004750383N11959429WA0040200386
B1935014750388N11959419WA0040200386
B1935024750395N11959410WA0040200387
B1935034750401N11959400WA0040300387
B1935044750407N11959391WA0040300388
B1935054750413N11959382WA0040300388
B1935064750420N11959373WA0040400388
B1935074750425N11959363WA0040400389
B1935084750431N11959353WA0040400389
B1935094750436N11959342WA0040500389
B1935104750441N11959331WA0040500390
B1935114750445N11959319WA0040500390
B1935124750449N11959307WA0040600390
B1935134750453N11959295WA0040600390
B1935144750457N11959283WA0040600390
B1935154750461N11959271WA0040700390
B1935164750464N11959259WA0040700390
B1935174750468N11959248WA0040700390
B1935184750471N11959236WA0040700390
B1935194750474N11959225WA0040700390
B1935204750477N11959214WA0040700390
B1935214750480N11959205WA0040700390
B1935224750482N11959196WA0040700390
B1935234750483N11959188WA0040700391
B1935244750483N11959181WA0040700391
B1935254750482N11959175WA0040700391
B1935264750479N11959171WA0040700390
B1935274750476N11959168WA0040700390
B1935284750471N11959167WA0040700390
B1935294750466N11959167WA0040700390
B1935304750461N11959166WA0040700390
B1935314750456N11959165WA0040700390
B1935324750450N11959163WA0040700391
B1935334750445N11959160WA0040700390
B1935344750441N11959156WA0040700390
B1935354750437N11959150WA0040700390
B1935364750435N11959143WA0040700390
B1935374750434N11959136WA0040700391
B1935384750432N11959127WA0040700391
B1935394750431N11959119WA0040700391
B1935404750431N11959111WA0040700391
B1935414750429N11959104WA0040700391
B1935424750426N11959096WA0040800391
B1935434750423N11959089WA0040800392
B1935444750420N11959083WA0040800392
B1935454750415N11959078WA0040900392
B1935464750410N11959074WA0040900392
B1935474750404N11959070WA0040900392
B1935484750399N11959066WA0041000392
B1935494750393N11959063WA0041000393
B1935504750387N11959059WA0041000394
B1935514750381N11959056WA0041100394
B1935524750376N11959053WA0041100395
B1935534750370N11959049WA0041100395
B1935544750364N11959045WA0041100394
B1935554750359N11959041WA0041100394
B1935564750354N11959036WA0041100394
B1935574750348N11959032WA0041200394
B1935584750343N11959027WA0041200393
B1935594750337N11959022WA0041100393
B1936004750332N11959016WA0041100392
B1936014750326N11959011WA0041100392
B1936024750321N11959005WA0041100392
B1936034750317N11958999WA0041100392
B1936044750312N11958994WA0041100393
B1936054750308N11958988WA0041100393
B1936064750304N11958982WA0041100393
B1936074750300N11958976WA0041100393
B1936084750297N11958970WA0041100394
B1936094750293N11958964WA0041100394
B1936104750290N11958958WA0041100394
B1936114750286N11958953WA0041100394
B1936124750282N11958949WA0041100394
B1936134750278N11958947WA0041100394
B1936144750273N11958946WA0041100394
B1936154750269N11958947WA0041100394
B1936164750264N11958948WA0041100394
B1936174750260N11958951WA0041200395
B1936184750256N11958955WA0041200395
B1936194750252N11958959WA0041200395
B1936204750248N11958963WA0041100394
B1936214750244N11958967WA0041100394
B1936224750240N11958970WA0041100393
B1936234750237N11958972WA0041100392
B1936244750233N11958973WA0041000391
B1936254750230N11958973WA0041000390
B1936264750226N11958972WA0041000389
B1936274750224N11958969WA0040900389
B1936284750222N11958965WA0040900388
B1936294750221N11958960WA0040800388
B1936304750221N11958954WA0040800388
B1936314750222N11958949WA0040700388
B1936324750222N11958944WA0040700389
B1936334750222N11958939WA0040600388
B1936344750221N11958935WA0040600389
B1936354750220N11958932WA0040600389
B1936364750219N11958930WA0040600388
B1936374750217N11958928WA0040500388
B1936384750216N11958927WA0040500388
B1936394750214N11958926WA0040500387
B1936404750212N11958925WA0040500387
B1936414750211N11958924WA0040500387
B1936424750209N11958924WA0040400387
B1936434750208N11958923WA0040400386
B1936444750207N11958921WA0040400386
B1936454750206N11958920WA0040400386
B1936464750206N11958918WA0040400387
B1936474750207N11958917WA0040400387
B1936484750207N11958915WA0040400387
B1936494750208N11958914WA0040400387
B1936504750208N11958913WA0040400387
B1936514750208N11958912WA0040400387
B1936524750208N11958912WA0040400387
B1936534750208N11958913WA0040400387
B1936544750207N11958913WA0040300388
B1936554750207N11958914WA0040300388
B1936564750207N11958914WA0040300388
B1936574750207N11958914WA0040300388
B1936584750207N11958914WA0040300388
B1936594750207N11958914WA0040300389
B1937004750207N11958914WA0040300389
B1937014750207N11958914WA0040300389
B1937024750207N11958914WA0040400389
B1937034750207N11958914WA0040400388
B1937044750207N11958914WA0040300388
B1937054750207N11958914WA0040300388
B1937064750207N11958914WA0040300388
B1937074750207N11958914WA0040300389
B1937084750207N11958914WA0040300389
B1937094750207N11958915WA0040300389
B1937104750206N11958915WA0040300389
B1937114750206N11958915WA0040300389
B1937124750206N11958915WA0040300388
B1937134750206N11958915WA0040300388
B1937144750206N11958916WA0040300388
B1937154750205N11958916WA0040300388
B1937164750205N11958917WA0040300387
B1937174750204N11958918WA0040300387
B1937184750203N11958919WA0040300387
B1937194750202N11958919WA0040300388
B1937204750202N11958921WA0040300387
B1937214750202N11958921WA0040300388
B1937224750201N11958921WA0040300388
B1937234750201N11958921WA0040300388
B1937244750200N11958922WA0040300388
B1937254750200N11958922WA0040300387
B1937264750200N11958922WA0040300387
B1937274750199N11958922WA0040300388
B1937284750199N11958921WA0040300388
B1937294750199N11958921WA0040300388
B1937304750199N11958920WA0040300388
B1937314750199N11958920WA0040300387
B1937324750198N11958919WA0040300388
B1937334750198N11958919WA0040300388
B1937344750198N11958919WA0040300387
B1937354750197N11958919WA0040300387
B1937364750197N11958918WA0040300387
B1937374750196N11958918WA0040300387
B1937384750196N11958918WA0040300387
B1937394750195N11958918WA0040300387
B1937404750194N11958918WA0040300387
B1937414750194N11958918WA0040300387
B1937424750193N11958918WA0040300387
B1937434750192N11958918WA0040300388
B1937444750191N11958918WA0040200388
B1937454750191N11958918WA0040200389
B1937464750190N11958918WA0040200389
B1937474750190N11958917WA0040200389
B1937484750190N11958917WA0040200388
B1937494750190N11958917WA0040200388
B1937504750189N11958917WA0040200387
B1937514750189N11958917WA0040200386
B1937524750189N11958917WA0040200386
B1937534750189N11958917WA0040200386
B1937544750189N11958916WA0040200386
B1937554750189N11958916WA0040200386
B1937564750189N11958916WA0040200386
B1937574750189N11958916WA0040200385
B1937584750189N11958916WA0040200385
B1937594750189N11958916WA0040200385
B1938004750189N11958915WA0040200385
B1938014750189N11958915WA0040200384
B1938024750189N11958915WA0040200384
B1938034750189N11958914WA0040200383
B1938044750188N11958913WA0040200385
B1938054750188N11958913WA0040200387
B1938064750188N11958912WA0040200386
B1938074750188N11958912WA0040200386
B1938084750188N11958912WA0040200386
B1938094750188N11958912WA0040200386
B1938104750187N11958912WA0040200386
B1938114750187N11958911WA0040200385
B1938124750187N11958911WA0040200385
B1938134750187N11958911WA0040200385
B1938144750187N11958911WA0040200385
B1938154750187N11958911WA0040200385
B1938164750187N11958911WA0040200385
B1938174750187N11958911WA0040200385
B1938184750187N11958910WA0040200384
B1938194750187N11958910WA0040200384
B1938204750187N11958910WA0040200384
B1938214750187N11958910WA0040200384
B1938224750187N11958910WA0040200384
B1938234750187N11958910WA0040200384
B1938244750187N11958910WA0040200384
B1938254750187N11958910WA0040200384
B1938264750187N11958910WA0040200384
B1938274750187N11958910WA0040200383
B1938284750187N11958910WA0040200383
B1938294750187N11958910WA0040100383
B1938304750187N11958910WA0040100383
B1938314750187N11958909WA0040100383
B1938324750187N11958909WA0040100383
B1938334750187N11958909WA0040100383
B1938344750187N11958909WA0040100383
B1938354750187N11958909WA0040100383
B1938364750187N11958909WA0040100383
B1938374750186N11958909WA0040100383
B1938384750186N11958909WA0040100383
B1938394750186N11958909WA0040100383
B1938404750186N11958909WA0040100383
B1938414750186N11958909WA0040100383
B1938424750186N11958909WA0040100383
B1938434750186N11958909WA0040200383
B1938444750186N11958909WA0040200383
B1938454750186N11958909WA0040200383
B1938464750186N11958909WA0040200383
B1938474750186N11958909WA0040200383
B1938484750186N11958909WA0040200383
B1938494750186N11958909WA0040200383
B1938504750186N11958909WA0040200383
B1938514750186N11958909WA0040200383
B1938524750186N11958909WA0040200383
B1938534750186N11958909WA0040200383
B1938544750186N11958909WA0040200383
B1938554750186N11958909WA0040200383
B1938564750186N11958909WA0040200383
B1938574750186N11958909WA0040200383
B1938584750186N11958909WA0040200383
B1938594750186N11958909WA0040200383
B1939004750186N11958909WA0040200383
B1939014750186N11958909WA0040200383
B1939024750186N11958909WA0040200383
B1939034750186N11958909WA0040200383
B1939044750186N11958909WA0040200383
B1939054750186N11958909WA0040200383
B1939064750186N11958909WA0040200382
B1939074750186N11958909WA0040200382
B1939084750186N11958909WA0040200382
B1939094750186N11958909WA0040200382
B1939104750186N11958909WA0040200382
B1939114750186N11958909WA0040200382
B1939124750186N11958909WA0040200382
B1939134750186N11958909WA0040200382
B1939144750186N11958909WA0040200382
B1939154750186N11958909WA0040200382
B1939164750186N11958909WA0040200382
B1939174750186N11958909WA0040200382
B1939184750186N11958909WA0040200382
B1939194750186N11958909WA0040200382
B1939204750186N11958909WA0040200382
B1939214750186N11958909WA0040200382
B1939224750186N11958909WA0040200382
B1939234750186N11958909WA0040200381
B1939244750186N11958909WA0040200381
B1939254750186N11958909WA0040200381
B1939264750186N11958909WA0040200381
B1939274750186N11958909WA0040200381
B1939284750186N11958909WA0040200381
B1939294750186N11958909WA0040200381
B1939304750186N11958909WA0040200381
B1939314750186N11958909WA0040200381
B1939324750186N11958909WA0040200381
B1939334750186N11958909WA0040200381
B1939344750186N11958908WA0040200381
B1939354750186N11958908WA0040200381
B1939364750186N11958908WA0040200382
B1939374750186N11958908WA0040200382
B1939384750186N11958908WA0040200382
B1939394750186N11958908WA0040200382
B1939404750186N11958908WA0040200382
B1939414750186N11958908WA0040200382
B1939424750186N11958908WA0040200382
B1939434750186N11958909WA0040200382
B1939444750186N11958909WA0040200382
B1939454750186N11958909WA0040200382
B1939464750186N11958909WA0040200382
B1939474750186N11958909WA0040200382
B1939484750186N11958909WA0040200382
B1939494750186N11958909WA0040200382
B1939504750186N11958909WA0040200382
B1939514750186N11958909WA0040200382
B1939524750186N11958909WA0040200382
B1939534750186N11958909WA0040200382
B1939544750186N11958909WA0040200383
B1939554750186N11958909WA0040200383
B1939564750186N11958909WA0040200383
B1939574750186N11958909WA0040200383
LXFM live.flymaster.net version 1.01
LXFM Created 2025-06-26 23:39:38
LXFM flight id 1616573
G2DA30A58487D14CB44A2DD1F266D9184
