AXFMSFP Flymaster Live, V1.0, S/N 700891
HFFXA010
HFPLTPILOT:Oleksiy Buynytskyy
HFGTYGLIDERTYPE: 
HFGIDGLIDERID:
HFDTM100GPSDATUM:WGS-1984
HFCIDCOMPETITIONID:1001
HFCCLCOMPETITIONCLASS:
HOSITSITE:Chelan Butte-US
HFGPS:UBLOXNEO6
HFPRSPRESSALTSENSOR:NA
HFRFWFIRMWAREVERSION:203f
HFRHWHARDWAREVERSION:1.0R2
HFFTYFRTYPE:FLYMASTER,LIVE
HFDTE260625
B1914024748292N12002305WA0108901132
B1914034748291N12002307WA0108901132
B1914044748290N12002308WA0108901132
B1914054748289N12002309WA0108901132
B1914064748288N12002310WA0108901132
B1914074748287N12002311WA0108901132
B1914084748287N12002311WA0108801132
B1914094748286N12002312WA0108801132
B1914104748285N12002313WA0108801132
B1914114748284N12002313WA0108801132
B1914124748283N12002313WA0108801132
B1914134748282N12002314WA0108801132
B1914144748281N12002314WA0108801132
B1914154748281N12002314WA0108801132
B1914164748280N12002315WA0108801132
B1914174748280N12002315WA0108801132
B1914184748280N12002315WA0108801132
B1914194748280N12002315WA0108801132
B1914204748280N12002315WA0108801132
B1914214748281N12002315WA0108801132
B1914224748281N12002315WA0108801132
B1914234748281N12002315WA0108701131
B1914244748281N12002315WA0108701131
B1914254748281N12002315WA0108701131
B1914264748281N12002315WA0108701131
B1914274748281N12002315WA0108701131
B1914284748281N12002315WA0108701131
B1914294748281N12002315WA0108701131
B1914304748281N12002315WA0108701131
B1914314748281N12002315WA0108701131
B1914324748281N12002315WA0108701131
B1914334748281N12002315WA0108701131
B1914344748281N12002315WA0108701131
B1914354748281N12002315WA0108701131
B1914364748281N12002315WA0108701131
B1914374748281N12002315WA0108701131
B1914384748281N12002315WA0108701131
B1914394748281N12002315WA0108701131
B1914404748281N12002315WA0108701131
B1914414748281N12002315WA0108701131
B1914424748281N12002315WA0108701131
B1914434748280N12002315WA0108701131
B1914444748280N12002315WA0108701131
B1914454748280N12002315WA0108601131
B1914464748280N12002315WA0108601131
B1914474748280N12002315WA0108601131
B1914484748280N12002315WA0108601131
B1914494748280N12002315WA0108601130
B1914504748280N12002315WA0108601130
B1914514748280N12002315WA0108601130
B1914524748280N12002315WA0108601130
B1914534748280N12002315WA0108601130
B1914544748280N12002315WA0108601130
B1914554748280N12002315WA0108601130
B1914564748280N12002315WA0108601130
B1914574748280N12002315WA0108601130
B1914584748280N12002315WA0108601130
B1914594748280N12002315WA0108601130
B1915004748280N12002315WA0108601130
B1915014748280N12002315WA0108601130
B1915024748280N12002315WA0108601130
B1915034748280N12002316WA0108601130
B1915044748280N12002316WA0108601130
B1915054748280N12002316WA0108601130
B1915064748281N12002316WA0108601130
B1915074748281N12002316WA0108601130
B1915084748281N12002316WA0108601130
B1915094748281N12002316WA0108601130
B1915104748281N12002316WA0108601130
B1915114748281N12002316WA0108601130
B1915124748281N12002316WA0108601130
B1915134748281N12002316WA0108601130
B1915144748281N12002316WA0108601130
B1915154748281N12002316WA0108601130
B1915164748281N12002316WA0108601130
B1915174748281N12002316WA0108601130
B1915184748281N12002316WA0108601130
B1915194748281N12002316WA0108601130
B1915204748281N12002316WA0108601130
B1915214748281N12002316WA0108601130
B1915224748281N12002316WA0108601130
B1915234748281N12002316WA0108601130
B1915244748281N12002316WA0108601130
B1915254748281N12002316WA0108601130
B1915264748281N12002316WA0108601130
B1915274748281N12002316WA0108601130
B1915284748281N12002316WA0108601130
B1915294748281N12002316WA0108601130
B1915304748281N12002316WA0108601130
B1915314748281N12002316WA0108601130
B1915324748281N12002316WA0108601130
B1915334748281N12002316WA0108601130
B1915344748281N12002316WA0108601130
B1915354748281N12002316WA0108601130
B1915364748281N12002316WA0108601130
B1915374748281N12002316WA0108601130
B1915384748281N12002316WA0108601130
B1915394748281N12002316WA0108601130
B1915404748281N12002316WA0108601130
B1915414748281N12002316WA0108601130
B1915424748281N12002316WA0108601130
B1915434748281N12002316WA0108601130
B1915444748281N12002316WA0108601130
B1915454748281N12002316WA0108601130
B1915464748281N12002316WA0108601130
B1915474748281N12002316WA0108601130
B1915484748281N12002316WA0108601130
B1915494748281N12002316WA0108601130
B1915504748281N12002316WA0108501130
B1915514748281N12002316WA0108501130
B1915524748281N12002316WA0108501130
B1915534748281N12002316WA0108501130
B1915544748281N12002316WA0108501130
B1915554748281N12002316WA0108501130
B1915564748281N12002316WA0108501130
B1915574748281N12002316WA0108501130
B1915584748281N12002316WA0108501130
B1915594748281N12002316WA0108501130
B1916004748281N12002316WA0108501130
B1916014748281N12002316WA0108501130
B1916024748281N12002316WA0108501130
B1916034748281N12002316WA0108501130
B1916044748281N12002316WA0108501130
B1916054748281N12002316WA0108501130
B1916064748281N12002316WA0108501130
B1916074748281N12002316WA0108501130
B1916084748281N12002316WA0108501130
B1916094748281N12002316WA0108501130
B1916104748281N12002316WA0108501130
B1916114748281N12002316WA0108501130
B1916124748281N12002316WA0108401129
B1916134748281N12002316WA0108401129
B1916144748281N12002315WA0108401128
B1916154748281N12002315WA0108401128
B1916164748281N12002315WA0108401128
B1916174748281N12002315WA0108401128
B1916184748281N12002315WA0108401128
B1916194748281N12002315WA0108401128
B1916204748281N12002315WA0108401128
B1916214748281N12002315WA0108401128
B1916224748281N12002315WA0108401128
B1916234748281N12002315WA0108401128
B1916244748281N12002315WA0108301128
B1916254748281N12002315WA0108301128
B1916264748281N12002315WA0108301128
B1916274748281N12002315WA0108301128
B1916284748281N12002315WA0108301128
B1916294748281N12002315WA0108301128
B1916304748281N12002315WA0108301128
B1916314748281N12002315WA0108301128
B1916324748281N12002315WA0108301129
B1916334748281N12002315WA0108301129
B1916344748281N12002315WA0108301129
B1916354748281N12002315WA0108301129
B1916364748281N12002315WA0108301129
B1916374748281N12002315WA0108301129
B1916384748281N12002315WA0108301129
B1916394748281N12002315WA0108301129
B1916404748281N12002315WA0108301129
B1916414748281N12002315WA0108301129
B1916424748281N12002315WA0108301129
B1916434748281N12002315WA0108301129
B1916444748281N12002315WA0108301129
B1916454748281N12002315WA0108301129
B1916464748281N12002315WA0108301129
B1916474748281N12002315WA0108301130
B1916484748281N12002315WA0108301130
B1916494748281N12002315WA0108301130
B1916504748281N12002315WA0108301130
B1916514748281N12002315WA0108301130
B1916524748281N12002315WA0108301130
B1916534748281N12002315WA0108301130
B1916544748281N12002315WA0108301130
B1916554748281N12002315WA0108301130
B1916564748281N12002315WA0108301130
B1916574748281N12002315WA0108301130
B1916584748281N12002315WA0108301130
B1916594748281N12002315WA0108301130
B1917004748281N12002315WA0108301130
B1917014748281N12002315WA0108301130
B1917024748281N12002315WA0108301130
B1917034748281N12002315WA0108301130
B1917044748281N12002315WA0108301130
B1917054748281N12002315WA0108301130
B1917064748281N12002315WA0108301130
B1917074748281N12002315WA0108301130
B1917084748281N12002315WA0108301129
B1917094748281N12002315WA0108301129
B1917104748281N12002315WA0108301129
B1917114748281N12002315WA0108301129
B1917124748281N12002315WA0108301129
B1917134748281N12002315WA0108301129
B1917144748281N12002315WA0108301129
B1917154748281N12002315WA0108301129
B1917164748281N12002315WA0108301129
B1917174748281N12002315WA0108301129
B1917184748281N12002315WA0108301129
B1917194748281N12002315WA0108301129
B1917204748281N12002315WA0108301129
B1917214748281N12002315WA0108301129
B1917224748281N12002315WA0108301129
B1917234748281N12002315WA0108201129
B1917244748281N12002315WA0108201129
B1917254748281N12002315WA0108201129
B1917264748281N12002315WA0108201129
B1917274748281N12002315WA0108201129
B1917284748281N12002315WA0108301129
B1917294748281N12002315WA0108301129
B1917304748281N12002315WA0108301129
B1917314748281N12002315WA0108201129
B1917324748281N12002315WA0108201129
B1917334748281N12002315WA0108201129
B1917344748281N12002315WA0108201129
B1917354748281N12002315WA0108201129
B1917364748281N12002315WA0108101129
B1917374748281N12002316WA0108101129
B1917384748281N12002316WA0108101129
B1917394748281N12002316WA0108101129
B1917404748281N12002316WA0108101129
B1917414748281N12002316WA0108101129
B1917424748281N12002316WA0108101129
B1917434748281N12002316WA0108101129
B1917444748281N12002316WA0108101129
B1917454748281N12002316WA0108101128
B1917464748281N12002316WA0108101128
B1917474748281N12002316WA0108101128
B1917484748281N12002316WA0108101128
B1917494748281N12002316WA0108101128
B1917504748281N12002316WA0108201128
B1917514748281N12002316WA0108201128
B1917524748281N12002316WA0108201128
B1917534748281N12002316WA0108201128
B1917544748281N12002316WA0108201128
B1917554748281N12002316WA0108201127
B1917564748281N12002315WA0108201127
B1917574748281N12002315WA0108201127
B1917584748281N12002315WA0108201127
B1917594748281N12002315WA0108301127
B1918004748281N12002315WA0108301127
B1918014748281N12002316WA0108301127
B1918024748281N12002316WA0108301127
B1918034748281N12002316WA0108301127
B1918044748281N12002316WA0108301127
B1918054748281N12002316WA0108301127
B1918064748281N12002316WA0108301127
B1918074748281N12002316WA0108301127
B1918084748281N12002316WA0108401127
B1918094748281N12002316WA0108401127
B1918104748281N12002316WA0108401127
B1918114748281N12002316WA0108401127
B1918124748281N12002316WA0108401127
B1918134748281N12002316WA0108401127
B1918144748281N12002316WA0108401127
B1918154748281N12002316WA0108401127
B1918164748281N12002316WA0108401127
B1918174748281N12002316WA0108401127
B1918184748281N12002316WA0108501127
B1918194748281N12002316WA0108501127
B1918204748281N12002316WA0108501127
B1918214748281N12002316WA0108501127
B1918224748281N12002316WA0108501127
B1918234748281N12002316WA0108501127
B1918244748281N12002316WA0108501127
B1918254748281N12002316WA0108501127
B1918264748281N12002315WA0108501126
B1918274748281N12002315WA0108601126
B1918284748281N12002315WA0108601126
B1918294748281N12002315WA0108601126
B1918304748281N12002315WA0108601126
B1918314748281N12002315WA0108601126
B1918324748281N12002315WA0108601126
B1918334748281N12002315WA0108601126
B1918344748281N12002315WA0108601126
B1918354748281N12002315WA0108601126
B1918364748281N12002315WA0108601126
B1918374748281N12002315WA0108701126
B1918384748281N12002315WA0108701126
B1918394748281N12002315WA0108701126
B1918404748281N12002315WA0108701126
B1918414748281N12002315WA0108701126
B1918424748281N12002315WA0108701126
B1918434748281N12002315WA0108701126
B1918444748281N12002315WA0108701126
B1918454748281N12002315WA0108701125
B1918464748281N12002315WA0108801125
B1918474748281N12002315WA0108801125
B1918484748281N12002315WA0108801125
B1918494748281N12002315WA0108801125
B1918504748281N12002315WA0108801125
B1918514748281N12002315WA0108801125
B1918524748281N12002315WA0108801125
B1918534748281N12002315WA0108801125
B1918544748281N12002315WA0108801125
B1918554748281N12002315WA0108901125
B1918564748281N12002315WA0108901125
B1918574748281N12002315WA0108901125
B1918584748281N12002315WA0108901125
B1918594748281N12002315WA0108901125
B1919004748281N12002315WA0108901125
B1919014748281N12002315WA0108901125
B1919024748281N12002315WA0108901125
B1919034748282N12002315WA0108901125
B1919044748282N12002315WA0109001125
B1919054748282N12002315WA0109001125
B1919064748282N12002315WA0109001125
B1919074748282N12002315WA0109001125
B1919084748282N12002315WA0109001125
B1919094748282N12002315WA0109001125
B1919104748282N12002315WA0109001125
B1919114748282N12002315WA0109001125
B1919124748282N12002315WA0109001125
B1919134748282N12002315WA0109001125
B1919144748282N12002315WA0109101125
B1919154748282N12002315WA0109101125
B1919164748282N12002315WA0109101125
B1919174748282N12002315WA0109101125
B1919184748282N12002315WA0109101125
B1919194748282N12002315WA0109101125
B1919204748282N12002315WA0109101125
B1919214748282N12002315WA0109101125
B1919224748282N12002315WA0109101125
B1919234748282N12002315WA0109201125
B1919244748282N12002315WA0109201125
B1919254748282N12002315WA0109201125
B1919264748282N12002315WA0109201125
B1919274748282N12002315WA0109201125
B1919284748282N12002315WA0109201125
B1919294748282N12002315WA0109201125
B1919304748282N12002315WA0109201125
B1919314748282N12002315WA0109201125
B1919324748282N12002315WA0109201125
B1919334748282N12002315WA0109201125
B1919344748282N12002315WA0109301125
B1919354748282N12002315WA0109301125
B1919364748282N12002315WA0109301125
B1919374748282N12002315WA0109301125
B1919384748282N12002315WA0109301125
B1919394748281N12002315WA0109301125
B1919404748281N12002315WA0109301125
B1919414748281N12002315WA0109301125
B1919424748282N12002315WA0109301125
B1919434748282N12002315WA0109301125
B1919444748282N12002315WA0109301125
B1919454748282N12002315WA0109401125
B1919464748282N12002315WA0109401125
B1919474748282N12002315WA0109401125
B1919484748282N12002315WA0109401125
B1919494748282N12002315WA0109401125
B1919504748282N12002315WA0109401125
B1919514748282N12002315WA0109401125
B1919524748282N12002315WA0109401125
B1919534748282N12002315WA0109401125
B1919544748282N12002315WA0109401125
B1919554748282N12002315WA0109401125
B1919564748282N12002315WA0109401125
B1919574748282N12002315WA0109401125
B1919584748282N12002315WA0109401125
B1919594748282N12002315WA0109401125
B1920004748282N12002315WA0109401125
B1920014748282N12002315WA0109401125
B1920024748282N12002315WA0109401125
B1920034748282N12002315WA0109501125
B1920044748282N12002315WA0109501125
B1920054748282N12002315WA0109501125
B1920064748282N12002315WA0109501125
B1920074748282N12002315WA0109501125
B1920084748282N12002315WA0109501125
B1920094748282N12002315WA0109501125
B1920104748282N12002315WA0109501125
B1920114748282N12002315WA0109501125
B1920124748282N12002315WA0109501125
B1920134748282N12002315WA0109501125
B1920144748282N12002315WA0109501125
B1920154748282N12002315WA0109501125
B1920164748282N12002315WA0109501125
B1920174748282N12002315WA0109501125
B1920184748282N12002315WA0109501125
B1920194748282N12002315WA0109501125
B1920204748282N12002315WA0109601125
B1920214748282N12002315WA0109601125
B1920224748282N12002315WA0109601125
B1920234748282N12002315WA0109601125
B1920244748282N12002315WA0109601125
B1920254748282N12002315WA0109601125
B1920264748282N12002315WA0109601125
B1920274748282N12002315WA0109601125
B1920284748282N12002315WA0109601125
B1920294748282N12002315WA0109601125
B1920304748282N12002315WA0109601125
B1920314748282N12002315WA0109601125
B1920324748282N12002315WA0109601125
B1920334748282N12002315WA0109601125
B1920344748282N12002315WA0109601125
B1920354748282N12002315WA0109601125
B1920364748282N12002315WA0109701125
B1920374748282N12002315WA0109701125
B1920384748282N12002315WA0109701125
B1920394748282N12002315WA0109701125
B1920404748282N12002315WA0109701125
B1920414748282N12002315WA0109701125
B1920424748282N12002315WA0109701125
B1920434748282N12002315WA0109701126
B1920444748282N12002315WA0109701125
B1920454748282N12002315WA0109701125
B1920464748282N12002315WA0109701125
B1920474748282N12002315WA0109701125
B1920484748282N12002315WA0109701125
B1920494748282N12002315WA0109701125
B1920504748282N12002315WA0109801125
B1920514748282N12002315WA0109801125
B1920524748282N12002315WA0109801125
B1920534748282N12002315WA0109801125
B1920544748282N12002315WA0109801125
B1920554748282N12002315WA0109801125
B1920564748282N12002315WA0109801125
B1920574748282N12002315WA0109801125
B1920584748282N12002315WA0109801126
B1920594748282N12002315WA0109801126
B1921004748282N12002315WA0109801126
B1921014748281N12002315WA0109801126
B1921024748281N12002315WA0109801126
B1921034748281N12002315WA0109801126
B1921044748281N12002315WA0109901126
B1921054748281N12002315WA0109901126
B1921064748281N12002315WA0109901126
B1921074748281N12002315WA0109901126
B1921084748281N12002315WA0109901126
B1921094748281N12002315WA0109901126
B1921104748281N12002315WA0109901126
B1921114748281N12002315WA0109901126
B1921124748281N12002315WA0109901126
B1921134748281N12002315WA0109901126
B1921144748281N12002315WA0109901126
B1921154748281N12002315WA0109901126
B1921164748281N12002315WA0109901126
B1921174748281N12002315WA0110001126
B1921184748281N12002315WA0110001126
B1921194748281N12002315WA0110001126
B1921204748281N12002315WA0110001126
B1921214748281N12002315WA0110001126
B1921224748281N12002315WA0110001126
B1921234748281N12002315WA0110001126
B1921244748281N12002315WA0110001126
B1921254748281N12002315WA0110001126
B1921264748281N12002315WA0110001126
B1921274748281N12002315WA0110001126
B1921284748281N12002315WA0110001126
B1921294748281N12002315WA0110001126
B1921304748281N12002315WA0110001126
B1921314748281N12002315WA0110001127
B1921324748281N12002315WA0110001127
B1921334748281N12002315WA0110101127
B1921344748281N12002315WA0110101127
B1921354748281N12002315WA0110101127
B1921364748281N12002315WA0110101127
B1921374748281N12002315WA0110101126
B1921384748281N12002315WA0110101126
B1921394748281N12002315WA0110101126
B1921404748281N12002315WA0110101126
B1921414748281N12002315WA0110101126
B1921424748281N12002315WA0110101126
B1921434748281N12002315WA0110101126
B1921444748281N12002315WA0110101126
B1921454748281N12002315WA0110101126
B1921464748281N12002315WA0110101126
B1921474748281N12002315WA0110101126
B1921484748281N12002315WA0110101126
B1921494748281N12002315WA0110201126
B1921504748281N12002315WA0110201126
B1921514748281N12002315WA0110201126
B1921524748281N12002315WA0110201126
B1921534748281N12002315WA0110201126
B1921544748281N12002315WA0110201126
B1921554748281N12002315WA0110201126
B1921564748281N12002315WA0110201126
B1921574748281N12002315WA0110201126
B1921584748281N12002315WA0110201126
B1921594748281N12002315WA0110201126
B1922004748281N12002315WA0110201126
B1922014748281N12002315WA0110201126
B1922024748281N12002315WA0110201126
B1922034748281N12002315WA0110301126
B1922044748281N12002315WA0110301126
B1922054748281N12002315WA0110301126
B1922064748281N12002315WA0110301126
B1922074748281N12002315WA0110301126
B1922084748281N12002315WA0110301126
B1922094748281N12002315WA0110301126
B1922104748281N12002315WA0110301126
B1922114748281N12002315WA0110301126
B1922124748281N12002315WA0110301127
B1922134748281N12002315WA0110301127
B1922144748281N12002316WA0110301127
B1922154748281N12002316WA0110301127
B1922164748281N12002316WA0110301127
B1922174748281N12002316WA0110301127
B1922184748281N12002316WA0110301127
B1922194748281N12002316WA0110301127
B1922204748281N12002316WA0110401127
B1922214748281N12002316WA0110401127
B1922224748281N12002316WA0110401127
B1922234748281N12002316WA0110401127
B1922244748281N12002316WA0110401127
B1922254748281N12002316WA0110401127
B1922264748281N12002316WA0110401127
B1922274748281N12002316WA0110401127
B1922284748281N12002315WA0110401127
B1922294748281N12002315WA0110401127
B1922304748281N12002315WA0110401127
B1922314748281N12002315WA0110401127
B1922324748281N12002315WA0110401127
B1922334748281N12002315WA0110401127
B1922344748281N12002315WA0110401127
B1922354748281N12002315WA0110401127
B1922364748281N12002315WA0110401128
B1922374748281N12002315WA0110401128
B1922384748281N12002315WA0110401128
B1922394748281N12002315WA0110401128
B1922404748281N12002315WA0110501128
B1922414748281N12002315WA0110501128
B1922424748280N12002315WA0110501128
B1922434748280N12002315WA0110501128
B1922444748280N12002315WA0110501128
B1922454748280N12002315WA0110501128
B1922464748280N12002315WA0110501129
B1922474748280N12002315WA0110501129
B1922484748280N12002315WA0110501129
B1922494748280N12002315WA0110501129
B1922504748280N12002315WA0110501129
B1922514748280N12002315WA0110501129
B1922524748280N12002315WA0110501129
B1922534748280N12002315WA0110501129
B1922544748280N12002316WA0110501129
B1922554748280N12002316WA0110501129
B1922564748280N12002316WA0110501129
B1922574748280N12002316WA0110501130
B1922584748280N12002316WA0110501129
B1922594748280N12002316WA0110501129
B1923004748280N12002316WA0110501130
B1923014748280N12002316WA0110501130
B1923024748280N12002316WA0110501130
B1923034748280N12002316WA0110501130
B1923044748280N12002316WA0110501130
B1923054748280N12002316WA0110501130
B1923064748280N12002316WA0110501130
B1923074748280N12002316WA0110501130
B1923084748280N12002316WA0110501130
B1923094748280N12002316WA0110501130
B1923104748280N12002316WA0110601130
B1923114748280N12002316WA0110601130
B1923124748280N12002316WA0110601130
B1923134748280N12002316WA0110601130
B1923144748280N12002316WA0110601130
B1923154748280N12002316WA0110601130
B1923164748280N12002316WA0110601130
B1923174748280N12002316WA0110601130
B1923184748280N12002316WA0110601131
B1923194748280N12002316WA0110601131
B1923204748280N12002316WA0110601131
B1923214748280N12002316WA0110601131
B1923224748280N12002316WA0110601131
B1923234748280N12002316WA0110601131
B1923244748280N12002316WA0110601131
B1923254748280N12002316WA0110601130
B1923264748280N12002316WA0110601130
B1923274748280N12002316WA0110601130
B1923284748280N12002316WA0110601130
B1923294748280N12002316WA0110601130
B1923304748280N12002316WA0110601130
B1923314748280N12002316WA0110601130
B1923324748280N12002316WA0110601130
B1923334748280N12002316WA0110601130
B1923344748280N12002316WA0110601130
B1923354748280N12002316WA0110601130
B1923364748280N12002316WA0110601130
B1923374748280N12002316WA0110601130
B1923384748280N12002316WA0110601130
B1923394748280N12002316WA0110601130
B1923404748280N12002316WA0110601130
B1923414748280N12002316WA0110601130
B1923424748280N12002316WA0110601131
B1923434748280N12002316WA0110601131
B1923444748280N12002316WA0110601131
B1923454748280N12002316WA0110701131
B1923464748280N12002316WA0110701131
B1923474748280N12002316WA0110701131
B1923484748280N12002316WA0110701131
B1923494748280N12002316WA0110701131
B1923504748280N12002316WA0110701131
B1923514748280N12002316WA0110701131
B1923524748280N12002316WA0110701131
B1923534748280N12002316WA0110701131
B1923544748280N12002316WA0110701131
B1923554748280N12002316WA0110701131
B1923564748280N12002316WA0110701131
B1923574748280N12002316WA0110701131
B1923584748280N12002316WA0110701131
B1923594748280N12002316WA0110701131
B1924004748280N12002316WA0110701131
B1924014748280N12002316WA0110701131
B1924024748280N12002316WA0110701131
B1924034748280N12002316WA0110701131
B1924044748280N12002316WA0110701131
B1924054748280N12002316WA0110701131
B1924064748280N12002316WA0110701130
B1924074748280N12002316WA0110701130
B1924084748280N12002316WA0110701130
B1924094748280N12002316WA0110701131
B1924104748280N12002316WA0110701131
B1924114748280N12002316WA0110701131
B1924124748280N12002316WA0110701131
B1924134748280N12002316WA0110701131
B1924144748281N12002316WA0110801131
B1924154748281N12002315WA0110801131
B1924164748282N12002315WA0110801131
B1924174748283N12002314WA0110801130
B1924184748284N12002314WA0110801131
B1924194748285N12002313WA0110801130
B1924204748286N12002312WA0110801130
B1924214748287N12002311WA0110801130
B1924224748288N12002310WA0110801130
B1924234748289N12002309WA0110801129
B1924244748290N12002308WA0110801129
B1924254748291N12002308WA0110801129
B1924264748292N12002307WA0110801128
B1924274748293N12002306WA0110801128
B1924284748293N12002305WA0110801128
B1924294748294N12002305WA0110801127
B1924304748294N12002305WA0110801127
B1924314748294N12002305WA0110801127
B1924324748294N12002305WA0110801127
B1924334748294N12002305WA0110801127
B1924344748294N12002305WA0110701127
B1924354748294N12002305WA0110701127
B1924364748294N12002305WA0110701127
B1924374748294N12002305WA0110701127
B1924384748294N12002305WA0110701127
B1924394748294N12002305WA0110701127
B1924404748294N12002305WA0110701126
B1924414748294N12002305WA0110701126
B1924424748294N12002304WA0110801126
B1924434748294N12002304WA0110801126
B1924444748294N12002304WA0110801126
B1924454748294N12002304WA0110801126
B1924464748294N12002304WA0110801126
B1924474748294N12002304WA0110801125
B1924484748294N12002304WA0110801125
B1924494748294N12002304WA0110801125
B1924504748294N12002303WA0110801125
B1924514748295N12002303WA0110801125
B1924524748296N12002302WA0110801125
B1924534748296N12002301WA0110801125
B1924544748297N12002300WA0110801125
B1924554748298N12002298WA0110801125
B1924564748300N12002297WA0110701125
B1924574748301N12002295WA0110701124
B1924584748302N12002293WA0110701124
B1924594748304N12002291WA0110701124
B1925004748305N12002289WA0110701124
B1925014748307N12002286WA0110701125
B1925024748309N12002284WA0110701125
B1925034748311N12002281WA0110701125
B1925044748313N12002279WA0110701125
B1925054748315N12002277WA0110701125
B1925064748316N12002275WA0110701125
B1925074748319N12002272WA0110701125
B1925084748320N12002270WA0110701125
B1925094748322N12002268WA0110701126
B1925104748324N12002266WA0110701126
B1925114748325N12002264WA0110701126
B1925124748326N12002263WA0110701126
B1925134748328N12002261WA0110701127
B1925144748329N12002260WA0110701127
B1925154748330N12002259WA0110701127
B1925164748331N12002258WA0110701126
B1925174748332N12002258WA0110701127
B1925184748333N12002257WA0110801126
B1925194748334N12002258WA0110801125
B1925204748335N12002259WA0110801125
B1925214748336N12002260WA0110801124
B1925224748337N12002261WA0110801124
B1925234748338N12002264WA0110701123
B1925244748338N12002266WA0110701122
B1925254748339N12002268WA0110701121
B1925264748340N12002271WA0110701120
B1925274748340N12002273WA0110701120
B1925284748341N12002277WA0110701119
B1925294748341N12002280WA0110701118
B1925304748342N12002283WA0110701117
B1925314748342N12002287WA0110701116
B1925324748343N12002291WA0110601116
B1925334748343N12002295WA0110601116
B1925344748343N12002299WA0110601115
B1925354748343N12002303WA0110601114
B1925364748343N12002307WA0110501114
B1925374748343N12002311WA0110501113
B1925384748343N12002315WA0110501112
B1925394748343N12002319WA0110501111
B1925404748343N12002323WA0110401111
B1925414748343N12002327WA0110401110
B1925424748342N12002331WA0110401109
B1925434748342N12002334WA0110401108
B1925444748341N12002338WA0110301108
B1925454748340N12002342WA0110301107
B1925464748339N12002345WA0110301106
B1925474748338N12002348WA0110301105
B1925484748336N12002351WA0110201104
B1925494748335N12002355WA0110201103
B1925504748334N12002358WA0110201102
B1925514748332N12002361WA0110201101
B1925524748331N12002365WA0110101101
B1925534748329N12002368WA0110101100
B1925544748327N12002372WA0110101099
B1925554748326N12002375WA0110101098
B1925564748325N12002378WA0110001097
B1925574748323N12002382WA0110001096
B1925584748322N12002386WA0110001095
B1925594748320N12002389WA0109901094
B1926004748319N12002393WA0109901094
B1926014748317N12002397WA0109901093
B1926024748316N12002401WA0109801092
B1926034748315N12002405WA0109801091
B1926044748314N12002409WA0109801090
B1926054748312N12002413WA0109701089
B1926064748311N12002417WA0109701088
B1926074748310N12002421WA0109701087
B1926084748310N12002425WA0109601086
B1926094748309N12002429WA0109601085
B1926104748309N12002433WA0109501084
B1926114748309N12002438WA0109501083
B1926124748309N12002442WA0109501082
B1926134748310N12002447WA0109401082
B1926144748310N12002451WA0109401081
B1926154748309N12002456WA0109301080
B1926164748309N12002460WA0109301079
B1926174748308N12002465WA0109301078
B1926184748307N12002469WA0109201077
B1926194748305N12002474WA0109201076
B1926204748304N12002478WA0109101074
B1926214748303N12002482WA0109101073
B1926224748302N12002486WA0109001072
B1926234748301N12002490WA0109001071
B1926244748300N12002494WA0109001070
B1926254748300N12002499WA0108901069
B1926264748300N12002503WA0108901068
B1926274748300N12002508WA0108801067
B1926284748300N12002512WA0108801066
B1926294748301N12002516WA0108701065
B1926304748302N12002519WA0108701065
B1926314748303N12002523WA0108701066
B1926324748305N12002527WA0108601065
B1926334748306N12002531WA0108601064
B1926344748307N12002534WA0108501063
B1926354748308N12002538WA0108501062
B1926364748308N12002541WA0108401062
B1926374748309N12002545WA0108401061
B1926384748308N12002549WA0108301060
B1926394748307N12002553WA0108301059
B1926404748306N12002558WA0108301058
B1926414748305N12002562WA0108201058
B1926424748304N12002566WA0108201057
B1926434748302N12002570WA0108101056
B1926444748301N12002574WA0108101055
B1926454748300N12002578WA0108001054
B1926464748299N12002582WA0108001053
B1926474748298N12002587WA0108001052
B1926484748297N12002591WA0107901051
B1926494748297N12002595WA0107901050
B1926504748297N12002600WA0107801049
B1926514748298N12002604WA0107801048
B1926524748299N12002608WA0107701047
B1926534748300N12002613WA0107701047
B1926544748301N12002617WA0107601046
B1926554748301N12002621WA0107601045
B1926564748302N12002626WA0107501044
B1926574748302N12002630WA0107501043
B1926584748301N12002634WA0107401042
B1926594748300N12002638WA0107401042
B1927004748299N12002642WA0107401041
B1927014748298N12002647WA0107301040
B1927024748296N12002652WA0107301039
B1927034748294N12002657WA0107201038
B1927044748291N12002661WA0107201037
B1927054748289N12002666WA0107101035
B1927064748288N12002672WA0107001034
B1927074748287N12002678WA0107001033
B1927084748286N12002684WA0106901032
B1927094748286N12002691WA0106901030
B1927104748286N12002697WA0106801030
B1927114748287N12002703WA0106801028
B1927124748287N12002708WA0106701028
B1927134748286N12002714WA0106701027
B1927144748285N12002719WA0106601027
B1927154748283N12002724WA0106501026
B1927164748281N12002728WA0106501025
B1927174748279N12002733WA0106401025
B1927184748276N12002738WA0106401024
B1927194748274N12002743WA0106301023
B1927204748272N12002747WA0106301022
B1927214748270N12002752WA0106201022
B1927224748268N12002757WA0106201021
B1927234748266N12002762WA0106101020
B1927244748265N12002767WA0106001020
B1927254748263N12002771WA0106001019
B1927264748262N12002775WA0105901019
B1927274748260N12002778WA0105901019
B1927284748259N12002780WA0105801018
B1927294748258N12002782WA0105801018
B1927304748256N12002784WA0105701018
B1927314748254N12002785WA0105701018
B1927324748253N12002785WA0105701017
B1927334748252N12002786WA0105601017
B1927344748251N12002787WA0105601017
B1927354748250N12002788WA0105601016
B1927364748249N12002789WA0105501016
B1927374748249N12002791WA0105501016
B1927384748249N12002793WA0105401015
B1927394748249N12002796WA0105401015
B1927404748250N12002799WA0105401015
B1927414748251N12002800WA0105301015
B1927424748252N12002802WA0105301014
B1927434748253N12002802WA0105201014
B1927444748254N12002803WA0105201013
B1927454748255N12002803WA0105201013
B1927464748257N12002803WA0105101013
B1927474748258N12002803WA0105101012
B1927484748260N12002803WA0105001012
B1927494748262N12002803WA0105001011
B1927504748263N12002803WA0104901011
B1927514748265N12002802WA0104901011
B1927524748267N12002801WA0104901011
B1927534748268N12002799WA0104801010
B1927544748269N12002797WA0104801010
B1927554748270N12002794WA0104801009
B1927564748272N12002792WA0104701008
B1927574748273N12002789WA0104701008
B1927584748274N12002787WA0104601007
B1927594748276N12002784WA0104601006
B1928004748277N12002782WA0104601006
B1928014748278N12002779WA0104501006
B1928024748280N12002776WA0104501005
B1928034748281N12002773WA0104401004
B1928044748283N12002770WA0104401003
B1928054748286N12002768WA0104401003
B1928064748288N12002766WA0104301002
B1928074748291N12002764WA0104301001
B1928084748295N12002763WA0104201001
B1928094748299N12002762WA0104201000
B1928104748302N12002760WA0104100999
B1928114748306N12002758WA0104100998
B1928124748309N12002756WA0104000998
B1928134748312N12002753WA0103900998
B1928144748315N12002749WA0103900996
B1928154748317N12002745WA0103800995
B1928164748319N12002742WA0103700994
B1928174748321N12002738WA0103700993
B1928184748323N12002734WA0103600992
B1928194748325N12002730WA0103600992
B1928204748327N12002727WA0103500991
B1928214748329N12002724WA0103400991
B1928224748332N12002721WA0103400990
B1928234748335N12002719WA0103300989
B1928244748339N12002718WA0103300988
B1928254748343N12002717WA0103200987
B1928264748346N12002716WA0103100986
B1928274748350N12002716WA0103100985
B1928284748353N12002715WA0103000984
B1928294748356N12002714WA0103000983
B1928304748359N12002713WA0102900983
B1928314748362N12002711WA0102900982
B1928324748365N12002709WA0102800981
B1928334748367N12002706WA0102800980
B1928344748370N12002703WA0102700979
B1928354748373N12002700WA0102600978
B1928364748376N12002697WA0102600977
B1928374748378N12002694WA0102500976
B1928384748381N12002691WA0102400975
B1928394748383N12002688WA0102400975
B1928404748384N12002685WA0102300975
B1928414748386N12002682WA0102300975
B1928424748388N12002680WA0102200974
B1928434748391N12002679WA0102200974
B1928444748394N12002678WA0102100972
B1928454748397N12002678WA0102000971
B1928464748400N12002678WA0102000970
B1928474748403N12002679WA0101900969
B1928484748407N12002679WA0101800968
B1928494748410N12002679WA0101800966
B1928504748412N12002680WA0101700963
B1928514748415N12002680WA0101600962
B1928524748417N12002680WA0101600961
B1928534748419N12002680WA0101500961
B1928544748421N12002680WA0101400961
B1928554748423N12002680WA0101300960
B1928564748425N12002680WA0101300960
B1928574748427N12002682WA0101200959
B1928584748429N12002685WA0101200959
B1928594748430N12002688WA0101100958
B1929004748430N12002692WA0101000957
B1929014748429N12002695WA0101000956
B1929024748427N12002698WA0100900955
B1929034748425N12002700WA0100900955
B1929044748422N12002700WA0100800953
B1929054748420N12002700WA0100700953
B1929064748417N12002700WA0100700953
B1929074748414N12002699WA0100600952
B1929084748412N12002698WA0100600952
B1929094748409N12002698WA0100500951
B1929104748407N12002696WA0100400950
B1929114748404N12002695WA0100400950
B1929124748402N12002696WA0100300950
B1929134748400N12002697WA0100300949
B1929144748398N12002700WA0100200949
B1929154748397N12002705WA0100100949
B1929164748396N12002709WA0100100949
B1929174748395N12002714WA0100000949
B1929184748394N12002719WA0099900948
B1929194748393N12002725WA0099900947
B1929204748392N12002730WA0099800947
B1929214748391N12002736WA0099700946
B1929224748391N12002741WA0099600946
B1929234748389N12002746WA0099600945
B1929244748388N12002751WA0099500945
B1929254748386N12002754WA0099400944
B1929264748383N12002757WA0099400943
B1929274748380N12002760WA0099300942
B1929284748377N12002763WA0099200941
B1929294748375N12002765WA0099200941
B1929304748373N12002769WA0099100940
B1929314748371N12002774WA0099000939
B1929324748371N12002779WA0098900938
B1929334748371N12002784WA0098900938
B1929344748370N12002788WA0098800938
B1929354748369N12002793WA0098700937
B1929364748367N12002797WA0098600936
B1929374748365N12002801WA0098600935
B1929384748364N12002805WA0098500934
B1929394748363N12002810WA0098500934
B1929404748363N12002814WA0098400933
B1929414748363N12002817WA0098300934
B1929424748363N12002821WA0098200933
B1929434748364N12002825WA0098200932
B1929444748364N12002829WA0098100931
B1929454748364N12002833WA0098100930
B1929464748364N12002837WA0098000929
B1929474748365N12002841WA0098000929
B1929484748366N12002845WA0097900928
B1929494748367N12002849WA0097900928
B1929504748369N12002852WA0097800928
B1929514748370N12002856WA0097700927
B1929524748371N12002859WA0097700927
B1929534748373N12002863WA0097700926
B1929544748374N12002866WA0097600926
B1929554748375N12002870WA0097600925
B1929564748376N12002873WA0097500924
B1929574748377N12002877WA0097500924
B1929584748378N12002880WA0097400924
B1929594748379N12002884WA0097400923
B1930004748381N12002888WA0097300923
B1930014748383N12002892WA0097300922
B1930024748385N12002895WA0097200922
B1930034748386N12002898WA0097100921
B1930044748388N12002902WA0097100921
B1930054748389N12002905WA0097000920
B1930064748391N12002909WA0097000919
B1930074748393N12002913WA0096900919
B1930084748395N12002916WA0096800918
B1930094748396N12002920WA0096800917
B1930104748398N12002924WA0096700916
B1930114748399N12002928WA0096700915
B1930124748401N12002931WA0096600914
B1930134748402N12002935WA0096600913
B1930144748403N12002940WA0096500912
B1930154748405N12002945WA0096400911
B1930164748406N12002951WA0096400910
B1930174748409N12002957WA0096300909
B1930184748411N12002962WA0096300908
B1930194748413N12002968WA0096200907
B1930204748415N12002973WA0096100906
B1930214748415N12002979WA0096100904
B1930224748416N12002985WA0096000903
B1930234748416N12002991WA0096000902
B1930244748416N12002998WA0095900901
B1930254748416N12003004WA0095800899
B1930264748417N12003010WA0095700898
B1930274748418N12003015WA0095700896
B1930284748419N12003019WA0095600895
B1930294748422N12003022WA0095500894
B1930304748426N12003026WA0095400893
B1930314748430N12003031WA0095400893
B1930324748434N12003036WA0095300892
B1930334748437N12003041WA0095200890
B1930344748441N12003046WA0095100889
B1930354748444N12003050WA0095100888
B1930364748448N12003054WA0095000887
B1930374748452N12003057WA0094900886
B1930384748457N12003060WA0094800884
B1930394748461N12003063WA0094700883
B1930404748465N12003065WA0094700881
B1930414748469N12003067WA0094600879
B1930424748473N12003069WA0094500878
B1930434748477N12003072WA0094400877
B1930444748481N12003075WA0094400876
B1930454748485N12003078WA0094300875
B1930464748490N12003081WA0094300874
B1930474748494N12003085WA0094200873
B1930484748497N12003089WA0094200872
B1930494748501N12003094WA0094100871
B1930504748504N12003099WA0094100871
B1930514748507N12003104WA0094000870
B1930524748510N12003108WA0093900869
B1930534748513N12003113WA0093900868
B1930544748516N12003118WA0093800867
B1930554748519N12003124WA0093800865
B1930564748522N12003129WA0093700864
B1930574748526N12003135WA0093700862
B1930584748529N12003141WA0093600861
B1930594748532N12003147WA0093500860
B1931004748535N12003154WA0093400858
B1931014748538N12003160WA0093400857
B1931024748542N12003166WA0093300856
B1931034748546N12003171WA0093200855
B1931044748551N12003175WA0093200855
B1931054748555N12003177WA0093100854
B1931064748560N12003178WA0093000853
B1931074748564N12003178WA0093000853
B1931084748569N12003179WA0092900852
B1931094748573N12003179WA0092900852
B1931104748577N12003179WA0092800852
B1931114748581N12003180WA0092800852
B1931124748585N12003181WA0092800852
B1931134748589N12003183WA0092700851
B1931144748593N12003185WA0092700850
B1931154748596N12003188WA0092700850
B1931164748600N12003192WA0092600849
B1931174748603N12003195WA0092600849
B1931184748607N12003198WA0092600848
B1931194748611N12003199WA0092500848
B1931204748615N12003201WA0092500847
B1931214748619N12003201WA0092500846
B1931224748624N12003202WA0092500846
B1931234748628N12003203WA0092400846
B1931244748633N12003204WA0092400845
B1931254748637N12003205WA0092400845
B1931264748641N12003206WA0092300844
B1931274748645N12003207WA0092300843
B1931284748649N12003209WA0092300843
B1931294748653N12003212WA0092300842
B1931304748657N12003215WA0092200842
B1931314748661N12003218WA0092200841
B1931324748665N12003221WA0092100840
B1931334748669N12003224WA0092100839
B1931344748673N12003226WA0092100838
B1931354748677N12003228WA0092000838
B1931364748682N12003230WA0092000838
B1931374748686N12003232WA0092000837
B1931384748690N12003233WA0091900836
B1931394748695N12003234WA0091900835
B1931404748700N12003234WA0091800835
B1931414748704N12003235WA0091800834
B1931424748709N12003235WA0091700833
B1931434748714N12003235WA0091700832
B1931444748718N12003235WA0091600831
B1931454748723N12003235WA0091600830
B1931464748728N12003235WA0091500829
B1931474748732N12003234WA0091500828
B1931484748737N12003234WA0091400828
B1931494748742N12003234WA0091400827
B1931504748746N12003234WA0091300826
B1931514748751N12003233WA0091200825
B1931524748755N12003233WA0091200824
B1931534748760N12003232WA0091100823
B1931544748765N12003232WA0091000822
B1931554748770N12003232WA0091000821
B1931564748774N12003232WA0090900820
B1931574748779N12003233WA0090900819
B1931584748784N12003233WA0090800818
B1931594748788N12003234WA0090700817
B1932004748792N12003234WA0090600816
B1932014748796N12003234WA0090600816
B1932024748800N12003233WA0090500815
B1932034748803N12003231WA0090500815
B1932044748805N12003228WA0090400815
B1932054748807N12003224WA0090400814
B1932064748809N12003220WA0090300814
B1932074748810N12003215WA0090200814
B1932084748811N12003211WA0090200813
B1932094748812N12003206WA0090100812
B1932104748812N12003201WA0090000812
B1932114748811N12003196WA0090000811
B1932124748810N12003192WA0089900810
B1932134748807N12003187WA0089900810
B1932144748805N12003183WA0089800809
B1932154748802N12003179WA0089800808
B1932164748799N12003176WA0089700808
B1932174748796N12003173WA0089700808
B1932184748792N12003170WA0089600807
B1932194748789N12003168WA0089600807
B1932204748786N12003166WA0089500807
B1932214748782N12003163WA0089500806
B1932224748779N12003159WA0089400805
B1932234748777N12003156WA0089400805
B1932244748774N12003152WA0089300805
B1932254748772N12003148WA0089300804
B1932264748771N12003144WA0089200804
B1932274748769N12003139WA0089200804
B1932284748769N12003134WA0089100804
B1932294748770N12003130WA0089100805
B1932304748770N12003126WA0089000805
B1932314748771N12003121WA0089000805
B1932324748772N12003116WA0089000804
B1932334748771N12003111WA0088900804
B1932344748770N12003106WA0088900804
B1932354748768N12003102WA0088800803
B1932364748766N12003098WA0088800803
B1932374748763N12003095WA0088700802
B1932384748759N12003093WA0088700801
B1932394748756N12003091WA0088600800
B1932404748752N12003089WA0088600799
B1932414748749N12003087WA0088600799
B1932424748745N12003087WA0088500798
B1932434748741N12003087WA0088500797
B1932444748737N12003087WA0088400796
B1932454748733N12003086WA0088400795
B1932464748729N12003086WA0088400794
B1932474748725N12003085WA0088300794
B1932484748721N12003084WA0088300793
B1932494748717N12003083WA0088300793
B1932504748712N12003082WA0088200792
B1932514748708N12003083WA0088200792
B1932524748704N12003084WA0088100791
B1932534748700N12003084WA0088100791
B1932544748695N12003084WA0088100790
B1932554748691N12003083WA0088000790
B1932564748688N12003082WA0088000789
B1932574748684N12003082WA0088000789
B1932584748681N12003082WA0087900788
B1932594748677N12003083WA0087900787
B1933004748674N12003083WA0087900787
B1933014748670N12003082WA0087800786
B1933024748667N12003082WA0087800784
B1933034748663N12003082WA0087700783
B1933044748660N12003082WA0087700782
B1933054748657N12003082WA0087600781
B1933064748654N12003082WA0087500780
B1933074748651N12003082WA0087500779
B1933084748648N12003081WA0087400777
B1933094748645N12003080WA0087400777
B1933104748643N12003078WA0087300776
B1933114748640N12003075WA0087300775
B1933124748638N12003072WA0087200774
B1933134748637N12003068WA0087100773
B1933144748636N12003064WA0087000772
B1933154748635N12003060WA0087000771
B1933164748634N12003056WA0086900770
B1933174748634N12003051WA0086900770
B1933184748633N12003048WA0086800769
B1933194748633N12003044WA0086700768
B1933204748632N12003040WA0086600767
B1933214748631N12003037WA0086600766
B1933224748630N12003033WA0086500765
B1933234748628N12003029WA0086400764
B1933244748627N12003026WA0086300763
B1933254748625N12003023WA0086200762
B1933264748624N12003019WA0086100761
B1933274748623N12003017WA0086100760
B1933284748622N12003014WA0086000759
B1933294748621N12003011WA0085900759
B1933304748620N12003007WA0085800760
B1933314748621N12003005WA0085800761
B1933324748622N12003003WA0085700761
B1933334748625N12003002WA0085700761
B1933344748627N12003002WA0085600760
B1933354748630N12003003WA0085600760
B1933364748632N12003004WA0085500760
B1933374748635N12003006WA0085500758
B1933384748638N12003007WA0085400757
B1933394748642N12003008WA0085400755
B1933404748646N12003008WA0085400754
B1933414748650N12003007WA0085300753
B1933424748653N12003006WA0085300753
B1933434748657N12003005WA0085200752
B1933444748660N12003003WA0085200750
B1933454748664N12003001WA0085100749
B1933464748667N12003000WA0085100749
B1933474748671N12002998WA0085000747
B1933484748674N12002996WA0085000747
B1933494748678N12002993WA0084900746
B1933504748681N12002990WA0084800745
B1933514748685N12002986WA0084800745
B1933524748689N12002982WA0084700743
B1933534748692N12002979WA0084700740
B1933544748696N12002976WA0084600739
B1933554748700N12002973WA0084500738
B1933564748704N12002970WA0084400736
B1933574748707N12002968WA0084300735
B1933584748711N12002965WA0084200734
B1933594748714N12002963WA0084200733
B1934004748718N12002960WA0084100731
B1934014748721N12002958WA0084000730
B1934024748725N12002956WA0083900729
B1934034748728N12002955WA0083900728
B1934044748731N12002953WA0083800727
B1934054748735N12002952WA0083700726
B1934064748739N12002951WA0083600724
B1934074748743N12002950WA0083500723
B1934084748748N12002949WA0083500721
B1934094748752N12002947WA0083400720
B1934104748757N12002946WA0083300718
B1934114748761N12002945WA0083200716
B1934124748765N12002944WA0083100715
B1934134748769N12002942WA0083100714
B1934144748772N12002940WA0083000713
B1934154748775N12002938WA0082900712
B1934164748778N12002937WA0082800711
B1934174748781N12002936WA0082700710
B1934184748784N12002937WA0082700709
B1934194748786N12002938WA0082600708
B1934204748789N12002940WA0082500706
B1934214748791N12002942WA0082400704
B1934224748794N12002944WA0082300702
B1934234748796N12002946WA0082300701
B1934244748799N12002948WA0082200699
B1934254748803N12002949WA0082100697
B1934264748806N12002950WA0082100696
B1934274748809N12002950WA0082000695
B1934284748813N12002950WA0081900694
B1934294748816N12002949WA0081900693
B1934304748818N12002949WA0081800692
B1934314748821N12002948WA0081700692
B1934324748824N12002948WA0081700690
B1934334748827N12002947WA0081600689
B1934344748830N12002946WA0081600688
B1934354748834N12002945WA0081500687
B1934364748839N12002944WA0081400685
B1934374748843N12002943WA0081400684
B1934384748848N12002943WA0081300682
B1934394748853N12002942WA0081300681
B1934404748858N12002941WA0081200679
B1934414748862N12002939WA0081100678
B1934424748867N12002937WA0081100676
B1934434748872N12002936WA0081000675
B1934444748876N12002934WA0080900673
B1934454748881N12002933WA0080900672
B1934464748886N12002932WA0080800671
B1934474748890N12002931WA0080700670
B1934484748895N12002930WA0080600669
B1934494748899N12002930WA0080600668
B1934504748902N12002930WA0080500667
B1934514748906N12002931WA0080500668
B1934524748910N12002932WA0080400667
B1934534748913N12002932WA0080400666
B1934544748916N12002933WA0080300665
B1934554748918N12002935WA0080200664
B1934564748921N12002938WA0080200663
B1934574748923N12002941WA0080100662
B1934584748926N12002944WA0080100662
B1934594748928N12002947WA0080000661
B1935004748931N12002950WA0080000659
B1935014748934N12002952WA0079900659
B1935024748937N12002954WA0079900658
B1935034748941N12002955WA0079800657
B1935044748944N12002956WA0079800656
B1935054748947N12002957WA0079700655
B1935064748950N12002958WA0079700654
B1935074748954N12002960WA0079600653
B1935084748956N12002963WA0079600652
B1935094748959N12002966WA0079500650
B1935104748962N12002969WA0079500649
B1935114748966N12002972WA0079400648
B1935124748969N12002974WA0079300648
B1935134748973N12002975WA0079300647
B1935144748977N12002975WA0079200646
B1935154748981N12002975WA0079200645
B1935164748984N12002976WA0079100644
B1935174748988N12002977WA0079100642
B1935184748991N12002979WA0079000642
B1935194748995N12002981WA0079000640
B1935204748998N12002982WA0078900639
B1935214749002N12002984WA0078800639
B1935224749005N12002986WA0078800638
B1935234749009N12002989WA0078700638
B1935244749012N12002992WA0078700637
B1935254749015N12002994WA0078600636
B1935264749018N12002996WA0078600634
B1935274749022N12002998WA0078500633
B1935284749025N12002998WA0078400633
B1935294749028N12002999WA0078400632
B1935304749032N12002999WA0078300631
B1935314749035N12002999WA0078300630
B1935324749038N12003000WA0078200629
B1935334749042N12003001WA0078200628
B1935344749046N12003003WA0078100627
B1935354749050N12003005WA0078100626
B1935364749053N12003007WA0078000625
B1935374749057N12003009WA0077900624
B1935384749062N12003011WA0077900622
B1935394749066N12003012WA0077800621
B1935404749070N12003013WA0077700619
B1935414749075N12003015WA0077700617
B1935424749080N12003017WA0077600616
B1935434749084N12003019WA0077500613
B1935444749089N12003022WA0077400612
B1935454749094N12003024WA0077400610
B1935464749098N12003027WA0077300608
B1935474749103N12003028WA0077200607
B1935484749107N12003029WA0077100606
B1935494749112N12003029WA0077100606
B1935504749117N12003028WA0077000605
B1935514749122N12003028WA0076900604
B1935524749127N12003027WA0076900604
B1935534749133N12003028WA0076800603
B1935544749138N12003029WA0076700602
B1935554749143N12003031WA0076700600
B1935564749149N12003033WA0076600598
B1935574749154N12003034WA0076500597
B1935584749160N12003035WA0076500596
B1935594749165N12003034WA0076400595
B1936004749171N12003033WA0076300594
B1936014749177N12003032WA0076300592
B1936024749182N12003032WA0076200591
B1936034749187N12003033WA0076100590
B1936044749192N12003034WA0076000590
B1936054749197N12003035WA0076000589
B1936064749202N12003036WA0075900588
B1936074749207N12003036WA0075900587
B1936084749212N12003036WA0075800587
B1936094749217N12003036WA0075800587
B1936104749222N12003036WA0075700588
B1936114749227N12003038WA0075700588
B1936124749231N12003040WA0075700588
B1936134749235N12003042WA0075700588
B1936144749239N12003044WA0075600588
B1936154749244N12003045WA0075600587
B1936164749248N12003046WA0075600587
B1936174749253N12003047WA0075500586
B1936184749257N12003048WA0075500585
B1936194749262N12003049WA0075500585
B1936204749267N12003050WA0075400584
B1936214749272N12003051WA0075400583
B1936224749277N12003052WA0075300581
B1936234749282N12003053WA0075300581
B1936244749287N12003054WA0075200580
B1936254749292N12003056WA0075200579
B1936264749297N12003058WA0075200578
B1936274749302N12003060WA0075100578
B1936284749307N12003061WA0075100577
B1936294749311N12003063WA0075000576
B1936304749316N12003065WA0075000575
B1936314749321N12003067WA0075000574
B1936324749326N12003068WA0074900572
B1936334749331N12003069WA0074900572
B1936344749336N12003070WA0074800571
B1936354749341N12003070WA0074800570
B1936364749346N12003070WA0074700569
B1936374749351N12003069WA0074700569
B1936384749356N12003069WA0074600569
B1936394749361N12003068WA0074600568
B1936404749366N12003067WA0074600568
B1936414749372N12003066WA0074500567
B1936424749378N12003065WA0074500566
B1936434749383N12003064WA0074500566
B1936444749389N12003062WA0074400565
B1936454749394N12003061WA0074400565
B1936464749399N12003060WA0074300564
B1936474749405N12003058WA0074300564
B1936484749410N12003058WA0074300563
B1936494749415N12003057WA0074200563
B1936504749420N12003057WA0074200562
B1936514749426N12003057WA0074200561
B1936524749431N12003056WA0074100561
B1936534749436N12003056WA0074100560
B1936544749441N12003055WA0074000559
B1936554749447N12003055WA0074000558
B1936564749452N12003054WA0073900557
B1936574749457N12003054WA0073900556
B1936584749463N12003053WA0073800555
B1936594749468N12003052WA0073800554
B1937004749474N12003052WA0073800554
B1937014749479N12003050WA0073700553
B1937024749484N12003049WA0073700552
B1937034749490N12003048WA0073600552
B1937044749495N12003048WA0073600551
B1937054749499N12003048WA0073500550
B1937064749504N12003049WA0073500550
B1937074749509N12003050WA0073400549
B1937084749514N12003052WA0073400548
B1937094749518N12003054WA0073300547
B1937104749523N12003056WA0073300547
B1937114749528N12003058WA0073300546
B1937124749533N12003059WA0073200545
B1937134749538N12003061WA0073200544
B1937144749544N12003063WA0073100542
B1937154749549N12003065WA0073100541
B1937164749555N12003067WA0073000539
B1937174749560N12003069WA0072900538
B1937184749566N12003070WA0072900537
B1937194749571N12003070WA0072800536
B1937204749576N12003071WA0072800536
B1937214749580N12003072WA0072800536
B1937224749585N12003074WA0072700536
B1937234749589N12003077WA0072700536
B1937244749592N12003081WA0072600536
B1937254749596N12003085WA0072600535
B1937264749600N12003089WA0072600535
B1937274749603N12003093WA0072500535
B1937284749606N12003097WA0072500535
B1937294749609N12003102WA0072500535
B1937304749611N12003107WA0072500535
B1937314749612N12003113WA0072400536
B1937324749613N12003119WA0072400536
B1937334749614N12003124WA0072400536
B1937344749615N12003130WA0072400536
B1937354749616N12003136WA0072400537
B1937364749616N12003142WA0072300537
B1937374749617N12003148WA0072300537
B1937384749618N12003153WA0072300537
B1937394749618N12003159WA0072300537
B1937404749619N12003165WA0072300538
B1937414749620N12003170WA0072300538
B1937424749621N12003174WA0072200538
B1937434749622N12003177WA0072200538
B1937444749622N12003178WA0072200537
B1937454749622N12003178WA0072200538
B1937464749622N12003178WA0072200537
B1937474749622N12003178WA0072100537
B1937484749622N12003178WA0072100537
B1937494749622N12003178WA0072100537
B1937504749622N12003178WA0072100537
B1937514749622N12003178WA0072100537
B1937524749622N12003178WA0072100537
B1937534749622N12003179WA0072100537
B1937544749622N12003179WA0072100537
B1937554749622N12003181WA0072000537
B1937564749623N12003184WA0072000537
B1937574749623N12003187WA0072000537
B1937584749623N12003191WA0072000536
B1937594749623N12003196WA0072000536
B1938004749624N12003201WA0072000536
B1938014749625N12003207WA0072000536
B1938024749626N12003214WA0071900535
B1938034749627N12003221WA0071900535
B1938044749628N12003228WA0071900534
B1938054749630N12003235WA0071900534
B1938064749631N12003243WA0071800534
B1938074749631N12003250WA0071800534
B1938084749630N12003257WA0071800534
B1938094749628N12003263WA0071800534
B1938104749627N12003269WA0071700534
B1938114749627N12003275WA0071700534
B1938124749629N12003280WA0071700534
B1938134749632N12003284WA0071700534
B1938144749636N12003288WA0071600534
B1938154749641N12003291WA0071600534
B1938164749645N12003294WA0071600533
B1938174749651N12003295WA0071500533
B1938184749657N12003295WA0071500532
B1938194749662N12003293WA0071500531
B1938204749668N12003291WA0071500531
B1938214749674N12003289WA0071400530
B1938224749679N12003289WA0071400530
B1938234749684N12003290WA0071400530
B1938244749690N12003291WA0071300529
B1938254749694N12003295WA0071300529
B1938264749699N12003299WA0071200528
B1938274749704N12003305WA0071200527
B1938284749707N12003312WA0071200526
B1938294749711N12003319WA0071100525
B1938304749714N12003326WA0071100525
B1938314749717N12003332WA0071100524
B1938324749721N12003338WA0071000524
B1938334749725N12003343WA0071000523
B1938344749730N12003347WA0070900522
B1938354749735N12003350WA0070900521
B1938364749741N12003353WA0070800519
B1938374749746N12003355WA0070800518
B1938384749752N12003358WA0070700516
B1938394749758N12003360WA0070700515
B1938404749764N12003363WA0070600514
B1938414749769N12003365WA0070500513
B1938424749775N12003368WA0070500512
B1938434749780N12003370WA0070400510
B1938444749786N12003373WA0070400509
B1938454749792N12003376WA0070300508
B1938464749797N12003378WA0070200507
B1938474749802N12003382WA0070200506
B1938484749806N12003386WA0070100504
B1938494749811N12003391WA0070100503
B1938504749815N12003397WA0070000502
B1938514749818N12003404WA0069900501
B1938524749822N12003411WA0069900499
B1938534749825N12003418WA0069800498
B1938544749827N12003426WA0069700497
B1938554749829N12003434WA0069700496
B1938564749831N12003443WA0069600495
B1938574749832N12003452WA0069600494
B1938584749834N12003461WA0069500492
B1938594749837N12003469WA0069400491
B1939004749839N12003478WA0069400490
B1939014749842N12003487WA0069300488
B1939024749845N12003495WA0069200487
B1939034749848N12003503WA0069200486
B1939044749850N12003510WA0069100484
B1939054749853N12003516WA0069000483
B1939064749855N12003521WA0068900483
B1939074749857N12003524WA0068900482
B1939084749860N12003526WA0068800481
B1939094749864N12003526WA0068800481
B1939104749867N12003524WA0068700480
B1939114749870N12003519WA0068700479
B1939124749871N12003512WA0068600479
B1939134749873N12003504WA0068600478
B1939144749874N12003496WA0068500476
B1939154749876N12003487WA0068400475
B1939164749877N12003478WA0068400474
B1939174749879N12003468WA0068300473
B1939184749881N12003458WA0068300472
B1939194749883N12003447WA0068200470
B1939204749885N12003437WA0068100469
B1939214749886N12003427WA0068100467
B1939224749889N12003417WA0068000466
B1939234749891N12003407WA0067900464
B1939244749894N12003398WA0067800463
B1939254749898N12003389WA0067800461
B1939264749900N12003381WA0067700460
B1939274749903N12003372WA0067600458
B1939284749904N12003363WA0067500457
B1939294749905N12003354WA0067500456
B1939304749905N12003345WA0067400455
B1939314749905N12003336WA0067300454
B1939324749904N12003327WA0067200452
B1939334749903N12003318WA0067200451
B1939344749901N12003309WA0067100449
B1939354749899N12003300WA0067000448
B1939364749896N12003291WA0067000447
B1939374749892N12003283WA0066900446
B1939384749887N12003276WA0066800444
B1939394749883N12003268WA0066800443
B1939404749879N12003261WA0066700442
B1939414749875N12003253WA0066600440
B1939424749872N12003245WA0066500439
B1939434749868N12003236WA0066500437
B1939444749865N12003228WA0066400436
B1939454749862N12003220WA0066300434
B1939464749859N12003211WA0066200433
B1939474749856N12003203WA0066100431
B1939484749853N12003195WA0066000430
B1939494749849N12003189WA0066000428
B1939504749844N12003185WA0065900427
B1939514749839N12003182WA0065800425
B1939524749835N12003180WA0065700425
B1939534749830N12003180WA0065600425
B1939544749825N12003179WA0065500425
B1939554749822N12003178WA0065500424
B1939564749819N12003177WA0065400424
B1939574749816N12003174WA0065300423
B1939584749815N12003171WA0065300423
B1939594749815N12003166WA0065200423
B1940004749817N12003163WA0065100422
B1940014749820N12003160WA0065100422
B1940024749825N12003158WA0065000421
B1940034749829N12003158WA0065000421
B1940044749834N12003158WA0064900422
B1940054749840N12003159WA0064900422
B1940064749845N12003160WA0064800420
B1940074749850N12003162WA0064700419
B1940084749855N12003164WA0064700418
B1940094749860N12003166WA0064600418
B1940104749864N12003169WA0064600416
B1940114749868N12003172WA0064500415
B1940124749873N12003176WA0064400414
B1940134749877N12003180WA0064400412
B1940144749881N12003184WA0064300410
B1940154749885N12003189WA0064300408
B1940164749891N12003194WA0064200407
B1940174749896N12003198WA0064100405
B1940184749901N12003202WA0064100404
B1940194749907N12003205WA0064000403
B1940204749912N12003209WA0063900401
B1940214749918N12003212WA0063900399
B1940224749924N12003215WA0063800398
B1940234749930N12003217WA0063700396
B1940244749936N12003219WA0063700394
B1940254749942N12003220WA0063600392
B1940264749948N12003222WA0063500390
B1940274749955N12003223WA0063400389
B1940284749961N12003225WA0063400387
B1940294749968N12003227WA0063300386
B1940304749974N12003230WA0063200384
B1940314749981N12003232WA0063200383
B1940324749987N12003234WA0063100382
B1940334749993N12003237WA0063000381
B1940344749999N12003239WA0062900380
B1940354750004N12003241WA0062900379
B1940364750009N12003244WA0062800378
B1940374750015N12003246WA0062700377
B1940384750020N12003249WA0062600376
B1940394750025N12003252WA0062600374
B1940404750030N12003255WA0062500373
B1940414750035N12003258WA0062400372
B1940424750041N12003261WA0062300370
B1940434750046N12003263WA0062300368
B1940444750051N12003265WA0062200367
B1940454750057N12003266WA0062200366
B1940464750063N12003265WA0062100365
B1940474750069N12003265WA0062000364
B1940484750075N12003264WA0061900363
B1940494750081N12003263WA0061900363
B1940504750086N12003262WA0061800362
B1940514750092N12003261WA0061800361
B1940524750097N12003260WA0061700361
B1940534750103N12003258WA0061600360
B1940544750109N12003257WA0061600359
B1940554750114N12003256WA0061500358
B1940564750119N12003255WA0061400358
B1940574750124N12003254WA0061400357
B1940584750129N12003253WA0061300356
B1940594750134N12003251WA0061300355
B1941004750138N12003250WA0061200354
B1941014750142N12003249WA0061100353
B1941024750146N12003248WA0061100352
B1941034750149N12003247WA0061000352
B1941044750151N12003247WA0060900351
B1941054750152N12003246WA0060900350
B1941064750153N12003245WA0060800350
B1941074750154N12003244WA0060800350
B1941084750155N12003243WA0060700350
B1941094750156N12003240WA0060700350
B1941104750157N12003235WA0060700350
B1941114750156N12003230WA0060700350
B1941124750155N12003222WA0060600350
B1941134750154N12003214WA0060600350
B1941144750153N12003206WA0060600350
B1941154750152N12003197WA0060600351
B1941164750151N12003187WA0060500351
B1941174750150N12003177WA0060500351
B1941184750149N12003167WA0060500352
B1941194750148N12003157WA0060400352
B1941204750147N12003146WA0060400352
B1941214750146N12003136WA0060400352
B1941224750144N12003125WA0060400352
B1941234750143N12003115WA0060300351
B1941244750142N12003104WA0060300351
B1941254750141N12003092WA0060300351
B1941264750140N12003080WA0060200350
B1941274750138N12003068WA0060200350
B1941284750137N12003056WA0060200349
B1941294750136N12003044WA0060100349
B1941304750134N12003032WA0060100349
B1941314750133N12003020WA0060100348
B1941324750132N12003007WA0060000348
B1941334750130N12002995WA0060000348
B1941344750129N12002983WA0060000348
B1941354750128N12002970WA0059900347
B1941364750126N12002958WA0059900346
B1941374750125N12002946WA0059900346
B1941384750124N12002933WA0059800345
B1941394750122N12002920WA0059800345
B1941404750121N12002908WA0059700344
B1941414750119N12002895WA0059700343
B1941424750118N12002882WA0059600342
B1941434750117N12002869WA0059600341
B1941444750116N12002856WA0059600341
B1941454750114N12002843WA0059500340
B1941464750113N12002830WA0059500340
B1941474750112N12002817WA0059400339
B1941484750110N12002804WA0059400339
B1941494750108N12002791WA0059300339
B1941504750106N12002778WA0059300339
B1941514750104N12002765WA0059300339
B1941524750101N12002752WA0059200339
B1941534750099N12002739WA0059200339
B1941544750096N12002725WA0059200339
B1941554750093N12002712WA0059100339
B1941564750090N12002699WA0059100339
B1941574750088N12002686WA0059100339
B1941584750085N12002672WA0059000339
B1941594750082N12002659WA0059000339
B1942004750080N12002646WA0059000339
B1942014750078N12002633WA0058900339
B1942024750076N12002619WA0058900339
B1942034750074N12002607WA0058900340
B1942044750072N12002594WA0058900340
B1942054750071N12002581WA0058800340
B1942064750069N12002568WA0058800340
B1942074750068N12002555WA0058800340
B1942084750066N12002542WA0058700340
B1942094750064N12002529WA0058700340
B1942104750063N12002516WA0058700340
B1942114750061N12002503WA0058700340
B1942124750060N12002490WA0058700340
B1942134750058N12002476WA0058600340
B1942144750057N12002463WA0058600340
B1942154750055N12002450WA0058600340
B1942164750054N12002436WA0058600339
B1942174750053N12002423WA0058500340
B1942184750052N12002411WA0058500340
B1942194750051N12002399WA0058500340
B1942204750051N12002388WA0058400340
B1942214750051N12002377WA0058400340
B1942224750053N12002367WA0058400340
B1942234750055N12002357WA0058300340
B1942244750058N12002347WA0058300340
B1942254750061N12002338WA0058300340
B1942264750065N12002329WA0058300340
B1942274750070N12002322WA0058200340
B1942284750076N12002315WA0058200340
B1942294750082N12002309WA0058200340
B1942304750088N12002305WA0058200340
B1942314750095N12002300WA0058100340
B1942324750102N12002296WA0058100339
B1942334750109N12002292WA0058100339
B1942344750115N12002287WA0058100339
B1942354750122N12002282WA0058000338
B1942364750128N12002277WA0058000338
B1942374750134N12002270WA0058000338
B1942384750140N12002262WA0058000337
B1942394750145N12002253WA0057900337
B1942404750149N12002243WA0057900337
B1942414750152N12002233WA0057900337
B1942424750155N12002222WA0057900336
B1942434750156N12002211WA0057800336
B1942444750157N12002199WA0057800336
B1942454750157N12002188WA0057800337
B1942464750156N12002176WA0057800337
B1942474750155N12002165WA0057700337
B1942484750154N12002154WA0057700337
B1942494750153N12002142WA0057700337
B1942504750152N12002131WA0057700337
B1942514750151N12002120WA0057600337
B1942524750150N12002109WA0057600337
B1942534750149N12002098WA0057600337
B1942544750148N12002087WA0057500338
B1942554750147N12002076WA0057500338
B1942564750147N12002066WA0057500338
B1942574750147N12002055WA0057500338
B1942584750148N12002044WA0057400338
B1942594750149N12002033WA0057400339
B1943004750151N12002023WA0057400339
B1943014750154N12002013WA0057400340
B1943024750156N12002002WA0057400340
B1943034750159N12001992WA0057300341
B1943044750163N12001981WA0057300341
B1943054750166N12001971WA0057300342
B1943064750170N12001961WA0057300342
B1943074750173N12001950WA0057300342
B1943084750176N12001939WA0057200343
B1943094750179N12001928WA0057200343
B1943104750182N12001917WA0057200343
B1943114750184N12001905WA0057200344
B1943124750185N12001893WA0057200344
B1943134750185N12001880WA0057200344
B1943144750185N12001867WA0057100344
B1943154750184N12001855WA0057100345
B1943164750183N12001842WA0057100345
B1943174750183N12001830WA0057100345
B1943184750182N12001817WA0057100345
B1943194750181N12001805WA0057100345
B1943204750181N12001793WA0057000346
B1943214750180N12001781WA0057000346
B1943224750179N12001769WA0057000346
B1943234750179N12001758WA0057000346
B1943244750178N12001746WA0057000346
B1943254750177N12001735WA0056900346
B1943264750177N12001723WA0056900346
B1943274750176N12001712WA0056900345
B1943284750175N12001701WA0056900345
B1943294750174N12001691WA0056900345
B1943304750173N12001680WA0056800345
B1943314750173N12001669WA0056800344
B1943324750172N12001659WA0056800344
B1943334750171N12001648WA0056700344
B1943344750171N12001637WA0056700343
B1943354750170N12001626WA0056700343
B1943364750170N12001615WA0056700343
B1943374750169N12001604WA0056600343
B1943384750168N12001592WA0056600342
B1943394750168N12001580WA0056600342
B1943404750167N12001569WA0056600342
B1943414750166N12001557WA0056500341
B1943424750166N12001546WA0056500342
B1943434750165N12001534WA0056500342
B1943444750165N12001522WA0056400342
B1943454750164N12001511WA0056400342
B1943464750164N12001500WA0056400342
B1943474750164N12001489WA0056400342
B1943484750164N12001478WA0056400343
B1943494750163N12001467WA0056300343
B1943504750163N12001456WA0056300344
B1943514750163N12001445WA0056300344
B1943524750162N12001435WA0056300344
B1943534750162N12001424WA0056300345
B1943544750161N12001414WA0056300345
B1943554750160N12001404WA0056300346
B1943564750160N12001394WA0056200346
B1943574750159N12001384WA0056200347
B1943584750159N12001373WA0056200347
B1943594750158N12001363WA0056200348
B1944004750157N12001352WA0056200348
B1944014750156N12001341WA0056200348
B1944024750156N12001330WA0056200348
B1944034750155N12001319WA0056200348
B1944044750154N12001308WA0056200348
B1944054750154N12001297WA0056200349
B1944064750153N12001286WA0056100349
B1944074750152N12001275WA0056100349
B1944084750151N12001264WA0056100348
B1944094750151N12001253WA0056100348
B1944104750150N12001242WA0056100348
B1944114750150N12001231WA0056100348
B1944124750149N12001220WA0056100348
B1944134750148N12001209WA0056000348
B1944144750148N12001198WA0056000348
B1944154750147N12001186WA0056000348
B1944164750146N12001174WA0056000348
B1944174750146N12001163WA0056000348
B1944184750145N12001151WA0055900348
B1944194750145N12001140WA0055900347
B1944204750144N12001129WA0055900347
B1944214750143N12001118WA0055900347
B1944224750143N12001107WA0055900347
B1944234750142N12001096WA0055800347
B1944244750142N12001085WA0055800347
B1944254750142N12001075WA0055800347
B1944264750144N12001065WA0055800347
B1944274750146N12001054WA0055700347
B1944284750149N12001045WA0055700347
B1944294750152N12001035WA0055700347
B1944304750155N12001025WA0055700347
B1944314750159N12001015WA0055600346
B1944324750162N12001005WA0055600346
B1944334750165N12000995WA0055600346
B1944344750169N12000985WA0055500346
B1944354750172N12000976WA0055500346
B1944364750176N12000966WA0055500345
B1944374750179N12000957WA0055500345
B1944384750182N12000947WA0055400345
B1944394750185N12000938WA0055400345
B1944404750189N12000929WA0055400344
B1944414750193N12000921WA0055300344
B1944424750197N12000914WA0055300344
B1944434750202N12000908WA0055300344
B1944444750208N12000904WA0055300344
B1944454750214N12000901WA0055200344
B1944464750221N12000900WA0055200343
B1944474750228N12000899WA0055200343
B1944484750235N12000898WA0055200342
B1944494750242N12000897WA0055100342
B1944504750249N12000896WA0055100342
B1944514750256N12000895WA0055100342
B1944524750263N12000895WA0055100342
B1944534750271N12000894WA0055100342
B1944544750278N12000894WA0055000342
B1944554750285N12000893WA0055000341
B1944564750292N12000893WA0055000341
B1944574750300N12000892WA0055000341
B1944584750307N12000892WA0055000341
B1944594750314N12000891WA0054900340
B1945004750321N12000891WA0054900340
B1945014750327N12000890WA0054900340
B1945024750334N12000890WA0054900340
B1945034750339N12000889WA0054800340
B1945044750344N12000889WA0054800340
B1945054750348N12000888WA0054800340
B1945064750352N12000888WA0054800339
B1945074750355N12000888WA0054700339
B1945084750357N12000888WA0054700339
B1945094750358N12000888WA0054700339
B1945104750359N12000887WA0054600339
B1945114750360N12000887WA0054600339
B1945124750360N12000887WA0054600339
B1945134750361N12000887WA0054600340
B1945144750361N12000887WA0054500340
B1945154750361N12000887WA0054500340
B1945164750362N12000887WA0054500340
B1945174750363N12000887WA0054500340
B1945184750365N12000887WA0054500340
B1945194750367N12000887WA0054500340
B1945204750369N12000886WA0054400340
B1945214750370N12000886WA0054400340
B1945224750373N12000886WA0054400340
B1945234750375N12000886WA0054400340
B1945244750377N12000885WA0054400340
B1945254750380N12000885WA0054400340
B1945264750383N12000884WA0054400340
B1945274750385N12000882WA0054300340
B1945284750387N12000879WA0054300340
B1945294750387N12000873WA0054300340
B1945304750388N12000867WA0054300340
B1945314750388N12000860WA0054300340
B1945324750388N12000852WA0054300340
B1945334750388N12000843WA0054300340
B1945344750388N12000834WA0054200340
B1945354750388N12000825WA0054200340
B1945364750388N12000815WA0054200341
B1945374750388N12000805WA0054200341
B1945384750388N12000795WA0054200341
B1945394750388N12000785WA0054200342
B1945404750388N12000774WA0054100342
B1945414750388N12000764WA0054100342
B1945424750388N12000753WA0054100342
B1945434750388N12000742WA0054100343
B1945444750388N12000732WA0054100343
B1945454750387N12000721WA0054100344
B1945464750387N12000710WA0054000344
B1945474750387N12000699WA0054000345
B1945484750387N12000688WA0054000345
B1945494750386N12000677WA0054000346
B1945504750386N12000666WA0054000346
B1945514750386N12000655WA0054000346
B1945524750386N12000645WA0054000347
B1945534750386N12000634WA0054000347
B1945544750385N12000623WA0054000347
B1945554750385N12000612WA0054000348
B1945564750385N12000601WA0054000349
B1945574750385N12000591WA0054000350
B1945584750384N12000580WA0054000350
B1945594750384N12000569WA0054000351
B1946004750384N12000558WA0054000352
B1946014750384N12000547WA0054000353
B1946024750384N12000536WA0054000353
B1946034750383N12000525WA0054000354
B1946044750383N12000513WA0054000355
B1946054750383N12000501WA0054000356
B1946064750383N12000490WA0054000356
B1946074750383N12000478WA0054000357
B1946084750382N12000466WA0054000357
B1946094750382N12000455WA0054000358
B1946104750382N12000443WA0054000358
B1946114750381N12000431WA0054000359
B1946124750381N12000419WA0054000359
B1946134750381N12000407WA0054000359
B1946144750380N12000396WA0054000360
B1946154750380N12000384WA0054000360
B1946164750380N12000373WA0054000360
B1946174750380N12000362WA0054000361
B1946184750379N12000351WA0054000361
B1946194750379N12000340WA0054000361
B1946204750379N12000328WA0054000362
B1946214750379N12000317WA0054000362
B1946224750378N12000306WA0054000362
B1946234750378N12000295WA0054000363
B1946244750378N12000284WA0054000363
B1946254750377N12000272WA0054000363
B1946264750377N12000261WA0054000363
B1946274750377N12000249WA0053900363
B1946284750377N12000238WA0053900363
B1946294750377N12000226WA0053900363
B1946304750376N12000214WA0053900363
B1946314750376N12000202WA0053900363
B1946324750375N12000190WA0053900363
B1946334750375N12000177WA0053900362
B1946344750375N12000164WA0053900362
B1946354750374N12000152WA0053900362
B1946364750374N12000140WA0053900362
B1946374750374N12000128WA0053900362
B1946384750373N12000116WA0053800362
B1946394750373N12000104WA0053800363
B1946404750373N12000093WA0053800363
B1946414750372N12000083WA0053800363
B1946424750372N12000072WA0053800363
B1946434750372N12000062WA0053800363
B1946444750371N12000051WA0053800363
B1946454750371N12000040WA0053800363
B1946464750371N12000030WA0053700363
B1946474750371N12000019WA0053700363
B1946484750370N12000007WA0053700363
B1946494750370N11959995WA0053700363
B1946504750369N11959983WA0053700364
B1946514750369N11959971WA0053700364
B1946524750368N11959959WA0053700364
B1946534750367N11959946WA0053700364
B1946544750366N11959933WA0053700364
B1946554750365N11959921WA0053700365
B1946564750363N11959908WA0053700365
B1946574750362N11959896WA0053700366
B1946584750361N11959884WA0053700366
B1946594750359N11959872WA0053700367
B1947004750358N11959861WA0053700367
B1947014750357N11959848WA0053600368
B1947024750356N11959836WA0053600368
B1947034750355N11959824WA0053600368
B1947044750354N11959812WA0053600369
B1947054750353N11959799WA0053600369
B1947064750352N11959787WA0053600370
B1947074750351N11959774WA0053600371
B1947084750350N11959762WA0053600371
B1947094750349N11959749WA0053600372
B1947104750349N11959737WA0053600373
B1947114750348N11959724WA0053700373
B1947124750347N11959711WA0053700374
B1947134750346N11959698WA0053700374
B1947144750345N11959684WA0053700375
B1947154750344N11959671WA0053700376
B1947164750343N11959657WA0053700377
B1947174750342N11959643WA0053700378
B1947184750341N11959629WA0053700379
B1947194750341N11959615WA0053700380
B1947204750340N11959602WA0053800381
B1947214750340N11959588WA0053800382
B1947224750341N11959575WA0053800383
B1947234750342N11959562WA0053800383
B1947244750343N11959549WA0053800384
B1947254750345N11959536WA0053800385
B1947264750348N11959524WA0053800386
B1947274750351N11959512WA0053800387
B1947284750354N11959500WA0053800388
B1947294750357N11959488WA0053900388
B1947304750361N11959477WA0053900389
B1947314750365N11959466WA0053900389
B1947324750369N11959456WA0053900390
B1947334750374N11959445WA0053900390
B1947344750379N11959436WA0053900391
B1947354750384N11959426WA0053900391
B1947364750390N11959417WA0053900391
B1947374750396N11959408WA0053900391
B1947384750402N11959399WA0053900391
B1947394750408N11959390WA0053900391
B1947404750413N11959381WA0053900391
B1947414750419N11959372WA0053900392
B1947424750425N11959362WA0053900392
B1947434750430N11959352WA0053900393
B1947444750435N11959341WA0053900393
B1947454750440N11959330WA0053900393
B1947464750445N11959318WA0053900393
B1947474750449N11959307WA0053900393
B1947484750453N11959295WA0053900393
B1947494750456N11959283WA0053900393
B1947504750460N11959271WA0053900393
B1947514750464N11959259WA0053900393
B1947524750467N11959248WA0053900393
B1947534750471N11959236WA0053900393
B1947544750474N11959225WA0053900393
B1947554750476N11959214WA0053800393
B1947564750479N11959205WA0053800393
B1947574750481N11959196WA0053800393
B1947584750482N11959189WA0053800393
B1947594750483N11959182WA0053800393
B1948004750483N11959176WA0053800393
B1948014750481N11959171WA0053800393
B1948024750478N11959167WA0053700392
B1948034750474N11959165WA0053700392
B1948044750469N11959164WA0053700392
B1948054750464N11959163WA0053700392
B1948064750459N11959163WA0053700392
B1948074750455N11959162WA0053700392
B1948084750451N11959161WA0053700392
B1948094750446N11959158WA0053700392
B1948104750442N11959155WA0053700392
B1948114750439N11959150WA0053700392
B1948124750436N11959144WA0053700393
B1948134750434N11959137WA0053700393
B1948144750433N11959128WA0053700393
B1948154750432N11959120WA0053700394
B1948164750431N11959111WA0053700394
B1948174750428N11959102WA0053700395
B1948184750425N11959094WA0053700395
B1948194750422N11959086WA0053700396
B1948204750417N11959080WA0053700397
B1948214750412N11959075WA0053700397
B1948224750406N11959071WA0053700397
B1948234750401N11959067WA0053700397
B1948244750395N11959063WA0053700398
B1948254750389N11959060WA0053700398
B1948264750383N11959056WA0053700398
B1948274750377N11959053WA0053700398
B1948284750371N11959049WA0053700398
B1948294750365N11959045WA0053700398
B1948304750359N11959041WA0053700397
B1948314750354N11959036WA0053700398
B1948324750349N11959032WA0053700397
B1948334750343N11959027WA0053700397
B1948344750338N11959022WA0053600396
B1948354750332N11959017WA0053600395
B1948364750327N11959011WA0053600395
B1948374750322N11959005WA0053600395
B1948384750317N11958999WA0053600395
B1948394750312N11958993WA0053600396
B1948404750307N11958987WA0053600396
B1948414750303N11958980WA0053600396
B1948424750299N11958973WA0053500396
B1948434750295N11958965WA0053500396
B1948444750291N11958959WA0053500396
B1948454750287N11958953WA0053500396
B1948464750283N11958949WA0053500396
B1948474750278N11958946WA0053500396
B1948484750273N11958946WA0053500396
B1948494750268N11958947WA0053500397
B1948504750263N11958950WA0053500397
B1948514750258N11958954WA0053500396
B1948524750254N11958958WA0053500396
B1948534750249N11958963WA0053400396
B1948544750245N11958966WA0053400395
B1948554750241N11958969WA0053400394
B1948564750238N11958972WA0053400393
B1948574750234N11958973WA0053300393
B1948584750231N11958973WA0053300393
B1948594750228N11958972WA0053300392
B1949004750225N11958968WA0053200391
B1949014750223N11958963WA0053200390
B1949024750222N11958958WA0053200390
B1949034750222N11958952WA0053100390
B1949044750222N11958946WA0053100390
B1949054750222N11958940WA0053100390
B1949064750221N11958935WA0053100390
B1949074750220N11958932WA0053000390
B1949084750218N11958929WA0053000389
B1949094750216N11958927WA0053000389
B1949104750214N11958925WA0053000389
B1949114750212N11958923WA0053000389
B1949124750211N11958922WA0053000389
B1949134750209N11958920WA0052900389
B1949144750208N11958920WA0052900389
B1949154750207N11958919WA0052900389
B1949164750207N11958918WA0052900389
B1949174750206N11958918WA0052900389
B1949184750206N11958918WA0052800389
B1949194750206N11958918WA0052800389
B1949204750205N11958918WA0052800389
B1949214750205N11958918WA0052800389
B1949224750205N11958918WA0052800389
B1949234750205N11958918WA0052800388
B1949244750205N11958918WA0052800388
B1949254750205N11958918WA0052800388
B1949264750205N11958918WA0052700388
B1949274750205N11958918WA0052700388
B1949284750205N11958918WA0052700388
B1949294750205N11958918WA0052700388
B1949304750205N11958918WA0052700388
B1949314750205N11958918WA0052700388
B1949324750205N11958918WA0052700388
B1949334750205N11958918WA0052700388
B1949344750205N11958918WA0052700388
B1949354750205N11958918WA0052600388
B1949364750205N11958918WA0052600388
B1949374750205N11958918WA0052600388
B1949384750205N11958918WA0052600388
B1949394750205N11958918WA0052600388
B1949404750205N11958918WA0052600388
B1949414750205N11958918WA0052600388
B1949424750205N11958918WA0052600388
B1949434750205N11958918WA0052600388
B1949444750205N11958918WA0052500388
B1949454750205N11958918WA0052500388
B1949464750205N11958918WA0052500388
B1949474750205N11958918WA0052500388
B1949484750205N11958918WA0052500388
B1949494750205N11958918WA0052500388
B1949504750205N11958918WA0052500388
B1949514750205N11958918WA0052500388
B1949524750205N11958918WA0052500388
B1949534750205N11958918WA0052500388
B1949544750205N11958918WA0052500388
B1949554750205N11958918WA0052400388
B1949564750205N11958918WA0052400388
B1949574750205N11958918WA0052400388
B1949584750205N11958918WA0052400388
B1949594750205N11958918WA0052400388
B1950004750205N11958918WA0052400388
B1950014750205N11958918WA0052400388
B1950024750205N11958918WA0052400388
B1950034750205N11958918WA0052400388
B1950044750205N11958918WA0052400388
B1950054750205N11958918WA0052300388
B1950064750205N11958918WA0052300388
B1950074750205N11958918WA0052300388
B1950084750205N11958918WA0052300388
B1950094750205N11958918WA0052300388
B1950104750205N11958918WA0052300388
B1950114750205N11958918WA0052300388
B1950124750205N11958918WA0052300388
B1950134750205N11958918WA0052300388
B1950144750205N11958918WA0052300388
B1950154750205N11958918WA0052200388
B1950164750205N11958918WA0052200388
B1950174750205N11958918WA0052200388
B1950184750205N11958918WA0052200388
B1950194750205N11958918WA0052200387
B1950204750205N11958918WA0052200387
B1950214750205N11958918WA0052200387
B1950224750205N11958918WA0052200387
B1950234750205N11958918WA0052200387
B1950244750205N11958918WA0052200387
B1950254750205N11958918WA0052200387
B1950264750205N11958918WA0052100387
B1950274750205N11958918WA0052100387
B1950284750205N11958918WA0052100386
B1950294750205N11958918WA0052100386
B1950304750205N11958918WA0052100386
B1950314750205N11958917WA0052100386
B1950324750205N11958917WA0052100386
B1950334750205N11958917WA0052100386
B1950344750205N11958917WA0052100386
B1950354750205N11958917WA0052100386
B1950364750205N11958917WA0052000386
B1950374750205N11958917WA0052000386
B1950384750205N11958917WA0052000386
B1950394750205N11958917WA0052000386
B1950404750205N11958917WA0052000386
B1950414750205N11958917WA0052000386
B1950424750205N11958917WA0052000386
B1950434750205N11958917WA0052000386
B1950444750205N11958917WA0052000386
B1950454750205N11958917WA0051900386
B1950464750205N11958917WA0051900386
B1950474750205N11958917WA0051900386
B1950484750205N11958917WA0051900386
B1950494750205N11958917WA0051900386
B1950504750205N11958917WA0051900386
B1950514750205N11958917WA0051900386
B1950524750205N11958917WA0051900386
B1950534750205N11958917WA0051900386
B1950544750205N11958917WA0051900386
B1950554750205N11958917WA0051900386
B1950564750205N11958917WA0051800386
B1950574750205N11958918WA0051800386
B1950584750205N11958918WA0051800387
B1950594750205N11958918WA0051800387
B1951004750205N11958918WA0051800387
B1951014750205N11958918WA0051800387
B1951024750205N11958918WA0051800387
B1951034750205N11958918WA0051800387
B1951044750205N11958918WA0051800387
B1951054750205N11958918WA0051700387
B1951064750205N11958918WA0051700387
B1951074750205N11958918WA0051700387
B1951084750205N11958918WA0051700387
B1951094750205N11958918WA0051700387
B1951104750205N11958918WA0051700387
B1951114750205N11958918WA0051700387
B1951124750205N11958918WA0051700387
B1951134750205N11958918WA0051700387
B1951144750205N11958918WA0051700387
B1951154750205N11958918WA0051600387
B1951164750205N11958918WA0051600387
B1951174750205N11958918WA0051600387
B1951184750205N11958918WA0051600387
B1951194750205N11958918WA0051600387
B1951204750205N11958918WA0051600387
B1951214750205N11958918WA0051600387
B1951224750205N11958918WA0051600387
B1951234750205N11958918WA0051600387
B1951244750205N11958918WA0051600387
B1951254750205N11958918WA0051600387
B1951264750205N11958918WA0051600387
B1951274750205N11958918WA0051500387
B1951284750205N11958918WA0051500387
B1951294750205N11958918WA0051500387
B1951304750205N11958918WA0051500387
B1951314750205N11958918WA0051500387
B1951324750205N11958918WA0051500387
B1951334750205N11958918WA0051500387
B1951344750205N11958918WA0051500387
B1951354750205N11958918WA0051500387
B1951364750205N11958918WA0051500387
B1951374750205N11958918WA0051500387
B1951384750205N11958918WA0051500387
B1951394750205N11958918WA0051400387
B1951404750205N11958918WA0051400387
B1951414750205N11958918WA0051400387
B1951424750205N11958918WA0051400387
B1951434750205N11958918WA0051400387
B1951444750205N11958918WA0051400387
B1951454750205N11958918WA0051400387
B1951464750205N11958918WA0051400387
B1951474750205N11958918WA0051400387
B1951484750205N11958918WA0051400387
B1951494750205N11958918WA0051400387
B1951504750205N11958918WA0051400386
B1951514750205N11958918WA0051300386
B1951524750205N11958918WA0051300386
B1951534750205N11958918WA0051300386
B1951544750205N11958918WA0051300386
B1951554750205N11958918WA0051300386
B1951564750205N11958918WA0051300386
B1951574750205N11958918WA0051300386
B1951584750205N11958918WA0051300386
B1951594750204N11958918WA0051300386
B1952004750204N11958918WA0051300386
B1952014750204N11958918WA0051300386
B1952024750204N11958918WA0051200386
B1952034750204N11958918WA0051200386
B1952044750204N11958918WA0051200386
B1952054750204N11958918WA0051200386
B1952064750204N11958918WA0051200386
B1952074750204N11958918WA0051200386
B1952084750204N11958918WA0051200386
B1952094750204N11958918WA0051200386
B1952104750204N11958918WA0051200386
B1952114750204N11958918WA0051200386
B1952124750204N11958918WA0051200386
B1952134750204N11958918WA0051200386
B1952144750204N11958918WA0051100386
B1952154750204N11958918WA0051100386
B1952164750204N11958918WA0051100386
B1952174750204N11958918WA0051100386
B1952184750204N11958918WA0051100386
B1952194750204N11958918WA0051100386
B1952204750204N11958918WA0051100386
B1952214750204N11958918WA0051100386
B1952224750204N11958918WA0051100386
B1952234750204N11958918WA0051100386
B1952244750204N11958918WA0051100386
B1952254750204N11958918WA0051100386
B1952264750204N11958918WA0051000386
B1952274750204N11958918WA0051000386
B1952284750204N11958918WA0051000386
B1952294750204N11958918WA0051000386
B1952304750204N11958918WA0051000386
B1952314750204N11958918WA0051000386
B1952324750204N11958918WA0051000386
B1952334750204N11958918WA0051000386
B1952344750204N11958918WA0051000386
B1952354750204N11958918WA0051000386
B1952364750204N11958918WA0051000386
B1952374750204N11958918WA0050900386
B1952384750204N11958918WA0050900386
B1952394750204N11958918WA0050900386
B1952404750204N11958918WA0050900385
B1952414750204N11958918WA0050900385
B1952424750204N11958918WA0050900385
B1952434750204N11958918WA0050900385
B1952444750204N11958918WA0050900385
B1952454750204N11958918WA0050900385
B1952464750204N11958918WA0050900385
B1952474750204N11958918WA0050900385
B1952484750204N11958918WA0050900385
B1952494750204N11958918WA0050800385
B1952504750204N11958918WA0050800385
B1952514750204N11958918WA0050800385
B1952524750204N11958918WA0050800385
B1952534750204N11958918WA0050800385
B1952544750204N11958918WA0050800385
B1952554750204N11958918WA0050800385
B1952564750204N11958918WA0050800385
B1952574750204N11958918WA0050800385
B1952584750204N11958918WA0050800385
B1952594750204N11958918WA0050800385
B1953004750204N11958918WA0050800385
B1953014750204N11958918WA0050700385
B1953024750204N11958918WA0050700385
B1953034750204N11958918WA0050700385
B1953044750204N11958918WA0050700385
B1953054750204N11958918WA0050700384
B1953064750205N11958918WA0050700384
B1953074750205N11958918WA0050700384
B1953084750205N11958918WA0050700385
B1953094750204N11958918WA0050700385
B1953104750204N11958918WA0050700384
B1953114750204N11958918WA0050700384
B1953124750204N11958918WA0050700384
B1953134750204N11958918WA0050700384
B1953144750204N11958918WA0050600385
B1953154750204N11958918WA0050600385
B1953164750204N11958918WA0050600385
B1953174750205N11958918WA0050600385
B1953184750205N11958918WA0050600385
B1953194750205N11958918WA0050600385
B1953204750205N11958918WA0050600385
B1953214750205N11958918WA0050600386
B1953224750205N11958918WA0050600386
B1953234750205N11958918WA0050600386
B1953244750205N11958918WA0050600386
B1953254750205N11958918WA0050600386
B1953264750205N11958918WA0050500386
B1953274750205N11958918WA0050500386
B1953284750205N11958918WA0050500386
B1953294750205N11958918WA0050500386
B1953304750205N11958918WA0050500387
B1953314750205N11958918WA0050500387
B1953324750205N11958918WA0050500387
B1953334750205N11958918WA0050500387
B1953344750205N11958918WA0050500387
B1953354750205N11958918WA0050500387
B1953364750205N11958918WA0050500387
B1953374750205N11958918WA0050400387
B1953384750205N11958918WA0050400387
B1953394750205N11958918WA0050400387
B1953404750205N11958918WA0050400387
B1953414750205N11958918WA0050300387
B1953424750206N11958918WA0050300387
B1953434750206N11958918WA0050300387
B1953444750206N11958918WA0050300388
B1953454750206N11958918WA0050300388
B1953464750206N11958918WA0050300388
B1953474750206N11958918WA0050300388
B1953484750206N11958918WA0050200387
B1953494750206N11958918WA0050200387
B1953504750206N11958918WA0050200387
B1953514750206N11958918WA0050200387
B1953524750206N11958917WA0050200387
B1953534750206N11958918WA0050200387
B1953544750206N11958918WA0050200387
B1953554750206N11958918WA0050200386
B1953564750205N11958919WA0050100386
B1953574750205N11958919WA0050100387
B1953584750205N11958919WA0050100387
B1953594750205N11958919WA0050200387
B1954004750205N11958919WA0050200387
B1954014750205N11958919WA0050200387
B1954024750205N11958919WA0050200387
B1954034750204N11958919WA0050200387
B1954044750204N11958920WA0050200387
B1954054750204N11958920WA0050200387
B1954064750204N11958920WA0050200387
B1954074750204N11958920WA0050200387
B1954084750204N11958920WA0050200387
B1954094750204N11958920WA0050200387
B1954104750204N11958920WA0050200387
B1954114750204N11958920WA0050100387
B1954124750204N11958920WA0050100387
B1954134750204N11958920WA0050100387
B1954144750204N11958920WA0050100387
B1954154750204N11958921WA0050100387
B1954164750204N11958921WA0050100387
B1954174750204N11958921WA0050000387
B1954184750204N11958921WA0050000387
B1954194750204N11958921WA0050000387
B1954204750204N11958921WA0050000387
B1954214750204N11958921WA0050100387
B1954224750204N11958921WA0050100387
B1954234750204N11958921WA0050100387
B1954244750204N11958921WA0050100387
B1954254750204N11958921WA0050100387
B1954264750204N11958921WA0050200387
B1954274750204N11958921WA0050200387
B1954284750203N11958921WA0050200387
B1954294750203N11958921WA0050200387
B1954304750203N11958921WA0050200387
B1954314750203N11958921WA0050100387
B1954324750203N11958922WA0050100387
B1954334750203N11958922WA0050100387
B1954344750203N11958922WA0050100387
B1954354750203N11958922WA0050100387
B1954364750203N11958922WA0050100387
B1954374750203N11958922WA0050100387
B1954384750203N11958922WA0050100387
B1954394750203N11958922WA0050000387
B1954404750203N11958922WA0050000387
B1954414750203N11958922WA0050000387
B1954424750203N11958922WA0050000387
B1954434750203N11958922WA0050000387
B1954444750203N11958922WA0049900387
B1954454750203N11958922WA0049900387
B1954464750203N11958922WA0049900387
B1954474750203N11958922WA0049800387
B1954484750203N11958922WA0049800387
B1954494750203N11958922WA0049700387
B1954504750203N11958923WA0049600387
B1954514750202N11958922WA0049500388
B1954524750201N11958922WA0049400388
B1954534750201N11958922WA0049400388
B1954544750200N11958921WA0049300388
B1954554750199N11958921WA0049300388
B1954564750199N11958921WA0049200388
B1954574750198N11958920WA0049200388
B1954584750197N11958920WA0049100387
B1954594750197N11958920WA0049100387
B1955004750196N11958920WA0049000387
B1955014750195N11958919WA0049000387
B1955024750195N11958919WA0049000386
B1955034750194N11958919WA0049000386
B1955044750193N11958919WA0048900386
B1955054750193N11958919WA0048900386
B1955064750192N11958919WA0048900386
B1955074750191N11958918WA0048900386
B1955084750191N11958918WA0048800386
B1955094750190N11958917WA0048800386
B1955104750190N11958917WA0048800386
B1955114750189N11958916WA0048800386
B1955124750188N11958916WA0048800386
B1955134750188N11958915WA0048700386
B1955144750187N11958914WA0048700385
B1955154750187N11958914WA0048700384
B1955164750186N11958913WA0048700384
B1955174750185N11958913WA0048700384
B1955184750185N11958913WA0048600385
B1955194750184N11958913WA0048600385
B1955204750184N11958913WA0048600386
B1955214750184N11958913WA0048600386
B1955224750184N11958913WA0048600386
B1955234750184N11958913WA0048600386
B1955244750184N11958913WA0048600385
B1955254750184N11958913WA0048400385
B1955264750184N11958913WA0048500385
B1955274750184N11958913WA0048600385
B1955284750184N11958913WA0048600386
B1955294750184N11958913WA0048700385
B1955304750184N11958913WA0048700385
B1955314750184N11958912WA0048800385
B1955324750184N11958912WA0048800385
B1955334750184N11958912WA0048900385
B1955344750184N11958912WA0048900385
B1955354750184N11958912WA0048900385
B1955364750184N11958912WA0048900385
B1955374750184N11958912WA0048900385
B1955384750184N11958912WA0048900385
B1955394750184N11958912WA0048000385
B1955404750184N11958912WA0047200385
B1955414750184N11958912WA0046200385
B1955424750184N11958912WA0045600385
B1955434750184N11958912WA0044800385
LXFM live.flymaster.net version 1.01
LXFM Created 2025-06-26 23:39:41
LXFM flight id 1616577
G2625C9A783CFA65BB8C0844B94EB9B42
