AXXX001242
HFDTE250926
HFPLTPILOTINCHARGE:Evan Furbeyre
HFCIDCOMPETITIONID:1242
HFFTYFRTYPE:Flymaster task track export
HFGPSGPSDATUM:WGS-84
B1903413837962N11203638WA0256602680
B1903423837963N11203638WA0256602680
B1903433837965N11203638WA0256602680
B1903443837967N11203637WA0256502679
B1903453837969N11203637WA0256502679
B1903463837971N11203636WA0256502679
B1903473837973N11203636WA0256502678
B1903483837975N11203636WA0256502678
B1903493837977N11203635WA0256502677
B1903503837979N11203635WA0256402677
B1903513837981N11203635WA0256402677
B1903523837984N11203634WA0256402677
B1903533837986N11203634WA0256402676
B1903543837988N11203634WA0256402676
B1903553837990N11203633WA0256402676
B1903563837993N11203633WA0256402676
B1903573837995N11203632WA0256402676
B1903583837997N11203632WA0256402675
B1903593837999N11203631WA0256402675
B1904003838001N11203630WA0256402675
B1904013838003N11203629WA0256302675
B1904023838006N11203628WA0256302674
B1904033838008N11203627WA0256302674
B1904043838010N11203626WA0256302674
B1904053838013N11203624WA0256302674
B1904063838015N11203623WA0256302674
B1904073838017N11203622WA0256302673
B1904083838019N11203620WA0256302673
B1904093838021N11203619WA0256302673
B1904103838023N11203618WA0256202673
B1904113838026N11203617WA0256202672
B1904123838028N11203616WA0256202672
B1904133838030N11203615WA0256202671
B1904143838032N11203615WA0256202671
B1904153838034N11203614WA0256202671
B1904163838035N11203613WA0256102671
B1904173838037N11203613WA0256102670
B1904183838038N11203613WA0256102670
B1904193838039N11203612WA0256102670
B1904203838039N11203612WA0256002670
B1904213838039N11203612WA0256002670
B1904223838039N11203612WA0256002670
B1904233838039N11203612WA0256002670
B1904243838039N11203612WA0256002671
B1904253838039N11203612WA0256002671
B1904263838039N11203612WA0256002671
B1904273838039N11203612WA0256002671
B1904283838039N11203612WA0255902671
B1904293838039N11203612WA0255902671
B1904303838039N11203612WA0255902671
B1904313838039N11203612WA0255902672
B1904323838039N11203612WA0255902672
B1904333838039N11203612WA0255902672
B1904343838039N11203612WA0255902673
B1904353838039N11203612WA0255902673
B1904363838039N11203612WA0255902674
B1904373838039N11203612WA0255902674
B1904383838039N11203612WA0255902674
B1904393838039N11203612WA0255902674
B1904403838039N11203613WA0255902675
B1904413838039N11203613WA0255902675
B1904423838039N11203613WA0255902675
B1904433838039N11203613WA0255902675
B1904443838039N11203613WA0255902675
B1904453838039N11203613WA0255902675
B1904463838039N11203613WA0255902676
B1904473838039N11203613WA0255902676
B1904483838039N11203613WA0255802676
B1904493838039N11203613WA0255802676
B1904503838039N11203613WA0255802676
B1904513838039N11203613WA0255802676
B1904523838039N11203613WA0255802676
B1904533838039N11203613WA0255802676
B1904543838039N11203613WA0255802676
B1904553838039N11203613WA0255802676
B1904563838039N11203613WA0255802677
B1904573838039N11203613WA0255802677
B1904583838039N11203612WA0255802677
B1904593838039N11203612WA0255802677
B1905003838039N11203612WA0255802677
B1905013838039N11203613WA0255802677
B1905023838038N11203613WA0255802676
B1905033838038N11203613WA0255902676
B1905043838038N11203613WA0255902676
B1905053838038N11203613WA0255902676
B1905063838038N11203613WA0255902676
B1905073838038N11203613WA0255902676
B1905083838038N11203613WA0255902676
B1905093838038N11203613WA0255902676
B1905103838038N11203613WA0255902676
B1905113838038N11203614WA0255902676
B1905123838038N11203614WA0255902677
B1905133838038N11203614WA0255902676
B1905143838038N11203614WA0255902677
B1905153838038N11203614WA0255902676
B1905163838038N11203614WA0255902676
B1905173838038N11203614WA0255902676
B1905183838038N11203614WA0255902676
B1905193838038N11203614WA0255902676
B1905203838038N11203614WA0255902676
B1905213838038N11203614WA0255902676
B1905223838038N11203614WA0255902676
B1905233838038N11203613WA0255902675
B1905243838038N11203613WA0256002675
B1905253838038N11203613WA0256002675
B1905263838038N11203613WA0256002674
B1905273838038N11203613WA0256002674
B1905283838038N11203613WA0256002674
B1905293838038N11203613WA0256002673
B1905303838038N11203613WA0256002674
B1905313838038N11203613WA0256002674
B1905323838038N11203613WA0256002674
B1905333838038N11203613WA0256002674
B1905343838038N11203614WA0256002674
B1905353838038N11203613WA0256002674
B1905363838038N11203613WA0256002675
B1905373838038N11203613WA0256002675
B1905383838038N11203613WA0256002675
B1905393838038N11203613WA0256002674
B1905403838038N11203613WA0256002674
B1905413838038N11203613WA0256002674
B1905423838038N11203612WA0256002674
B1905433838038N11203612WA0256002674
B1905443838038N11203612WA0256002674
B1905453838039N11203612WA0256002674
B1905463838039N11203612WA0256002674
B1905473838039N11203612WA0256002674
B1905483838039N11203611WA0256002673
B1905493838039N11203611WA0256002673
B1905503838040N11203612WA0256002673
B1905513838041N11203611WA0256002673
B1905523838041N11203611WA0256002673
B1905533838042N11203610WA0256002672
B1905543838042N11203609WA0256002673
B1905553838043N11203609WA0256002672
B1905563838043N11203609WA0256002671
B1905573838043N11203609WA0256002672
B1905583838044N11203608WA0256002671
B1905593838044N11203608WA0256002671
B1906003838045N11203607WA0256002671
B1906013838046N11203606WA0256002671
B1906023838047N11203606WA0256002672
B1906033838048N11203605WA0256002672
B1906043838049N11203605WA0256002673
B1906053838051N11203604WA0256002674
B1906063838052N11203604WA0256002675
B1906073838052N11203604WA0256002676
B1906083838052N11203604WA0256002676
B1906093838052N11203604WA0256002676
B1906103838053N11203603WA0256002676
B1906113838053N11203603WA0256002675
B1906123838053N11203602WA0256002674
B1906133838053N11203602WA0256002675
B1906143838053N11203602WA0256002675
B1906153838054N11203602WA0256002675
B1906163838054N11203601WA0255902674
B1906173838054N11203601WA0255902674
B1906183838053N11203601WA0255902674
B1906193838053N11203601WA0255902675
B1906203838053N11203601WA0255902674
B1906213838053N11203600WA0255902674
B1906223838053N11203599WA0255902674
B1906233838053N11203599WA0256002674
B1906243838053N11203599WA0256002674
B1906253838054N11203598WA0256002674
B1906263838054N11203598WA0256002675
B1906273838054N11203598WA0256002674
B1906283838054N11203598WA0256002674
B1906293838054N11203598WA0256002675
B1906303838055N11203597WA0256002675
B1906313838055N11203597WA0256002675
B1906323838055N11203597WA0256102675
B1906333838055N11203597WA0256102674
B1906343838055N11203597WA0256102674
B1906353838055N11203597WA0256102674
B1906363838055N11203597WA0256102674
B1906373838055N11203597WA0256102674
B1906383838055N11203597WA0256102674
B1906393838055N11203597WA0256102674
B1906403838055N11203597WA0256102674
B1906413838055N11203597WA0256102674
B1906423838055N11203597WA0256102674
B1906433838055N11203597WA0256102674
B1906443838055N11203597WA0256002674
B1906453838055N11203597WA0256002674
B1906463838055N11203597WA0256002674
B1906473838055N11203597WA0256002674
B1906483838055N11203597WA0256002674
B1906493838055N11203597WA0256002674
B1906503838055N11203597WA0256002674
B1906513838055N11203597WA0256002674
B1906523838055N11203597WA0256002674
B1906533838055N11203597WA0256002674
B1906543838055N11203597WA0256002674
B1906553838055N11203597WA0256002673
B1906563838055N11203597WA0256002673
B1906573838055N11203597WA0256002673
B1906583838055N11203597WA0256002673
B1906593838055N11203597WA0256002674
B1907003838055N11203597WA0256002673
B1907013838055N11203597WA0256002673
B1907023838055N11203597WA0256002673
B1907033838055N11203597WA0256002673
B1907043838055N11203597WA0256002673
B1907053838055N11203597WA0256002673
B1907063838055N11203597WA0256002673
B1907073838055N11203597WA0256002673
B1907083838055N11203597WA0256002673
B1907093838055N11203597WA0255902673
B1907103838055N11203597WA0255902673
B1907113838055N11203597WA0255902673
B1907123838055N11203597WA0255902673
B1907133838055N11203597WA0255902673
B1907143838055N11203597WA0255902673
B1907153838055N11203597WA0255902673
B1907163838055N11203597WA0255902673
B1907173838055N11203597WA0255902672
B1907183838055N11203597WA0255902672
B1907193838055N11203597WA0255902672
B1907203838055N11203597WA0255902672
B1907213838055N11203597WA0255902672
B1907223838055N11203597WA0255902672
B1907233838055N11203597WA0255902672
B1907243838055N11203597WA0255902672
B1907253838055N11203597WA0255902672
B1907263838055N11203597WA0255902672
B1907273838055N11203597WA0255902672
B1907283838055N11203597WA0255902672
B1907293838055N11203597WA0255902672
B1907303838055N11203597WA0255902672
B1907313838055N11203597WA0255902672
B1907323838055N11203597WA0255902672
B1907333838055N11203597WA0255902672
B1907343838055N11203597WA0255902672
B1907353838055N11203596WA0255902672
B1907363838055N11203596WA0255902672
B1907373838054N11203596WA0255902672
B1907383838054N11203596WA0255902672
B1907393838054N11203596WA0255902672
B1907403838054N11203596WA0255902672
B1907413838054N11203596WA0255902671
B1907423838054N11203596WA0255902671
B1907433838054N11203596WA0255902671
B1907443838054N11203596WA0255902671
B1907453838054N11203596WA0255902671
B1907463838054N11203596WA0255902671
B1907473838054N11203596WA0255902671
B1907483838054N11203596WA0255902671
B1907493838054N11203596WA0255902671
B1907503838054N11203596WA0255902671
B1907513838054N11203595WA0255902671
B1907523838055N11203594WA0255902671
B1907533838055N11203593WA0255902671
B1907543838056N11203591WA0255902671
B1907553838056N11203590WA0255902671
B1907563838055N11203588WA0255902671
B1907573838055N11203586WA0255902671
B1907583838054N11203584WA0255902671
B1907593838053N11203582WA0255902671
B1908003838051N11203580WA0255902671
B1908013838050N11203577WA0255902671
B1908023838049N11203575WA0255902672
B1908033838048N11203573WA0256002672
B1908043838047N11203570WA0256002672
B1908053838046N11203567WA0256002673
B1908063838045N11203564WA0256002673
B1908073838044N11203561WA0256002673
B1908083838043N11203558WA0256002673
B1908093838042N11203554WA0256102673
B1908103838042N11203551WA0256102673
B1908113838041N11203548WA0256102674
B1908123838040N11203544WA0256102674
B1908133838039N11203541WA0256102674
B1908143838038N11203537WA0256202674
B1908153838037N11203534WA0256202674
B1908163838036N11203530WA0256202674
B1908173838035N11203526WA0256202673
B1908183838034N11203522WA0256202673
B1908193838032N11203518WA0256202673
B1908203838031N11203514WA0256202673
B1908213838030N11203510WA0256202673
B1908223838029N11203507WA0256202673
B1908233838028N11203504WA0256202673
B1908243838027N11203501WA0256202673
B1908253838026N11203498WA0256202672
B1908263838025N11203496WA0256202671
B1908273838025N11203493WA0256202670
B1908283838025N11203491WA0256202669
B1908293838025N11203489WA0256202669
B1908303838026N11203488WA0256202669
B1908313838027N11203487WA0256102668
B1908323838028N11203486WA0256102668
B1908333838030N11203487WA0256102667
B1908343838031N11203488WA0256102666
B1908353838033N11203489WA0256002666
B1908363838034N11203491WA0256002665
B1908373838035N11203494WA0256002664
B1908383838037N11203496WA0255902663
B1908393838038N11203499WA0255902662
B1908403838040N11203502WA0255902660
B1908413838042N11203504WA0255802659
B1908423838044N11203507WA0255802658
B1908433838046N11203509WA0255702657
B1908443838048N11203511WA0255602656
B1908453838051N11203513WA0255602655
B1908463838054N11203515WA0255502654
B1908473838056N11203516WA0255402653
B1908483838059N11203518WA0255302652
B1908493838062N11203520WA0255302650
B1908503838065N11203521WA0255202649
B1908513838067N11203523WA0255102648
B1908523838070N11203526WA0255002648
B1908533838072N11203528WA0254902647
B1908543838074N11203531WA0254802646
B1908553838076N11203533WA0254802645
B1908563838077N11203536WA0254702644
B1908573838079N11203538WA0254602643
B1908583838080N11203541WA0254502642
B1908593838082N11203544WA0254502641
B1909003838084N11203546WA0254402640
B1909013838085N11203549WA0254302639
B1909023838087N11203551WA0254202639
B1909033838090N11203553WA0254202638
B1909043838092N11203555WA0254102637
B1909053838094N11203556WA0254002635
B1909063838096N11203556WA0253902635
B1909073838098N11203555WA0253902634
B1909083838100N11203553WA0253802633
B1909093838101N11203551WA0253702632
B1909103838101N11203547WA0253602632
B1909113838100N11203545WA0253502631
B1909123838099N11203542WA0253502631
B1909133838098N11203539WA0253402630
B1909143838096N11203536WA0253302630
B1909153838095N11203533WA0253302629
B1909163838095N11203530WA0253202629
B1909173838094N11203526WA0253102628
B1909183838093N11203523WA0253002627
B1909193838093N11203520WA0253002627
B1909203838093N11203517WA0252902626
B1909213838092N11203514WA0252902626
B1909223838092N11203512WA0252802625
B1909233838092N11203509WA0252702624
B1909243838091N11203506WA0252702624
B1909253838091N11203502WA0252602623
B1909263838090N11203499WA0252502623
B1909273838089N11203495WA0252502622
B1909283838089N11203492WA0252402621
B1909293838088N11203488WA0252402620
B1909303838087N11203484WA0252302620
B1909313838086N11203481WA0252302619
B1909323838085N11203477WA0252202619
B1909333838084N11203474WA0252102618
B1909343838083N11203470WA0252102618
B1909353838082N11203467WA0252002617
B1909363838081N11203464WA0251902617
B1909373838080N11203461WA0251902616
B1909383838079N11203458WA0251802616
B1909393838078N11203455WA0251802615
B1909403838077N11203452WA0251702614
B1909413838076N11203449WA0251702614
B1909423838075N11203446WA0251602613
B1909433838075N11203443WA0251502613
B1909443838074N11203440WA0251502612
B1909453838073N11203437WA0251402612
B1909463838073N11203434WA0251402612
B1909473838072N11203431WA0251302611
B1909483838071N11203428WA0251302611
B1909493838071N11203426WA0251302611
B1909503838070N11203424WA0251202611
B1909513838070N11203422WA0251202610
B1909523838069N11203419WA0251102610
B1909533838069N11203417WA0251102610
B1909543838068N11203414WA0251102609
B1909553838067N11203410WA0251102609
B1909563838067N11203407WA0251002608
B1909573838066N11203404WA0251002608
B1909583838066N11203401WA0251002607
B1909593838065N11203399WA0250902607
B1910003838065N11203396WA0250902607
B1910013838065N11203393WA0250902606
B1910023838064N11203391WA0250802606
B1910033838064N11203389WA0250802606
B1910043838064N11203387WA0250802605
B1910053838064N11203385WA0250702605
B1910063838063N11203383WA0250702604
B1910073838063N11203381WA0250702604
B1910083838063N11203379WA0250602603
B1910093838063N11203377WA0250602603
B1910103838063N11203375WA0250602602
B1910113838062N11203373WA0250502602
B1910123838062N11203371WA0250502601
B1910133838061N11203369WA0250402601
B1910143838061N11203368WA0250402600
B1910153838060N11203367WA0250402599
B1910163838060N11203366WA0250302598
B1910173838060N11203365WA0250302598
B1910183838060N11203364WA0250202597
B1910193838060N11203362WA0250202596
B1910203838061N11203360WA0250202596
B1910213838061N11203359WA0250102595
B1910223838062N11203358WA0250102595
B1910233838064N11203358WA0250102595
B1910243838065N11203358WA0250002595
B1910253838067N11203359WA0250002594
B1910263838069N11203361WA0250002594
B1910273838070N11203363WA0249902594
B1910283838071N11203365WA0249902593
B1910293838072N11203367WA0249802593
B1910303838073N11203370WA0249802592
B1910313838074N11203372WA0249802592
B1910323838075N11203375WA0249702591
B1910333838076N11203377WA0249702591
B1910343838077N11203380WA0249602590
B1910353838079N11203383WA0249602589
B1910363838080N11203385WA0249502589
B1910373838082N11203388WA0249502588
B1910383838083N11203390WA0249402588
B1910393838084N11203392WA0249402588
B1910403838086N11203395WA0249302587
B1910413838087N11203397WA0249302587
B1910423838088N11203399WA0249302586
B1910433838090N11203402WA0249202586
B1910443838092N11203404WA0249202585
B1910453838093N11203407WA0249102585
B1910463838095N11203409WA0249102585
B1910473838096N11203412WA0249002584
B1910483838098N11203414WA0249002584
B1910493838100N11203416WA0248902583
B1910503838101N11203418WA0248902583
B1910513838103N11203420WA0248802583
B1910523838105N11203422WA0248802582
B1910533838107N11203424WA0248702582
B1910543838109N11203426WA0248702581
B1910553838111N11203428WA0248602580
B1910563838112N11203430WA0248602580
B1910573838114N11203432WA0248502579
B1910583838117N11203434WA0248502579
B1910593838119N11203436WA0248402578
B1911003838121N11203438WA0248402577
B1911013838123N11203440WA0248402577
B1911023838126N11203442WA0248302576
B1911033838128N11203443WA0248202576
B1911043838130N11203445WA0248202575
B1911053838132N11203447WA0248102574
B1911063838135N11203449WA0248102574
B1911073838137N11203451WA0248002573
B1911083838139N11203453WA0248002573
B1911093838142N11203455WA0247902572
B1911103838144N11203457WA0247802572
B1911113838146N11203459WA0247802571
B1911123838149N11203461WA0247702570
B1911133838151N11203463WA0247702569
B1911143838153N11203465WA0247602569
B1911153838155N11203467WA0247602568
B1911163838158N11203469WA0247502568
B1911173838160N11203472WA0247502567
B1911183838162N11203474WA0247402567
B1911193838163N11203476WA0247302566
B1911203838165N11203479WA0247302565
B1911213838166N11203481WA0247202565
B1911223838168N11203484WA0247202565
B1911233838169N11203486WA0247102564
B1911243838170N11203487WA0247102564
B1911253838172N11203489WA0247002563
B1911263838173N11203489WA0247002563
B1911273838175N11203489WA0246902562
B1911283838177N11203488WA0246902562
B1911293838178N11203486WA0246902561
B1911303838179N11203483WA0246802561
B1911313838178N11203481WA0246802561
B1911323838178N11203478WA0246702560
B1911333838177N11203475WA0246702560
B1911343838176N11203471WA0246602559
B1911353838175N11203467WA0246602558
B1911363838174N11203463WA0246502558
B1911373838173N11203459WA0246502558
B1911383838173N11203455WA0246402558
B1911393838172N11203452WA0246402558
B1911403838171N11203448WA0246402557
B1911413838170N11203445WA0246302557
B1911423838170N11203441WA0246302557
B1911433838169N11203438WA0246202556
B1911443838168N11203434WA0246202556
B1911453838168N11203430WA0246202556
B1911463838167N11203426WA0246102556
B1911473838166N11203423WA0246102555
B1911483838166N11203419WA0246102555
B1911493838165N11203415WA0246002555
B1911503838165N11203411WA0246002555
B1911513838165N11203407WA0246002554
B1911523838165N11203403WA0245902553
B1911533838165N11203399WA0245902553
B1911543838165N11203395WA0245802552
B1911553838166N11203390WA0245802552
B1911563838166N11203386WA0245702551
B1911573838166N11203381WA0245702550
B1911583838166N11203376WA0245602549
B1911593838166N11203371WA0245602549
B1912003838165N11203366WA0245502548
B1912013838164N11203361WA0245502548
B1912023838163N11203356WA0245402547
B1912033838162N11203351WA0245302546
B1912043838161N11203346WA0245202546
B1912053838161N11203341WA0245202544
B1912063838161N11203335WA0245102543
B1912073838163N11203329WA0245002543
B1912083838164N11203324WA0244902542
B1912093838166N11203319WA0244902542
B1912103838168N11203314WA0244802542
B1912113838171N11203310WA0244702542
B1912123838174N11203306WA0244702542
B1912133838176N11203302WA0244602541
B1912143838179N11203298WA0244502540
B1912153838182N11203294WA0244502540
B1912163838185N11203290WA0244402539
B1912173838187N11203286WA0244402539
B1912183838189N11203282WA0244302538
B1912193838191N11203277WA0244302538
B1912203838192N11203272WA0244202537
B1912213838194N11203266WA0244202536
B1912223838195N11203261WA0244102536
B1912233838196N11203256WA0244102535
B1912243838196N11203251WA0244102535
B1912253838196N11203246WA0244002535
B1912263838195N11203241WA0244002535
B1912273838194N11203236WA0244002534
B1912283838192N11203232WA0243902534
B1912293838190N11203228WA0243902534
B1912303838187N11203225WA0243902534
B1912313838184N11203222WA0243802534
B1912323838181N11203219WA0243802534
B1912333838177N11203217WA0243802534
B1912343838173N11203216WA0243802534
B1912353838169N11203215WA0243802534
B1912363838166N11203213WA0243702535
B1912373838162N11203212WA0243702535
B1912383838159N11203211WA0243702535
B1912393838156N11203210WA0243702534
B1912403838153N11203209WA0243702534
B1912413838150N11203208WA0243702534
B1912423838147N11203206WA0243702533
B1912433838145N11203203WA0243602532
B1912443838144N11203199WA0243602532
B1912453838144N11203195WA0243602529
B1912463838145N11203191WA0243502528
B1912473838147N11203187WA0243502527
B1912483838149N11203184WA0243402526
B1912493838152N11203180WA0243402525
B1912503838155N11203177WA0243402524
B1912513838159N11203173WA0243302524
B1912523838162N11203170WA0243302523
B1912533838166N11203166WA0243202522
B1912543838169N11203163WA0243202522
B1912553838173N11203160WA0243102521
B1912563838176N11203156WA0243102520
B1912573838180N11203153WA0243002520
B1912583838183N11203149WA0242902519
B1912593838187N11203145WA0242902519
B1913003838190N11203141WA0242802519
B1913013838193N11203137WA0242802519
B1913023838195N11203132WA0242702518
B1913033838197N11203128WA0242702518
B1913043838199N11203123WA0242602517
B1913053838202N11203119WA0242602516
B1913063838205N11203114WA0242502515
B1913073838208N11203110WA0242502514
B1913083838212N11203105WA0242402513
B1913093838216N11203101WA0242402512
B1913103838220N11203096WA0242302511
B1913113838224N11203092WA0242202510
B1913123838227N11203088WA0242102509
B1913133838230N11203083WA0242002508
B1913143838232N11203079WA0241902507
B1913153838233N11203074WA0241902507
B1913163838233N11203069WA0241702506
B1913173838232N11203065WA0241702505
B1913183838232N11203060WA0241602505
B1913193838232N11203056WA0241502504
B1913203838232N11203053WA0241402503
B1913213838234N11203050WA0241402501
B1913223838237N11203048WA0241302500
B1913233838240N11203047WA0241202499
B1913243838244N11203045WA0241102498
B1913253838247N11203042WA0241102497
B1913263838249N11203038WA0241002495
B1913273838250N11203033WA0240902493
B1913283838252N11203028WA0240802492
B1913293838253N11203022WA0240702491
B1913303838254N11203017WA0240602490
B1913313838255N11203012WA0240502489
B1913323838257N11203007WA0240402489
B1913333838260N11203003WA0240402487
B1913343838264N11203001WA0240202486
B1913353838267N11202999WA0240202485
B1913363838271N11202997WA0240102484
B1913373838274N11202993WA0240002482
B1913383838277N11202989WA0239902482
B1913393838279N11202984WA0239802481
B1913403838281N11202980WA0239702480
B1913413838283N11202976WA0239602479
B1913423838287N11202974WA0239502478
B1913433838290N11202973WA0239502478
B1913443838294N11202973WA0239402479
B1913453838297N11202976WA0239302478
B1913463838299N11202980WA0239202477
B1913473838302N11202984WA0239102476
B1913483838303N11202989WA0239102476
B1913493838305N11202994WA0239002475
B1913503838306N11203000WA0238902474
B1913513838307N11203006WA0238802472
B1913523838308N11203013WA0238702470
B1913533838308N11203019WA0238702469
B1913543838309N11203026WA0238502468
B1913553838309N11203032WA0238502468
B1913563838309N11203038WA0238402467
B1913573838309N11203043WA0238302466
B1913583838309N11203048WA0238202465
B1913593838310N11203053WA0238102464
B1914003838311N11203057WA0238002463
B1914013838312N11203062WA0237902462
B1914023838315N11203066WA0237802461
B1914033838318N11203070WA0237702460
B1914043838322N11203074WA0237602458
B1914053838326N11203078WA0237502457
B1914063838330N11203082WA0237402456
B1914073838333N11203085WA0237302456
B1914083838337N11203089WA0237202455
B1914093838341N11203092WA0237102454
B1914103838344N11203095WA0237002454
B1914113838348N11203097WA0237002453
B1914123838352N11203100WA0236902452
B1914133838356N11203101WA0236802451
B1914143838360N11203103WA0236702450
B1914153838364N11203104WA0236602449
B1914163838369N11203105WA0236502448
B1914173838373N11203106WA0236402447
B1914183838378N11203107WA0236302446
B1914193838383N11203108WA0236202445
B1914203838388N11203109WA0236102444
B1914213838392N11203111WA0236002443
B1914223838397N11203112WA0235902442
B1914233838401N11203114WA0235902442
B1914243838406N11203115WA0235702441
B1914253838410N11203117WA0235702440
B1914263838414N11203118WA0235602439
B1914273838417N11203120WA0235502438
B1914283838419N11203123WA0235402437
B1914293838421N11203126WA0235302436
B1914303838422N11203130WA0235202435
B1914313838422N11203135WA0235102433
B1914323838422N11203140WA0235002433
B1914333838420N11203145WA0234902432
B1914343838418N11203150WA0234802432
B1914353838415N11203153WA0234802432
B1914363838411N11203155WA0234702432
B1914373838407N11203155WA0234602432
B1914383838403N11203155WA0234602432
B1914393838399N11203153WA0234502432
B1914403838395N11203151WA0234502431
B1914413838391N11203149WA0234402431
B1914423838387N11203147WA0234402431
B1914433838383N11203145WA0234302430
B1914443838379N11203142WA0234302429
B1914453838375N11203140WA0234202429
B1914463838371N11203139WA0234102428
B1914473838367N11203137WA0234102429
B1914483838364N11203136WA0234102429
B1914493838361N11203136WA0234002429
B1914503838359N11203136WA0234002428
B1914513838357N11203137WA0234002427
B1914523838356N11203139WA0233902425
B1914533838356N11203142WA0233902424
B1914543838357N11203144WA0233902424
B1914553838359N11203147WA0233802422
B1914563838361N11203150WA0233802420
B1914573838363N11203155WA0233802418
B1914583838364N11203160WA0233702417
B1914593838366N11203166WA0233702416
B1915003838368N11203173WA0233602415
B1915013838370N11203179WA0233602414
B1915023838373N11203185WA0233502413
B1915033838376N11203191WA0233402412
B1915043838380N11203196WA0233302411
B1915053838384N11203202WA0233202410
B1915063838388N11203207WA0233102409
B1915073838392N11203212WA0233002408
B1915083838396N11203217WA0232902408
B1915093838400N11203222WA0232802407
B1915103838403N11203226WA0232702406
B1915113838406N11203230WA0232602405
B1915123838410N11203233WA0232502403
B1915133838414N11203236WA0232402401
B1915143838419N11203238WA0232302399
B1915153838423N11203242WA0232202397
B1915163838427N11203246WA0232002395
B1915173838430N11203251WA0231902393
B1915183838434N11203257WA0231702391
B1915193838438N11203263WA0231602389
B1915203838442N11203269WA0231402388
B1915213838445N11203275WA0231302386
B1915223838450N11203280WA0231102385
B1915233838454N11203285WA0231002384
B1915243838460N11203289WA0230802381
B1915253838465N11203292WA0230702379
B1915263838472N11203295WA0230502377
B1915273838478N11203298WA0230402374
B1915283838484N11203301WA0230202372
B1915293838490N11203305WA0230102370
B1915303838496N11203308WA0229902368
B1915313838502N11203312WA0229802367
B1915323838508N11203316WA0229602365
B1915333838514N11203320WA0229402363
B1915343838520N11203324WA0229202361
B1915353838525N11203327WA0229102360
B1915363838530N11203330WA0228902358
B1915373838534N11203333WA0228802357
B1915383838538N11203337WA0228602355
B1915393838542N11203342WA0228402354
B1915403838546N11203346WA0228302352
B1915413838551N11203351WA0228102351
B1915423838555N11203354WA0228002350
B1915433838560N11203358WA0227802348
B1915443838566N11203361WA0227702346
B1915453838571N11203365WA0227602344
B1915463838577N11203368WA0227402344
B1915473838582N11203372WA0227302342
B1915483838587N11203375WA0227102341
B1915493838593N11203379WA0227002339
B1915503838598N11203382WA0226802337
B1915513838604N11203385WA0226702335
B1915523838610N11203388WA0226502333
B1915533838615N11203391WA0226402331
B1915543838621N11203394WA0226202330
B1915553838627N11203397WA0226002329
B1915563838632N11203399WA0225902328
B1915573838638N11203401WA0225702326
B1915583838643N11203403WA0225602325
B1915593838648N11203404WA0225502324
B1916003838652N11203407WA0225302323
B1916013838657N11203409WA0225202321
B1916023838662N11203413WA0225002320
B1916033838667N11203416WA0224902318
B1916043838671N11203420WA0224702317
B1916053838674N11203423WA0224602317
B1916063838678N11203426WA0224502316
B1916073838682N11203428WA0224402314
B1916083838685N11203431WA0224202313
B1916093838689N11203434WA0224102312
B1916103838693N11203437WA0224002311
B1916113838697N11203439WA0223902310
B1916123838700N11203441WA0223802309
B1916133838704N11203444WA0223702308
B1916143838707N11203446WA0223602307
B1916153838711N11203448WA0223502306
B1916163838714N11203450WA0223302306
B1916173838718N11203452WA0223302305
B1916183838721N11203454WA0223102304
B1916193838724N11203455WA0223102304
B1916203838727N11203457WA0223002303
B1916213838729N11203458WA0222902303
B1916223838732N11203459WA0222802302
B1916233838735N11203461WA0222702301
B1916243838737N11203462WA0222602300
B1916253838740N11203463WA0222602300
B1916263838742N11203464WA0222502299
B1916273838745N11203465WA0222402298
B1916283838747N11203467WA0222302298
B1916293838750N11203468WA0222302297
B1916303838752N11203470WA0222202296
B1916313838755N11203473WA0222102296
B1916323838757N11203475WA0222102295
B1916333838759N11203478WA0222002294
B1916343838761N11203481WA0221902294
B1916353838764N11203484WA0221902293
B1916363838766N11203487WA0221802292
B1916373838769N11203491WA0221702291
B1916383838771N11203494WA0221702290
B1916393838773N11203498WA0221602290
B1916403838775N11203501WA0221502289
B1916413838777N11203505WA0221402288
B1916423838779N11203508WA0221302288
B1916433838781N11203510WA0221302287
B1916443838783N11203513WA0221202287
B1916453838786N11203515WA0221102286
B1916463838788N11203518WA0221002286
B1916473838791N11203520WA0221002285
B1916483838794N11203522WA0220902284
B1916493838797N11203524WA0220902283
B1916503838801N11203526WA0220802283
B1916513838804N11203527WA0220702282
B1916523838808N11203527WA0220602281
B1916533838812N11203528WA0220602280
B1916543838816N11203528WA0220502279
B1916553838820N11203528WA0220402278
B1916563838824N11203529WA0220302277
B1916573838828N11203529WA0220302276
B1916583838832N11203529WA0220202275
B1916593838837N11203530WA0220102274
B1917003838841N11203531WA0220002272
B1917013838846N11203532WA0220002271
B1917023838850N11203533WA0219902271
B1917033838854N11203534WA0219802270
B1917043838859N11203535WA0219702269
B1917053838863N11203535WA0219602269
B1917063838866N11203533WA0219602268
B1917073838868N11203531WA0219502268
B1917083838870N11203527WA0219402267
B1917093838872N11203523WA0219302266
B1917103838873N11203519WA0219302266
B1917113838875N11203514WA0219202265
B1917123838877N11203510WA0219102264
B1917133838878N11203505WA0219002264
B1917143838880N11203501WA0219002263
B1917153838882N11203496WA0218902262
B1917163838884N11203492WA0218802262
B1917173838885N11203487WA0218802261
B1917183838887N11203483WA0218702261
B1917193838889N11203478WA0218702260
B1917203838891N11203474WA0218602260
B1917213838893N11203469WA0218602259
B1917223838895N11203465WA0218502258
B1917233838898N11203460WA0218402258
B1917243838901N11203456WA0218402257
B1917253838904N11203452WA0218302256
B1917263838908N11203449WA0218202256
B1917273838912N11203447WA0218202255
B1917283838917N11203446WA0218102253
B1917293838922N11203446WA0218002252
B1917303838926N11203446WA0217902251
B1917313838931N11203448WA0217902250
B1917323838935N11203450WA0217802249
B1917333838939N11203452WA0217702248
B1917343838943N11203454WA0217602247
B1917353838947N11203455WA0217602247
B1917363838950N11203454WA0217502246
B1917373838954N11203452WA0217402246
B1917383838957N11203449WA0217302245
B1917393838960N11203445WA0217302244
B1917403838962N11203440WA0217202244
B1917413838963N11203435WA0217102243
B1917423838963N11203430WA0217002242
B1917433838962N11203425WA0216902242
B1917443838961N11203420WA0216802241
B1917453838958N11203416WA0216802240
B1917463838956N11203412WA0216702240
B1917473838953N11203408WA0216602239
B1917483838950N11203404WA0216502239
B1917493838947N11203400WA0216502239
B1917503838944N11203396WA0216402238
B1917513838942N11203393WA0216402238
B1917523838941N11203389WA0216302238
B1917533838940N11203386WA0216202238
B1917543838941N11203382WA0216102237
B1917553838944N11203380WA0216102237
B1917563838947N11203379WA0216002236
B1917573838950N11203380WA0216002236
B1917583838952N11203382WA0215902236
B1917593838954N11203384WA0215902235
B1918003838957N11203385WA0215802235
B1918013838960N11203385WA0215802234
B1918023838963N11203385WA0215702234
B1918033838966N11203383WA0215702234
B1918043838968N11203381WA0215602234
B1918053838971N11203379WA0215602234
B1918063838973N11203376WA0215502233
B1918073838975N11203374WA0215502233
B1918083838978N11203373WA0215502232
B1918093838981N11203373WA0215402232
B1918103838985N11203373WA0215402230
B1918113838988N11203374WA0215302230
B1918123838991N11203376WA0215302229
B1918133838994N11203377WA0215202228
B1918143838997N11203379WA0215202227
B1918153839000N11203380WA0215102226
B1918163839002N11203381WA0215002225
B1918173839005N11203381WA0215002224
B1918183839008N11203381WA0214902224
B1918193839011N11203380WA0214802223
B1918203839014N11203380WA0214802223
B1918213839016N11203379WA0214702223
B1918223839018N11203379WA0214602223
B1918233839020N11203378WA0214602222
B1918243839022N11203378WA0214502221
B1918253839024N11203379WA0214502221
B1918263839026N11203381WA0214402220
B1918273839028N11203383WA0214402219
B1918283839030N11203387WA0214302219
B1918293839032N11203391WA0214302217
B1918303839033N11203395WA0214202217
B1918313839034N11203400WA0214202215
B1918323839036N11203406WA0214102214
B1918333839037N11203411WA0214002213
B1918343839039N11203416WA0213902212
B1918353839041N11203421WA0213902210
B1918363839043N11203425WA0213802209
B1918373839045N11203429WA0213702207
B1918383839047N11203432WA0213602206
B1918393839051N11203434WA0213502204
B1918403839054N11203436WA0213402203
B1918413839058N11203436WA0213302202
B1918423839062N11203437WA0213202200
B1918433839066N11203438WA0213102198
B1918443839070N11203441WA0213002196
B1918453839074N11203443WA0212902195
B1918463839079N11203446WA0212702193
B1918473839083N11203449WA0212602191
B1918483839088N11203452WA0212502189
B1918493839092N11203455WA0212302187
B1918503839096N11203457WA0212202185
B1918513839100N11203460WA0212102183
B1918523839103N11203463WA0211902182
B1918533839106N11203465WA0211802180
B1918543839110N11203468WA0211602179
B1918553839114N11203470WA0211502177
B1918563839117N11203472WA0211302176
B1918573839121N11203475WA0211202173
B1918583839125N11203477WA0211002172
B1918593839128N11203478WA0210902170
B1919003839131N11203480WA0210802169
B1919013839135N11203482WA0210602167
B1919023839139N11203484WA0210502166
B1919033839143N11203485WA0210402164
B1919043839148N11203487WA0210202162
B1919053839152N11203488WA0210102161
B1919063839157N11203489WA0209902160
B1919073839161N11203491WA0209802158
B1919083839166N11203493WA0209702157
B1919093839170N11203494WA0209502156
B1919103839175N11203496WA0209402154
B1919113839179N11203497WA0209302153
B1919123839183N11203498WA0209102152
B1919133839188N11203499WA0209002150
B1919143839192N11203500WA0208802149
B1919153839196N11203500WA0208702148
B1919163839200N11203501WA0208602147
B1919173839204N11203502WA0208502146
B1919183839207N11203504WA0208302144
B1919193839210N11203505WA0208202143
B1919203839214N11203507WA0208102141
B1919213839217N11203508WA0208002139
B1919223839221N11203509WA0207802138
B1919233839225N11203509WA0207702136
B1919243839229N11203509WA0207602135
B1919253839233N11203509WA0207502135
B1919263839236N11203510WA0207302134
B1919273839240N11203510WA0207202132
B1919283839245N11203511WA0207102131
B1919293839249N11203512WA0207002130
B1919303839252N11203513WA0206902130
B1919313839256N11203514WA0206802129
B1919323839259N11203515WA0206702127
B1919333839263N11203516WA0206602126
B1919343839266N11203518WA0206502125
B1919353839269N11203519WA0206402125
B1919363839273N11203520WA0206302124
B1919373839276N11203521WA0206202123
B1919383839280N11203522WA0206102122
B1919393839283N11203523WA0206002121
B1919403839286N11203523WA0205902121
B1919413839288N11203523WA0205802120
B1919423839290N11203523WA0205702119
B1919433839293N11203522WA0205602119
B1919443839295N11203521WA0205502118
B1919453839297N11203520WA0205502117
B1919463839299N11203519WA0205402117
B1919473839301N11203518WA0205302116
B1919483839304N11203517WA0205202115
B1919493839306N11203516WA0205202115
B1919503839308N11203515WA0205102114
B1919513839310N11203514WA0205002114
B1919523839313N11203514WA0205002113
B1919533839315N11203514WA0204902113
B1919543839317N11203516WA0204902112
B1919553839318N11203518WA0204802111
B1919563839320N11203521WA0204702111
B1919573839321N11203524WA0204702110
B1919583839323N11203528WA0204602109
B1919593839325N11203532WA0204602108
B1920003839327N11203537WA0204502107
B1920013839330N11203541WA0204402105
B1920023839332N11203547WA0204302104
B1920033839335N11203552WA0204302102
B1920043839338N11203557WA0204202101
B1920053839342N11203562WA0204102100
B1920063839346N11203566WA0204002099
B1920073839350N11203569WA0203902098
B1920083839354N11203571WA0203802097
B1920093839358N11203573WA0203702096
B1920103839361N11203574WA0203602096
B1920113839364N11203575WA0203502095
B1920123839367N11203575WA0203402094
B1920133839370N11203575WA0203402094
B1920143839373N11203575WA0203302093
B1920153839376N11203575WA0203202093
B1920163839379N11203575WA0203102092
B1920173839381N11203575WA0203102092
B1920183839384N11203575WA0203002092
B1920193839387N11203575WA0202902091
B1920203839390N11203575WA0202902091
B1920213839393N11203576WA0202802090
B1920223839396N11203577WA0202802089
B1920233839399N11203578WA0202702088
B1920243839403N11203579WA0202602088
B1920253839406N11203581WA0202602087
B1920263839409N11203582WA0202502087
B1920273839412N11203585WA0202502086
B1920283839415N11203587WA0202402086
B1920293839417N11203589WA0202402085
B1920303839420N11203592WA0202302085
B1920313839423N11203594WA0202302084
B1920323839425N11203597WA0202202084
B1920333839427N11203600WA0202202083
B1920343839430N11203603WA0202102083
B1920353839432N11203606WA0202102082
B1920363839434N11203609WA0202002082
B1920373839436N11203612WA0202002082
B1920383839437N11203614WA0201902082
B1920393839439N11203617WA0201902081
B1920403839442N11203619WA0201802081
B1920413839444N11203621WA0201802081
B1920423839447N11203623WA0201702080
B1920433839450N11203625WA0201702079
B1920443839453N11203627WA0201602078
B1920453839457N11203629WA0201602077
B1920463839461N11203631WA0201502075
B1920473839465N11203633WA0201402073
B1920483839469N11203634WA0201402072
B1920493839472N11203634WA0201302071
B1920503839476N11203631WA0201202069
B1920513839479N11203629WA0201102068
B1920523839482N11203625WA0201002068
B1920533839485N11203621WA0200902067
B1920543839487N11203618WA0200802067
B1920553839490N11203617WA0200702068
B1920563839493N11203616WA0200602068
B1920573839495N11203617WA0200602068
B1920583839497N11203618WA0200502068
B1920593839499N11203619WA0200502068
B1921003839502N11203621WA0200402067
B1921013839504N11203623WA0200402066
B1921023839506N11203626WA0200302065
B1921033839508N11203629WA0200302064
B1921043839511N11203632WA0200202064
B1921053839513N11203635WA0200202063
B1921063839516N11203638WA0200102063
B1921073839518N11203641WA0200102062
B1921083839521N11203643WA0200002061
B1921093839524N11203645WA0200002060
B1921103839527N11203647WA0199902059
B1921113839530N11203649WA0199802057
B1921123839533N11203650WA0199702056
B1921133839536N11203652WA0199702055
B1921143839540N11203653WA0199602054
B1921153839543N11203654WA0199502053
B1921163839546N11203654WA0199402052
B1921173839550N11203654WA0199302051
B1921183839553N11203654WA0199202051
B1921193839556N11203654WA0199202050
B1921203839560N11203654WA0199102050
B1921213839562N11203655WA0199002049
B1921223839565N11203656WA0199002049
B1921233839567N11203659WA0198902048
B1921243839569N11203661WA0198802047
B1921253839571N11203664WA0198802046
B1921263839573N11203667WA0198702045
B1921273839575N11203669WA0198602044
B1921283839578N11203672WA0198502043
B1921293839581N11203675WA0198502041
B1921303839585N11203678WA0198302040
B1921313839588N11203681WA0198302039
B1921323839592N11203683WA0198202037
B1921333839595N11203685WA0198102036
B1921343839599N11203686WA0198002035
B1921353839602N11203686WA0197902034
B1921363839605N11203685WA0197802034
B1921373839608N11203684WA0197702033
B1921383839611N11203683WA0197602033
B1921393839614N11203681WA0197502032
B1921403839617N11203679WA0197402032
B1921413839619N11203677WA0197402032
B1921423839621N11203675WA0197302032
B1921433839624N11203673WA0197202032
B1921443839626N11203671WA0197202032
B1921453839628N11203670WA0197102031
B1921463839630N11203668WA0197102031
B1921473839632N11203668WA0197002031
B1921483839634N11203667WA0197002031
B1921493839636N11203667WA0196902030
B1921503839639N11203667WA0196902029
B1921513839642N11203668WA0196802029
B1921523839645N11203670WA0196802028
B1921533839647N11203671WA0196702028
B1921543839650N11203673WA0196702028
B1921553839652N11203675WA0196702027
B1921563839655N11203677WA0196602027
B1921573839658N11203679WA0196602026
B1921583839660N11203682WA0196502025
B1921593839663N11203685WA0196502024
B1922003839666N11203688WA0196402024
B1922013839668N11203692WA0196402023
B1922023839671N11203696WA0196302022
B1922033839674N11203699WA0196302021
B1922043839677N11203703WA0196202019
B1922053839681N11203706WA0196102018
B1922063839685N11203709WA0196102018
B1922073839689N11203712WA0196002017
B1922083839692N11203716WA0195902016
B1922093839694N11203721WA0195902016
B1922103839695N11203726WA0195802015
B1922113839696N11203731WA0195702015
B1922123839697N11203737WA0195602014
B1922133839699N11203742WA0195602013
B1922143839700N11203747WA0195502012
B1922153839702N11203751WA0195402012
B1922163839704N11203756WA0195402011
B1922173839707N11203760WA0195302010
B1922183839709N11203764WA0195202009
B1922193839712N11203768WA0195202009
B1922203839714N11203772WA0195102009
B1922213839717N11203775WA0195002008
B1922223839720N11203779WA0194902008
B1922233839722N11203781WA0194902007
B1922243839725N11203784WA0194802007
B1922253839728N11203786WA0194702006
B1922263839731N11203789WA0194702004
B1922273839734N11203792WA0194602004
B1922283839737N11203795WA0194502003
B1922293839740N11203797WA0194502003
B1922303839743N11203800WA0194402002
B1922313839746N11203802WA0194302001
B1922323839750N11203803WA0194202001
B1922333839753N11203804WA0194202000
B1922343839757N11203804WA0194101999
B1922353839761N11203804WA0194101999
B1922363839764N11203803WA0194001998
B1922373839768N11203802WA0193901998
B1922383839771N11203802WA0193901998
B1922393839775N11203801WA0193801998
B1922403839778N11203800WA0193801997
B1922413839782N11203800WA0193701997
B1922423839786N11203799WA0193701996
B1922433839790N11203799WA0193601995
B1922443839794N11203798WA0193501995
B1922453839797N11203798WA0193501995
B1922463839801N11203797WA0193401995
B1922473839804N11203796WA0193401995
B1922483839807N11203795WA0193401994
B1922493839810N11203794WA0193301994
B1922503839814N11203793WA0193301993
B1922513839817N11203792WA0193301993
B1922523839821N11203790WA0193201993
B1922533839824N11203788WA0193201993
B1922543839827N11203787WA0193101993
B1922553839830N11203785WA0193101992
B1922563839833N11203783WA0193101991
B1922573839837N11203782WA0193101990
B1922583839840N11203782WA0193001990
B1922593839844N11203783WA0193001989
B1923003839847N11203786WA0192901988
B1923013839849N11203789WA0192901988
B1923023839849N11203793WA0192801987
B1923033839850N11203797WA0192801986
B1923043839849N11203801WA0192701986
B1923053839848N11203805WA0192701986
B1923063839847N11203809WA0192601984
B1923073839846N11203813WA0192601984
B1923083839845N11203817WA0192501983
B1923093839844N11203822WA0192501983
B1923103839844N11203826WA0192401982
B1923113839844N11203830WA0192401981
B1923123839845N11203835WA0192301981
B1923133839846N11203839WA0192301980
B1923143839847N11203844WA0192201979
B1923153839849N11203848WA0192201978
B1923163839850N11203853WA0192101978
B1923173839852N11203858WA0192001978
B1923183839854N11203863WA0192001977
B1923193839855N11203868WA0191901977
B1923203839857N11203873WA0191901977
B1923213839858N11203877WA0191801976
B1923223839859N11203882WA0191801976
B1923233839860N11203886WA0191701975
B1923243839861N11203891WA0191701975
B1923253839863N11203896WA0191601974
B1923263839864N11203900WA0191601974
B1923273839865N11203905WA0191501973
B1923283839867N11203909WA0191501973
B1923293839868N11203913WA0191401972
B1923303839870N11203916WA0191401972
B1923313839872N11203920WA0191301971
B1923323839875N11203923WA0191301971
B1923333839877N11203926WA0191201970
B1923343839880N11203929WA0191101970
B1923353839883N11203932WA0191101969
B1923363839886N11203935WA0191001968
B1923373839889N11203938WA0191001967
B1923383839892N11203941WA0190901967
B1923393839895N11203944WA0190901966
B1923403839898N11203947WA0190801965
B1923413839901N11203951WA0190801964
B1923423839904N11203954WA0190701963
B1923433839908N11203957WA0190601962
B1923443839911N11203960WA0190501962
B1923453839914N11203963WA0190501961
B1923463839918N11203966WA0190401960
B1923473839921N11203969WA0190401959
B1923483839925N11203971WA0190301958
B1923493839929N11203974WA0190201956
B1923503839933N11203977WA0190101956
B1923513839937N11203980WA0190101954
B1923523839942N11203983WA0190001953
B1923533839946N11203985WA0189901953
B1923543839949N11203988WA0189901952
B1923553839953N11203990WA0189801952
B1923563839957N11203993WA0189701951
B1923573839961N11203996WA0189701951
B1923583839964N11203999WA0189601950
B1923593839967N11204002WA0189501950
B1924003839969N11204006WA0189501949
B1924013839972N11204009WA0189401949
B1924023839975N11204014WA0189301948
B1924033839977N11204018WA0189301947
B1924043839979N11204022WA0189201947
B1924053839981N11204026WA0189201947
B1924063839982N11204030WA0189101947
B1924073839984N11204035WA0189101946
B1924083839986N11204039WA0189001946
B1924093839988N11204043WA0188901945
B1924103839989N11204046WA0188901944
B1924113839991N11204050WA0188801944
B1924123839992N11204054WA0188701943
B1924133839994N11204059WA0188701942
B1924143839995N11204063WA0188601942
B1924153839996N11204067WA0188601941
B1924163839997N11204072WA0188501941
B1924173839998N11204076WA0188401940
B1924183839999N11204081WA0188301939
B1924193840000N11204086WA0188301938
B1924203840001N11204090WA0188201938
B1924213840002N11204094WA0188101937
B1924223840002N11204098WA0188101936
B1924233840002N11204102WA0188001935
B1924243840002N11204105WA0187901935
B1924253840002N11204107WA0187901935
B1924263840002N11204109WA0187801935
B1924273840002N11204109WA0187701934
B1924283840002N11204109WA0187701934
B1924293840002N11204109WA0187701934
B1924303840002N11204109WA0187601934
B1924313840002N11204109WA0187601934
B1924323840002N11204109WA0187601934
