AXXX220284
HFDTE250926
HFPLTPILOTINCHARGE:Seth Romanenko
HFCIDCOMPETITIONID:220284
HFFTYFRTYPE:Flymaster task track export
HFGPSGPSDATUM:WGS-84
B1729043838057N11203634WA0254702665
B1729053838057N11203637WA0254702665
B1729063838057N11203639WA0254702665
B1729073838057N11203643WA0254702664
B1729083838057N11203646WA0254702663
B1729093838058N11203650WA0254602663
B1729103838060N11203654WA0254602662
B1729113838062N11203659WA0254602661
B1729123838064N11203664WA0254502661
B1729133838065N11203668WA0254502661
B1729143838066N11203673WA0254402661
B1729153838067N11203678WA0254402661
B1729163838069N11203683WA0254402660
B1729173838067N11203689WA0254302659
B1729183838066N11203694WA0254302658
B1729193838064N11203698WA0254202660
B1729203838063N11203702WA0254202662
B1729213838063N11203706WA0254202663
B1729223838063N11203710WA0254202663
B1729233838063N11203715WA0254202662
B1729243838063N11203720WA0254202661
B1729253838061N11203725WA0254102659
B1729263838059N11203731WA0254102656
B1729273838057N11203735WA0254002655
B1729283838054N11203739WA0253902654
B1729293838051N11203741WA0253802653
B1729303838048N11203742WA0253702653
B1729313838045N11203743WA0253702653
B1729323838042N11203743WA0253602651
B1729333838038N11203743WA0253502650
B1729343838034N11203743WA0253402647
B1729353838030N11203744WA0253302646
B1729363838026N11203743WA0253302646
B1729373838022N11203743WA0253102645
B1729383838019N11203744WA0253102645
B1729393838015N11203746WA0253002644
B1729403838012N11203749WA0252902643
B1729413838008N11203752WA0252802642
B1729423838005N11203754WA0252702642
B1729433838002N11203755WA0252602641
B1729443837999N11203756WA0252602641
B1729453837996N11203758WA0252502640
B1729463837993N11203760WA0252502639
B1729473837989N11203761WA0252402638
B1729483837984N11203760WA0252302636
B1729493837980N11203759WA0252202636
B1729503837976N11203758WA0252102636
B1729513837973N11203757WA0252102637
B1729523837970N11203757WA0252002637
B1729533837966N11203757WA0252002636
B1729543837962N11203757WA0252002635
B1729553837958N11203757WA0251902632
B1729563837954N11203756WA0251802630
B1729573837950N11203754WA0251702629
B1729583837946N11203752WA0251602628
B1729593837942N11203750WA0251502627
B1730003837939N11203749WA0251402627
B1730013837936N11203748WA0251302627
B1730023837933N11203747WA0251302627
B1730033837931N11203745WA0251202626
B1730043837928N11203743WA0251202625
B1730053837924N11203740WA0251102624
B1730063837920N11203737WA0251002623
B1730073837916N11203736WA0250902621
B1730083837911N11203736WA0250802619
B1730093837907N11203736WA0250702620
B1730103837903N11203736WA0250602621
B1730113837900N11203735WA0250602623
B1730123837897N11203733WA0250602625
B1730133837894N11203730WA0250602626
B1730143837891N11203727WA0250602625
B1730153837887N11203723WA0250602625
B1730163837883N11203719WA0250602624
B1730173837879N11203715WA0250602624
B1730183837875N11203711WA0250602624
B1730193837871N11203707WA0250602624
B1730203837867N11203703WA0250602624
B1730213837863N11203699WA0250602625
B1730223837860N11203694WA0250602624
B1730233837856N11203689WA0250602623
B1730243837852N11203685WA0250602622
B1730253837847N11203680WA0250502621
B1730263837842N11203676WA0250502620
B1730273837837N11203671WA0250402619
B1730283837833N11203667WA0250402618
B1730293837827N11203662WA0250302617
B1730303837823N11203657WA0250302618
B1730313837818N11203653WA0250302620
B1730323837814N11203651WA0250302623
B1730333837811N11203650WA0250302623
B1730343837807N11203649WA0250402623
B1730353837803N11203650WA0250402623
B1730363837798N11203651WA0250402621
B1730373837794N11203654WA0250402621
B1730383837791N11203660WA0250402621
B1730393837790N11203665WA0250402621
B1730403837788N11203671WA0250402622
B1730413837787N11203677WA0250402625
B1730423837786N11203681WA0250502628
B1730433837786N11203686WA0250602630
B1730443837786N11203691WA0250602630
B1730453837787N11203697WA0250702630
B1730463837787N11203703WA0250802630
B1730473837787N11203709WA0250802630
B1730483837788N11203714WA0250802631
B1730493837790N11203718WA0250902632
B1730503837793N11203721WA0250902633
B1730513837796N11203724WA0251002631
B1730523837801N11203727WA0251002630
B1730533837806N11203729WA0251002629
B1730543837812N11203729WA0251002628
B1730553837818N11203728WA0251002627
B1730563837825N11203727WA0251002627
B1730573837831N11203725WA0251002627
B1730583837838N11203723WA0250902626
B1730593837844N11203722WA0250902626
B1731003837851N11203721WA0250902625
B1731013837857N11203720WA0250802624
B1731023837863N11203720WA0250802624
B1731033837869N11203720WA0250802623
B1731043837875N11203721WA0250802623
B1731053837880N11203723WA0250702622
B1731063837886N11203725WA0250702622
B1731073837891N11203727WA0250702623
B1731083837896N11203730WA0250702623
B1731093837901N11203734WA0250702623
B1731103837906N11203737WA0250602624
B1731113837910N11203741WA0250702624
B1731123837914N11203745WA0250702625
B1731133837918N11203748WA0250702626
B1731143837921N11203752WA0250702625
B1731153837923N11203757WA0250702624
B1731163837924N11203761WA0250702623
B1731173837922N11203766WA0250602621
B1731183837919N11203769WA0250602619
B1731193837916N11203770WA0250502618
B1731203837912N11203768WA0250402617
B1731213837908N11203764WA0250302616
B1731223837904N11203759WA0250302615
B1731233837901N11203754WA0250202615
B1731243837897N11203749WA0250202614
B1731253837894N11203744WA0250102614
B1731263837889N11203740WA0250002614
B1731273837885N11203736WA0250002613
B1731283837880N11203732WA0249902615
B1731293837876N11203727WA0249902616
B1731303837872N11203723WA0249902619
B1731313837869N11203720WA0249902622
B1731323837865N11203717WA0250002625
B1731333837862N11203716WA0250102627
B1731343837858N11203715WA0250202626
B1731353837855N11203714WA0250302627
B1731363837852N11203714WA0250302627
B1731373837849N11203716WA0250402627
B1731383837846N11203718WA0250502627
B1731393837844N11203720WA0250502627
B1731403837841N11203722WA0250602628
B1731413837838N11203724WA0250602628
B1731423837834N11203725WA0250702628
B1731433837831N11203724WA0250702627
B1731443837827N11203722WA0250702625
B1731453837823N11203718WA0250702624
B1731463837819N11203712WA0250602623
B1731473837816N11203706WA0250602621
B1731483837812N11203699WA0250502618
B1731493837807N11203692WA0250502616
B1731503837802N11203685WA0250402615
B1731513837797N11203679WA0250302615
B1731523837792N11203672WA0250202613
B1731533837787N11203666WA0250102612
B1731543837782N11203659WA0250002611
B1731553837776N11203653WA0249902611
B1731563837771N11203647WA0249902610
B1731573837765N11203641WA0249802609
B1731583837759N11203635WA0249702608
B1731593837753N11203629WA0249602607
B1732003837747N11203624WA0249502607
B1732013837742N11203619WA0249502607
B1732023837737N11203614WA0249402607
B1732033837733N11203610WA0249302607
B1732043837728N11203606WA0249302606
B1732053837723N11203603WA0249202606
B1732063837718N11203601WA0249202606
B1732073837714N11203598WA0249102605
B1732083837709N11203596WA0249102604
B1732093837704N11203593WA0249002603
B1732103837699N11203590WA0248902602
B1732113837694N11203587WA0248902601
B1732123837688N11203584WA0248802599
B1732133837683N11203581WA0248702599
B1732143837678N11203577WA0248702599
B1732153837673N11203574WA0248602598
B1732163837667N11203571WA0248602598
B1732173837662N11203568WA0248502597
B1732183837657N11203566WA0248402596
B1732193837652N11203565WA0248402595
B1732203837647N11203566WA0248302594
B1732213837643N11203569WA0248202593
B1732223837641N11203573WA0248202592
B1732233837640N11203578WA0248102591
B1732243837641N11203584WA0248002590
B1732253837643N11203588WA0247902590
B1732263837647N11203592WA0247802590
B1732273837651N11203595WA0247802589
B1732283837655N11203598WA0247702588
B1732293837660N11203601WA0247602588
B1732303837666N11203604WA0247502587
B1732313837671N11203607WA0247402587
B1732323837676N11203609WA0247402587
B1732333837681N11203610WA0247302587
B1732343837687N11203611WA0247302586
B1732353837693N11203612WA0247202585
B1732363837700N11203612WA0247102585
B1732373837706N11203613WA0247102584
B1732383837713N11203614WA0247002584
B1732393837719N11203617WA0247002584
B1732403837724N11203620WA0246902585
B1732413837729N11203623WA0246902586
B1732423837734N11203626WA0246902586
B1732433837738N11203630WA0246902586
B1732443837743N11203633WA0246902586
B1732453837747N11203636WA0246902585
B1732463837752N11203640WA0246802583
B1732473837756N11203644WA0246802582
B1732483837761N11203649WA0246802581
B1732493837765N11203653WA0246702582
B1732503837769N11203658WA0246702581
B1732513837774N11203662WA0246602580
B1732523837778N11203667WA0246602579
B1732533837783N11203672WA0246502578
B1732543837788N11203677WA0246502578
B1732553837793N11203682WA0246502578
B1732563837798N11203687WA0246402579
B1732573837803N11203692WA0246402579
B1732583837807N11203697WA0246402580
B1732593837811N11203701WA0246402582
B1733003837814N11203706WA0246402584
B1733013837816N11203711WA0246502586
B1733023837817N11203715WA0246502588
B1733033837819N11203720WA0246602589
B1733043837820N11203725WA0246702591
B1733053837819N11203730WA0246802591
B1733063837819N11203735WA0246802590
B1733073837818N11203740WA0246902590
B1733083837816N11203744WA0246902590
B1733093837814N11203748WA0246902589
B1733103837811N11203749WA0247002588
B1733113837807N11203749WA0247002588
B1733123837803N11203746WA0247002587
B1733133837799N11203741WA0246902586
B1733143837796N11203735WA0246902586
B1733153837794N11203729WA0246902586
B1733163837792N11203722WA0246902585
B1733173837790N11203716WA0246802585
B1733183837787N11203709WA0246802584
B1733193837785N11203703WA0246802583
B1733203837782N11203696WA0246702582
B1733213837779N11203690WA0246702581
B1733223837776N11203683WA0246602580
B1733233837774N11203676WA0246602579
B1733243837771N11203669WA0246502578
B1733253837768N11203662WA0246402578
B1733263837766N11203655WA0246402578
B1733273837762N11203649WA0246402578
B1733283837759N11203643WA0246302578
B1733293837756N11203637WA0246302579
B1733303837752N11203632WA0246302578
B1733313837748N11203628WA0246302578
B1733323837745N11203623WA0246202577
B1733333837740N11203619WA0246202577
B1733343837736N11203616WA0246202577
B1733353837731N11203613WA0246202577
B1733363837727N11203611WA0246202577
B1733373837723N11203610WA0246102576
B1733383837718N11203608WA0246102575
B1733393837714N11203608WA0246102576
B1733403837709N11203608WA0246102577
B1733413837705N11203609WA0246102577
B1733423837701N11203611WA0246102577
B1733433837697N11203614WA0246002576
B1733443837693N11203617WA0246002575
B1733453837690N11203622WA0246002574
B1733463837688N11203627WA0245902573
B1733473837687N11203632WA0245902573
B1733483837688N11203636WA0245802572
B1733493837690N11203641WA0245802569
B1733503837693N11203646WA0245702567
B1733513837697N11203651WA0245702566
B1733523837701N11203656WA0245602565
B1733533837705N11203661WA0245502566
B1733543837708N11203666WA0245402566
B1733553837712N11203671WA0245402568
B1733563837716N11203674WA0245402570
B1733573837719N11203677WA0245402572
B1733583837721N11203680WA0245502573
B1733593837723N11203684WA0245502573
B1734003837725N11203689WA0245502572
B1734013837727N11203695WA0245502570
B1734023837730N11203700WA0245502569
B1734033837733N11203706WA0245502568
B1734043837737N11203713WA0245502566
B1734053837741N11203719WA0245402565
B1734063837746N11203724WA0245402564
B1734073837750N11203729WA0245302564
B1734083837755N11203734WA0245302564
B1734093837759N11203738WA0245202564
B1734103837763N11203742WA0245202564
B1734113837768N11203746WA0245102563
B1734123837774N11203749WA0245102563
B1734133837779N11203752WA0245102562
B1734143837785N11203756WA0245002562
B1734153837791N11203760WA0245002561
B1734163837797N11203763WA0244902561
B1734173837803N11203767WA0244902562
B1734183837809N11203770WA0244902562
B1734193837815N11203773WA0244902562
B1734203837821N11203776WA0244902563
B1734213837827N11203778WA0244802563
B1734223837833N11203781WA0244902564
B1734233837839N11203783WA0244902565
B1734243837845N11203785WA0244902565
B1734253837850N11203787WA0244902566
B1734263837856N11203789WA0244902566
B1734273837861N11203791WA0244902565
B1734283837866N11203795WA0244902564
B1734293837872N11203798WA0244902564
B1734303837876N11203803WA0244902563
B1734313837881N11203808WA0244902562
B1734323837885N11203814WA0244902562
B1734333837888N11203820WA0244802562
B1734343837892N11203827WA0244802563
B1734353837895N11203833WA0244802564
B1734363837898N11203838WA0244902565
B1734373837901N11203843WA0244902566
B1734383837904N11203848WA0244902566
B1734393837907N11203854WA0244902565
B1734403837910N11203861WA0245002564
B1734413837912N11203867WA0244902563
B1734423837915N11203874WA0244902561
B1734433837916N11203882WA0244902560
B1734443837917N11203889WA0244902559
B1734453837916N11203895WA0244802558
B1734463837913N11203901WA0244802557
B1734473837910N11203905WA0244702556
B1734483837906N11203907WA0244602555
B1734493837902N11203907WA0244602554
B1734503837897N11203904WA0244502552
B1734513837892N11203899WA0244402550
B1734523837888N11203893WA0244302548
B1734533837884N11203885WA0244102546
B1734543837880N11203878WA0244002544
B1734553837877N11203870WA0243902543
B1734563837874N11203862WA0243802542
B1734573837871N11203854WA0243602541
B1734583837867N11203846WA0243502540
B1734593837863N11203840WA0243402539
B1735003837859N11203834WA0243302538
B1735013837853N11203830WA0243202537
B1735023837848N11203828WA0243102537
B1735033837843N11203830WA0243002536
B1735043837839N11203835WA0242902535
B1735053837837N11203841WA0242802533
B1735063837837N11203849WA0242702531
B1735073837839N11203858WA0242502529
B1735083837843N11203865WA0242402528
B1735093837848N11203871WA0242302527
B1735103837854N11203877WA0242202527
B1735113837859N11203881WA0242202527
B1735123837865N11203886WA0242002525
B1735133837871N11203890WA0241902524
B1735143837877N11203895WA0241902523
B1735153837883N11203900WA0241702521
B1735163837889N11203906WA0241702520
B1735173837893N11203912WA0241502519
B1735183837897N11203918WA0241402518
B1735193837900N11203925WA0241402518
B1735203837903N11203931WA0241302518
B1735213837906N11203938WA0241202519
B1735223837910N11203945WA0241102519
B1735233837913N11203951WA0241102521
B1735243837918N11203955WA0241102523
B1735253837922N11203960WA0241102524
B1735263837926N11203964WA0241102525
B1735273837931N11203969WA0241102525
B1735283837935N11203974WA0241202525
B1735293837939N11203981WA0241202525
B1735303837943N11203988WA0241202526
B1735313837945N11203996WA0241202526
B1735323837945N11204002WA0241202528
B1735333837945N11204008WA0241302530
B1735343837942N11204011WA0241402531
B1735353837939N11204011WA0241402530
B1735363837935N11204007WA0241502528
B1735373837932N11204000WA0241402526
B1735383837931N11203992WA0241402524
B1735393837932N11203983WA0241302523
B1735403837934N11203975WA0241302523
B1735413837937N11203967WA0241202522
B1735423837942N11203959WA0241202523
B1735433837947N11203952WA0241102524
B1735443837953N11203947WA0241102525
B1735453837959N11203943WA0241202527
B1735463837966N11203941WA0241202528
B1735473837973N11203940WA0241202528
B1735483837980N11203941WA0241202528
B1735493837986N11203943WA0241202528
B1735503837992N11203946WA0241202528
B1735513837998N11203949WA0241302530
B1735523838004N11203952WA0241302532
B1735533838010N11203953WA0241402534
B1735543838015N11203955WA0241502535
B1735553838020N11203958WA0241602536
B1735563838024N11203961WA0241602537
B1735573838027N11203965WA0241702537
B1735583838029N11203969WA0241802537
B1735593838029N11203973WA0241802537
B1736003838027N11203977WA0241902538
B1736013838024N11203978WA0241902538
B1736023838021N11203979WA0242002537
B1736033838017N11203978WA0242002537
B1736043838013N11203977WA0242002538
B1736053838009N11203975WA0242102539
B1736063838006N11203972WA0242102539
B1736073838003N11203967WA0242102539
B1736083838002N11203961WA0242202538
B1736093838000N11203953WA0242202536
B1736103838000N11203945WA0242102535
B1736113838002N11203937WA0242102535
B1736123838005N11203928WA0242102534
B1736133838008N11203920WA0242102534
B1736143838012N11203913WA0242002535
B1736153838016N11203906WA0242102536
B1736163838020N11203899WA0242102537
B1736173838024N11203892WA0242102537
B1736183838028N11203886WA0242102538
B1736193838033N11203880WA0242102538
B1736203838038N11203875WA0242102539
B1736213838044N11203872WA0242202540
B1736223838050N11203871WA0242202541
B1736233838057N11203872WA0242202540
B1736243838062N11203875WA0242202539
B1736253838067N11203879WA0242202538
B1736263838069N11203885WA0242202537
B1736273838071N11203889WA0242202538
B1736283838070N11203894WA0242202539
B1736293838068N11203897WA0242302539
B1736303838066N11203899WA0242302539
B1736313838063N11203902WA0242302539
B1736323838060N11203906WA0242302539
B1736333838058N11203910WA0242302539
B1736343838057N11203914WA0242302540
B1736353838057N11203919WA0242302541
B1736363838058N11203923WA0242402541
B1736373838060N11203928WA0242402540
B1736383838061N11203933WA0242402538
B1736393838062N11203938WA0242402537
B1736403838063N11203944WA0242302535
B1736413838062N11203950WA0242302534
B1736423838061N11203955WA0242202532
B1736433838058N11203960WA0242102530
B1736443838056N11203963WA0242102530
B1736453838052N11203965WA0242002529
B1736463838048N11203966WA0241902529
B1736473838043N11203967WA0241902527
B1736483838038N11203966WA0241802525
B1736493838034N11203965WA0241702524
B1736503838029N11203963WA0241602523
B1736513838025N11203960WA0241502522
B1736523838020N11203956WA0241402521
B1736533838016N11203951WA0241302519
B1736543838012N11203945WA0241202517
B1736553838008N11203939WA0241202516
B1736563838005N11203933WA0241002515
B1736573838001N11203928WA0240902515
B1736583837998N11203923WA0240902516
B1736593837994N11203919WA0240802515
B1737003837991N11203916WA0240702514
B1737013837987N11203913WA0240602513
B1737023837984N11203913WA0240602511
B1737033837980N11203913WA0240502510
B1737043837976N11203914WA0240402509
B1737053837973N11203917WA0240302508
B1737063837970N11203921WA0240202507
B1737073837969N11203926WA0240102508
B1737083837968N11203931WA0240102508
B1737093837968N11203936WA0240002507
B1737103837969N11203943WA0240002506
B1737113837971N11203949WA0239902505
B1737123837973N11203955WA0239802504
B1737133837976N11203961WA0239702503
B1737143837980N11203966WA0239702501
B1737153837985N11203970WA0239502499
B1737163837991N11203972WA0239502497
B1737173837997N11203974WA0239302494
B1737183838005N11203974WA0239202492
B1737193838012N11203975WA0239102489
B1737203838020N11203975WA0238902486
B1737213838028N11203977WA0238702483
B1737223838036N11203980WA0238502480
B1737233838043N11203985WA0238302478
B1737243838049N11203991WA0238102477
B1737253838054N11203996WA0237902476
B1737263838058N11204002WA0237802476
B1737273838062N11204008WA0237702474
B1737283838065N11204015WA0237502472
B1737293838069N11204022WA0237302470
B1737303838072N11204029WA0237202467
B1737313838074N11204036WA0237002466
B1737323838076N11204043WA0236902464
B1737333838077N11204049WA0236702463
B1737343838078N11204056WA0236602461
B1737353838077N11204063WA0236402458
B1737363838076N11204070WA0236202455
B1737373838075N11204078WA0236002452
B1737383838072N11204085WA0235902450
B1737393838070N11204093WA0235702449
B1737403838068N11204101WA0235502447
B1737413838066N11204108WA0235402446
B1737423838063N11204115WA0235202446
B1737433838061N11204122WA0235102445
B1737443838059N11204128WA0234902444
B1737453838057N11204134WA0234802443
B1737463838055N11204140WA0234602441
B1737473838053N11204146WA0234502440
B1737483838051N11204152WA0234302438
B1737493838048N11204158WA0234102436
B1737503838045N11204163WA0234002434
B1737513838041N11204169WA0233902432
B1737523838038N11204175WA0233702429
B1737533838034N11204182WA0233502428
B1737543838033N11204189WA0233302427
B1737553838033N11204196WA0233202427
B1737563838035N11204203WA0233102428
B1737573838040N11204209WA0233002428
B1737583838045N11204214WA0232902428
B1737593838050N11204220WA0232902427
B1738003838055N11204225WA0232802426
B1738013838061N11204232WA0232702426
B1738023838066N11204239WA0232602426
B1738033838070N11204246WA0232602426
B1738043838074N11204254WA0232502427
B1738053838077N11204261WA0232502429
B1738063838080N11204267WA0232502431
B1738073838083N11204272WA0232502433
B1738083838085N11204277WA0232602435
B1738093838087N11204282WA0232602435
B1738103838088N11204288WA0232602434
B1738113838090N11204294WA0232602433
B1738123838091N11204301WA0232602433
B1738133838092N11204307WA0232602433
B1738143838091N11204311WA0232602432
B1738153838088N11204314WA0232602431
B1738163838084N11204314WA0232602429
B1738173838080N11204311WA0232602427
B1738183838077N11204305WA0232502426
B1738193838077N11204296WA0232402424
B1738203838080N11204287WA0232302422
B1738213838085N11204279WA0232202420
B1738223838091N11204273WA0232102418
B1738233838099N11204270WA0232002417
B1738243838107N11204268WA0231902416
B1738253838115N11204267WA0231802415
B1738263838123N11204267WA0231702415
B1738273838131N11204268WA0231602416
B1738283838138N11204270WA0231502417
B1738293838144N11204271WA0231502418
B1738303838150N11204274WA0231402418
B1738313838156N11204277WA0231402418
B1738323838162N11204280WA0231402417
B1738333838166N11204284WA0231302416
B1738343838169N11204289WA0231302415
B1738353838171N11204295WA0231202413
B1738363838172N11204302WA0231102411
B1738373838171N11204309WA0231102406
B1738383838169N11204318WA0230902402
B1738393838166N11204326WA0230702398
B1738403838163N11204334WA0230502396
B1738413838159N11204341WA0230402395
B1738423838155N11204346WA0230202395
B1738433838151N11204351WA0230102395
B1738443838147N11204355WA0229902394
B1738453838143N11204360WA0229802393
B1738463838138N11204364WA0229702392
B1738473838134N11204370WA0229502390
B1738483838130N11204375WA0229402389
B1738493838126N11204381WA0229302388
B1738503838122N11204387WA0229102385
B1738513838118N11204394WA0229002382
B1738523838113N11204402WA0228802379
B1738533838109N11204410WA0228602377
B1738543838106N11204417WA0228402377
B1738553838103N11204424WA0228302379
B1738563838101N11204430WA0228302382
B1738573838100N11204435WA0228202383
B1738583838099N11204440WA0228202383
B1738593838097N11204445WA0228202383
B1739003838095N11204450WA0228102381
B1739013838092N11204455WA0228102379
B1739023838089N11204460WA0228002376
B1739033838085N11204466WA0227902374
B1739043838081N11204473WA0227702372
B1739053838078N11204479WA0227602371
B1739063838074N11204485WA0227502371
B1739073838071N11204491WA0227402371
B1739083838068N11204495WA0227302371
B1739093838064N11204500WA0227302370
B1739103838060N11204505WA0227102367
B1739113838056N11204510WA0227002365
B1739123838052N11204517WA0226902362
B1739133838048N11204524WA0226802360
B1739143838044N11204532WA0226602359
B1739153838040N11204539WA0226502360
B1739163838037N11204547WA0226402361
B1739173838034N11204554WA0226402363
B1739183838033N11204559WA0226402367
B1739193838032N11204563WA0226402373
B1739203838032N11204565WA0226502378
B1739213838031N11204566WA0226602380
B1739223838029N11204566WA0226802382
B1739233838025N11204564WA0226902381
B1739243838021N11204559WA0227002380
B1739253838019N11204552WA0227102380
B1739263838021N11204543WA0227102380
B1739273838027N11204534WA0227202378
B1739283838034N11204528WA0227202379
B1739293838041N11204525WA0227202382
B1739303838047N11204525WA0227302386
B1739313838052N11204527WA0227402389
B1739323838058N11204529WA0227602391
B1739333838063N11204530WA0227702393
B1739343838069N11204532WA0227902394
B1739353838075N11204535WA0228002394
B1739363838080N11204539WA0228102394
B1739373838085N11204545WA0228202395
B1739383838088N11204551WA0228302396
B1739393838090N11204557WA0228402397
B1739403838089N11204563WA0228502397
B1739413838086N11204568WA0228602398
B1739423838082N11204571WA0228702398
B1739433838077N11204571WA0228802398
B1739443838073N11204569WA0228902399
B1739453838069N11204565WA0228902400
B1739463838066N11204559WA0229002402
B1739473838064N11204552WA0229102403
B1739483838064N11204544WA0229202405
B1739493838066N11204535WA0229302407
B1739503838070N11204527WA0229502409
B1739513838075N11204521WA0229602411
B1739523838082N11204519WA0229802413
B1739533838089N11204520WA0229902414
B1739543838095N11204525WA0230002415
B1739553838098N11204531WA0230102416
B1739563838099N11204537WA0230302418
B1739573838098N11204543WA0230302420
B1739583838095N11204547WA0230502421
B1739593838091N11204549WA0230602421
B1740003838087N11204549WA0230702423
B1740013838083N11204547WA0230802424
B1740023838079N11204544WA0231002427
B1740033838076N11204540WA0231102429
B1740043838075N11204534WA0231302431
B1740053838075N11204528WA0231402433
B1740063838076N11204521WA0231602434
B1740073838079N11204514WA0231702434
B1740083838084N11204506WA0231802434
B1740093838089N11204499WA0231902434
B1740103838096N11204493WA0232002435
B1740113838102N11204489WA0232102436
B1740123838110N11204487WA0232202437
B1740133838117N11204487WA0232302438
B1740143838123N11204490WA0232402438
B1740153838129N11204493WA0232402439
B1740163838134N11204497WA0232602440
B1740173838137N11204502WA0232602440
B1740183838140N11204508WA0232702440
B1740193838142N11204514WA0232802440
B1740203838142N11204521WA0232802439
B1740213838142N11204528WA0232902439
B1740223838141N11204535WA0232902439
B1740233838140N11204542WA0232902440
B1740243838138N11204548WA0233002441
B1740253838136N11204553WA0233002442
B1740263838134N11204557WA0233102442
B1740273838130N11204560WA0233102442
B1740283838126N11204563WA0233202441
B1740293838122N11204566WA0233202441
B1740303838118N11204568WA0233202441
B1740313838113N11204571WA0233202442
B1740323838109N11204574WA0233302443
B1740333838105N11204576WA0233302444
B1740343838101N11204578WA0233402445
B1740353838097N11204578WA0233402446
B1740363838092N11204577WA0233502447
B1740373838088N11204573WA0233502449
B1740383838086N11204567WA0233602450
B1740393838085N11204560WA0233702451
B1740403838087N11204552WA0233802452
B1740413838091N11204545WA0233802452
B1740423838097N11204540WA0233902451
B1740433838105N11204538WA0233902450
B1740443838112N11204540WA0234002449
B1740453838118N11204546WA0234002449
B1740463838123N11204552WA0234002450
B1740473838126N11204560WA0234002452
B1740483838127N11204566WA0234102455
B1740493838127N11204573WA0234202456
B1740503838125N11204578WA0234302457
B1740513838122N11204583WA0234302458
B1740523838118N11204585WA0234402458
B1740533838114N11204584WA0234402459
B1740543838110N11204579WA0234502459
B1740553838109N11204572WA0234602460
B1740563838111N11204564WA0234602460
B1740573838116N11204557WA0234702460
B1740583838122N11204551WA0234702461
B1740593838128N11204546WA0234802462
B1741003838135N11204544WA0234802463
B1741013838142N11204542WA0234902464
B1741023838149N11204543WA0235002465
B1741033838156N11204545WA0235002466
B1741043838161N11204548WA0235102467
B1741053838165N11204553WA0235202468
B1741063838168N11204558WA0235302467
B1741073838170N11204565WA0235302466
B1741083838171N11204572WA0235402465
B1741093838172N11204579WA0235402464
B1741103838171N11204585WA0235402464
B1741113838170N11204590WA0235402464
B1741123838168N11204596WA0235402464
B1741133838167N11204601WA0235502464
B1741143838165N11204606WA0235502464
B1741153838163N11204611WA0235502465
B1741163838162N11204616WA0235502465
B1741173838160N11204620WA0235502465
B1741183838158N11204625WA0235502466
B1741193838156N11204630WA0235602466
B1741203838153N11204633WA0235602466
B1741213838150N11204637WA0235602465
B1741223838147N11204640WA0235602465
B1741233838143N11204643WA0235602464
B1741243838140N11204647WA0235602465
B1741253838137N11204650WA0235602466
B1741263838135N11204653WA0235602466
B1741273838133N11204655WA0235602466
B1741283838129N11204655WA0235602464
B1741293838125N11204653WA0235602462
B1741303838121N11204650WA0235502459
B1741313838118N11204645WA0235402456
B1741323838114N11204638WA0235302454
B1741333838111N11204631WA0235202452
B1741343838109N11204625WA0235102452
B1741353838107N11204617WA0235002450
B1741363838105N11204610WA0234902449
B1741373838104N11204602WA0234802448
B1741383838104N11204593WA0234702446
B1741393838105N11204584WA0234602445
B1741403838105N11204575WA0234402445
B1741413838106N11204567WA0234402445
B1741423838106N11204560WA0234302446
B1741433838106N11204552WA0234202445
B1741443838105N11204545WA0234202445
B1741453838106N11204536WA0234102444
B1741463838106N11204528WA0234002444
B1741473838106N11204520WA0234002444
B1741483838107N11204512WA0233902444
B1741493838108N11204504WA0233902443
B1741503838108N11204496WA0233802442
B1741513838110N11204487WA0233802441
B1741523838111N11204478WA0233702440
B1741533838113N11204470WA0233702440
B1741543838115N11204461WA0233602439
B1741553838118N11204453WA0233502438
B1741563838121N11204445WA0233502438
B1741573838125N11204436WA0233402437
B1741583838130N11204429WA0233302436
B1741593838136N11204422WA0233302436
B1742003838143N11204416WA0233202435
B1742013838150N11204412WA0233202435
B1742023838157N11204410WA0233102434
B1742033838165N11204410WA0233002433
B1742043838172N11204412WA0233002432
B1742053838178N11204416WA0232902431
B1742063838183N11204422WA0232802430
B1742073838187N11204428WA0232802430
B1742083838189N11204436WA0232702429
B1742093838191N11204444WA0232602429
B1742103838192N11204452WA0232602428
B1742113838192N11204461WA0232602428
B1742123838192N11204471WA0232502429
B1742133838192N11204480WA0232502430
B1742143838192N11204488WA0232502432
B1742153838193N11204495WA0232502436
B1742163838194N11204502WA0232602439
B1742173838195N11204507WA0232702441
B1742183838196N11204513WA0232802442
B1742193838195N11204518WA0232802441
B1742203838193N11204523WA0232902441
B1742213838190N11204526WA0233002441
B1742223838186N11204526WA0233002441
B1742233838183N11204524WA0233002440
B1742243838180N11204520WA0233102439
B1742253838176N11204516WA0233002437
B1742263838172N11204512WA0233002436
B1742273838168N11204508WA0233002437
B1742283838165N11204506WA0233002439
B1742293838162N11204506WA0233102442
B1742303838159N11204506WA0233102443
B1742313838156N11204507WA0233202444
B1742323838154N11204509WA0233202444
B1742333838152N11204512WA0233302444
B1742343838150N11204515WA0233302443
B1742353838150N11204520WA0233302441
B1742363838151N11204525WA0233302440
B1742373838152N11204531WA0233302438
B1742383838153N11204538WA0233202436
B1742393838154N11204544WA0233202436
B1742403838154N11204551WA0233102436
B1742413838153N11204556WA0233102437
B1742423838151N11204560WA0233102437
B1742433838148N11204562WA0233102437
B1742443838143N11204562WA0233102436
B1742453838138N11204558WA0233002435
B1742463838134N11204551WA0233002435
B1742473838133N11204544WA0233002437
B1742483838133N11204536WA0233002440
B1742493838135N11204530WA0233002442
B1742503838139N11204524WA0233102442
B1742513838145N11204520WA0233102442
B1742523838153N11204519WA0233102440
B1742533838160N11204521WA0233102439
B1742543838166N11204525WA0233102439
B1742553838171N11204530WA0233202439
B1742563838174N11204534WA0233202440
B1742573838177N11204540WA0233202440
B1742583838180N11204546WA0233202440
B1742593838183N11204552WA0233202440
B1743003838185N11204558WA0233202441
B1743013838188N11204564WA0233202441
B1743023838191N11204569WA0233202441
B1743033838196N11204573WA0233202439
B1743043838201N11204578WA0233202437
B1743053838206N11204582WA0233202435
B1743063838210N11204587WA0233102433
B1743073838214N11204593WA0233102432
B1743083838217N11204600WA0232902429
B1743093838218N11204607WA0232902427
B1743103838219N11204615WA0232702425
B1743113838219N11204622WA0232602423
B1743123838219N11204629WA0232502421
B1743133838219N11204636WA0232402420
B1743143838218N11204643WA0232302420
B1743153838218N11204649WA0232202420
B1743163838218N11204654WA0232102421
B1743173838217N11204659WA0232002420
B1743183838216N11204664WA0231902419
B1743193838214N11204669WA0231902416
B1743203838212N11204673WA0231702414
B1743213838209N11204678WA0231602410
B1743223838205N11204682WA0231402405
B1743233838200N11204686WA0231302400
B1743243838195N11204690WA0231002395
B1743253838189N11204694WA0230802391
B1743263838183N11204699WA0230502387
B1743273838177N11204703WA0230202384
B1743283838171N11204707WA0229902382
B1743293838166N11204711WA0229702380
B1743303838162N11204715WA0229402379
B1743313838158N11204720WA0229302378
B1743323838155N11204726WA0229002377
B1743333838152N11204732WA0228902376
B1743343838149N11204738WA0228602374
B1743353838146N11204744WA0228502373
B1743363838142N11204750WA0228302371
B1743373838138N11204755WA0228102369
B1743383838134N11204760WA0227902366
B1743393838129N11204765WA0227702363
B1743403838125N11204769WA0227402360
B1743413838120N11204774WA0227202356
B1743423838115N11204779WA0226902353
B1743433838109N11204783WA0226802349
B1743443838104N11204788WA0226402345
B1743453838098N11204794WA0226202340
B1743463838092N11204799WA0225802337
B1743473838086N11204804WA0225602335
B1743483838081N11204808WA0225202333
B1743493838076N11204812WA0225002331
B1743503838071N11204816WA0224702329
B1743513838065N11204820WA0224502328
B1743523838059N11204823WA0224202326
B1743533838053N11204827WA0224002324
B1743543838047N11204831WA0223802322
B1743553838041N11204834WA0223602321
B1743563838036N11204836WA0223402320
B1743573838030N11204838WA0223302320
B1743583838025N11204838WA0223102320
B1743593838020N11204839WA0223002320
B1744003838015N11204839WA0222802318
B1744013838010N11204840WA0222702316
B1744023838004N11204842WA0222502312
B1744033837998N11204846WA0222302307
B1744043837992N11204850WA0222102304
B1744053837986N11204856WA0221902302
B1744063837982N11204862WA0221702302
B1744073837978N11204867WA0221602302
B1744083837974N11204873WA0221402302
B1744093837971N11204878WA0221302301
B1744103837967N11204884WA0221102299
B1744113837963N11204891WA0221002296
B1744123837959N11204898WA0220802292
B1744133837955N11204907WA0220602287
B1744143837951N11204916WA0220302281
B1744153837946N11204925WA0220102275
B1744163837942N11204935WA0219702269
B1744173837937N11204945WA0219402264
B1744183837932N11204955WA0218902260
B1744193837928N11204964WA0218602257
B1744203837924N11204972WA0218202256
B1744213837922N11204978WA0218002257
B1744223837920N11204983WA0217802258
B1744233837918N11204987WA0217602256
B1744243837915N11204993WA0217402253
B1744253837912N11205000WA0217202248
B1744263837908N11205008WA0216902243
B1744273837905N11205017WA0216702240
B1744283837901N11205025WA0216402237
B1744293837898N11205033WA0216202237
B1744303837895N11205040WA0215902236
B1744313837893N11205047WA0215802235
B1744323837891N11205054WA0215502233
B1744333837888N11205062WA0215302230
B1744343837885N11205070WA0215102227
B1744353837882N11205078WA0214902224
B1744363837879N11205086WA0214702223
B1744373837877N11205094WA0214502222
B1744383837875N11205103WA0214302220
B1744393837873N11205111WA0214102218
B1744403837871N11205119WA0213902216
B1744413837869N11205128WA0213702213
B1744423837867N11205137WA0213502210
B1744433837865N11205145WA0213302207
B1744443837863N11205154WA0213102204
B1744453837860N11205163WA0212902201
B1744463837858N11205171WA0212602198
B1744473837855N11205179WA0212402195
B1744483837852N11205188WA0212102193
B1744493837849N11205196WA0211902190
B1744503837847N11205204WA0211602187
B1744513837844N11205212WA0211502185
B1744523837841N11205220WA0211202183
B1744533837839N11205228WA0211002181
B1744543837836N11205235WA0210802180
B1744553837834N11205244WA0210602179
B1744563837832N11205252WA0210402180
B1744573837830N11205259WA0210302180
B1744583837828N11205266WA0210202181
B1744593837826N11205271WA0210102183
B1745003837824N11205277WA0210002183
B1745013837822N11205283WA0210002183
B1745023837820N11205288WA0209902183
B1745033837818N11205293WA0209902183
B1745043837817N11205298WA0209802182
B1745053837816N11205303WA0209802181
B1745063837815N11205309WA0209702178
B1745073837814N11205315WA0209602176
B1745083837812N11205321WA0209402174
B1745093837810N11205327WA0209302172
B1745103837808N11205332WA0209202170
B1745113837804N11205337WA0209102168
B1745123837801N11205341WA0208902166
B1745133837797N11205344WA0208802164
B1745143837792N11205346WA0208602161
B1745153837788N11205349WA0208502159
B1745163837783N11205353WA0208302156
B1745173837778N11205357WA0208102154
B1745183837774N11205362WA0207902152
B1745193837770N11205368WA0207802151
B1745203837768N11205374WA0207602151
B1745213837768N11205381WA0207502152
B1745223837768N11205388WA0207402153
B1745233837769N11205394WA0207302154
B1745243837771N11205400WA0207202154
B1745253837771N11205406WA0207202152
B1745263837772N11205414WA0207102150
B1745273837772N11205422WA0207002148
B1745283837772N11205430WA0206802147
B1745293837772N11205436WA0206802147
B1745303837771N11205442WA0206702147
B1745313837770N11205447WA0206602147
B1745323837769N11205451WA0206502147
B1745333837768N11205456WA0206502147
B1745343837767N11205461WA0206402147
B1745353837766N11205467WA0206302146
B1745363837764N11205472WA0206302144
B1745373837762N11205478WA0206202143
B1745383837760N11205483WA0206102142
B1745393837757N11205487WA0206002142
B1745403837755N11205491WA0206002143
B1745413837752N11205494WA0206002145
B1745423837750N11205497WA0205902146
B1745433837747N11205499WA0205902147
B1745443837744N11205500WA0205902147
B1745453837740N11205500WA0205902147
B1745463837735N11205499WA0205902147
B1745473837731N11205496WA0205902147
B1745483837727N11205492WA0205902148
B1745493837725N11205486WA0205902148
B1745503837725N11205479WA0205902148
B1745513837726N11205472WA0205902148
B1745523837728N11205465WA0205902147
B1745533837733N11205458WA0205902145
B1745543837739N11205452WA0205802144
B1745553837745N11205447WA0205802144
B1745563837752N11205443WA0205802143
B1745573837759N11205441WA0205702142
B1745583837767N11205440WA0205702141
B1745593837774N11205440WA0205602140
B1746003837781N11205439WA0205602139
B1746013837788N11205439WA0205502138
B1746023837795N11205439WA0205502137
B1746033837802N11205438WA0205402136
B1746043837810N11205436WA0205302135
B1746053837817N11205434WA0205302133
B1746063837825N11205432WA0205202132
B1746073837832N11205430WA0205102131
B1746083837840N11205428WA0205002130
B1746093837847N11205426WA0205002129
B1746103837854N11205425WA0204902128
B1746113837861N11205424WA0204802126
B1746123837868N11205424WA0204702124
B1746133837875N11205423WA0204602121
B1746143837882N11205423WA0204402118
B1746153837891N11205423WA0204302113
B1746163837900N11205421WA0204002108
B1746173837910N11205419WA0203802104
B1746183837920N11205416WA0203502100
B1746193837929N11205412WA0203302096
B1746203837938N11205408WA0203002094
B1746213837947N11205403WA0202802093
B1746223837954N11205398WA0202602094
B1746233837960N11205393WA0202402096
B1746243837965N11205389WA0202302099
B1746253837969N11205386WA0202202100
B1746263837974N11205383WA0202102099
B1746273837979N11205380WA0202002096
B1746283837986N11205376WA0201902093
B1746293837993N11205373WA0201802091
B1746303838000N11205370WA0201602090
B1746313838007N11205368WA0201502089
B1746323838014N11205366WA0201402088
B1746333838021N11205364WA0201302087
B1746343838027N11205363WA0201202088
B1746353838034N11205362WA0201102089
B1746363838040N11205363WA0201002089
B1746373838046N11205364WA0201002089
B1746383838053N11205367WA0200902088
B1746393838060N11205370WA0200902086
B1746403838067N11205372WA0200802085
B1746413838073N11205374WA0200702083
B1746423838080N11205376WA0200602082
B1746433838087N11205377WA0200602081
B1746443838094N11205378WA0200502080
B1746453838100N11205379WA0200402080
B1746463838106N11205379WA0200302080
B1746473838112N11205378WA0200202079
B1746483838118N11205377WA0200102076
B1746493838125N11205376WA0200002073
B1746503838133N11205375WA0199902070
B1746513838140N11205373WA0199802067
B1746523838147N11205371WA0199602065
B1746533838153N11205368WA0199402064
B1746543838159N11205365WA0199302062
B1746553838165N11205363WA0199102060
B1746563838172N11205362WA0198902057
B1746573838179N11205361WA0198802055
B1746583838187N11205361WA0198602054
B1746593838194N11205362WA0198402053
B1747003838200N11205363WA0198302052
B1747013838207N11205364WA0198102051
B1747023838213N11205365WA0198002050
B1747033838220N11205366WA0197902049
B1747043838226N11205366WA0197702048
B1747053838233N11205366WA0197602045
B1747063838240N11205366WA0197402043
B1747073838248N11205365WA0197302040
B1747083838256N11205364WA0197102038
B1747093838264N11205363WA0196902036
B1747103838272N11205363WA0196702035
B1747113838279N11205364WA0196602035
B1747123838287N11205364WA0196502035
B1747133838294N11205364WA0196402035
B1747143838301N11205365WA0196302035
B1747153838308N11205365WA0196202035
B1747163838315N11205365WA0196102034
B1747173838322N11205365WA0196002034
B1747183838329N11205364WA0195902034
B1747193838337N11205362WA0195902034
B1747203838344N11205361WA0195802033
B1747213838352N11205359WA0195802032
B1747223838360N11205358WA0195702032
B1747233838367N11205358WA0195602031
B1747243838374N11205359WA0195602031
B1747253838381N11205361WA0195502030
B1747263838387N11205363WA0195402029
B1747273838393N11205366WA0195402029
B1747283838400N11205368WA0195302028
B1747293838406N11205370WA0195302027
B1747303838413N11205372WA0195202027
B1747313838419N11205373WA0195102026
B1747323838426N11205375WA0195002024
B1747333838432N11205377WA0195002023
B1747343838438N11205380WA0194802021
B1747353838444N11205383WA0194802020
B1747363838451N11205386WA0194702019
B1747373838457N11205389WA0194602018
B1747383838463N11205393WA0194502018
B1747393838469N11205396WA0194402018
B1747403838475N11205400WA0194302018
B1747413838481N11205404WA0194302017
B1747423838487N11205409WA0194202018
B1747433838492N11205414WA0194202019
B1747443838495N11205418WA0194202020
B1747453838498N11205423WA0194202021
B1747463838502N11205428WA0194202021
B1747473838505N11205433WA0194202020
B1747483838509N11205440WA0194202020
B1747493838512N11205446WA0194102020
B1747503838514N11205452WA0194202022
B1747513838515N11205458WA0194202022
B1747523838515N11205462WA0194202022
B1747533838513N11205465WA0194202020
B1747543838510N11205466WA0194102019
B1747553838508N11205465WA0194102019
B1747563838506N11205461WA0194102018
B1747573838505N11205456WA0194102017
B1747583838504N11205450WA0194002016
B1747593838503N11205445WA0194002015
B1748003838501N11205440WA0193902015
B1748013838498N11205436WA0193902015
B1748023838496N11205433WA0193802015
B1748033838493N11205431WA0193802015
B1748043838491N11205430WA0193802015
B1748053838488N11205429WA0193802014
B1748063838484N11205428WA0193702012
B1748073838481N11205427WA0193602010
B1748083838476N11205427WA0193602007
B1748093838471N11205427WA0193502005
B1748103838465N11205428WA0193402002
B1748113838460N11205428WA0193302001
B1748123838454N11205429WA0193102000
B1748133838449N11205431WA0193001999
B1748143838445N11205433WA0192901998
B1748153838440N11205436WA0192801997
B1748163838436N11205439WA0192701995
B1748173838431N11205443WA0192601993
B1748183838427N11205448WA0192401991
B1748193838423N11205454WA0192301989
B1748203838419N11205460WA0192101987
B1748213838416N11205466WA0192001986
B1748223838413N11205472WA0191901984
B1748233838410N11205479WA0191701981
B1748243838407N11205486WA0191501979
B1748253838404N11205493WA0191401977
B1748263838401N11205501WA0191201974
B1748273838398N11205509WA0191001972
B1748283838396N11205517WA0190801969
B1748293838393N11205525WA0190701967
B1748303838390N11205534WA0190501965
B1748313838387N11205542WA0190301964
B1748323838384N11205550WA0190101963
B1748333838381N11205557WA0190001962
B1748343838378N11205565WA0189801960
B1748353838374N11205572WA0189701959
B1748363838371N11205580WA0189501958
B1748373838367N11205587WA0189401957
B1748383838363N11205593WA0189201956
B1748393838359N11205600WA0189101955
B1748403838356N11205607WA0189001955
B1748413838354N11205614WA0188901954
B1748423838351N11205620WA0188701952
B1748433838349N11205627WA0188601950
B1748443838347N11205635WA0188501947
B1748453838345N11205642WA0188301944
B1748463838344N11205651WA0188101939
B1748473838342N11205660WA0187901935
B1748483838341N11205669WA0187701931
B1748493838339N11205678WA0187501928
B1748503838338N11205688WA0187201925
B1748513838336N11205696WA0187001923
B1748523838334N11205704WA0186701921
B1748533838333N11205713WA0186501919
B1748543838331N11205721WA0186201917
B1748553838329N11205729WA0186101915
B1748563838327N11205738WA0185801913
B1748573838325N11205746WA0185601911
B1748583838323N11205755WA0185401909
B1748593838321N11205762WA0185201908
B1749003838319N11205770WA0185001907
B1749013838317N11205777WA0184801905
B1749023838315N11205785WA0184601903
B1749033838314N11205793WA0184501900
B1749043838313N11205802WA0184201898
B1749053838314N11205811WA0184101896
B1749063838315N11205821WA0183901894
B1749073838318N11205830WA0183701892
B1749083838321N11205840WA0183501889
B1749093838324N11205851WA0183301888
B1749103838327N11205861WA0183101888
B1749113838330N11205870WA0183001890
B1749123838331N11205878WA0182901893
B1749133838332N11205885WA0182901896
B1749143838332N11205891WA0182801898
B1749153838332N11205898WA0182801898
B1749163838330N11205905WA0182801897
B1749173838327N11205910WA0182801896
B1749183838323N11205914WA0182801896
B1749193838318N11205914WA0182701895
B1749203838314N11205912WA0182701896
B1749213838311N11205909WA0182701896
B1749223838308N11205905WA0182601896
B1749233838306N11205901WA0182601897
B1749243838304N11205897WA0182601897
B1749253838302N11205893WA0182601897
B1749263838301N11205889WA0182601896
B1749273838300N11205885WA0182601893
B1749283838300N11205878WA0182501889
B1749293838301N11205871WA0182401885
B1749303838302N11205864WA0182301883
B1749313838303N11205857WA0182201881
B1749323838305N11205850WA0182001879
B1749333838307N11205844WA0181901878
B1749343838310N11205837WA0181701876
B1749353838314N11205832WA0181601874
B1749363838319N11205827WA0181401872
B1749373838325N11205823WA0181301869
B1749383838331N11205820WA0181101867
B1749393838338N11205817WA0180901864
B1749403838345N11205816WA0180701862
B1749413838353N11205817WA0180501859
B1749423838360N11205819WA0180301856
B1749433838368N11205822WA0180101855
B1749443838375N11205825WA0179901854
B1749453838381N11205828WA0179801856
B1749463838386N11205831WA0179601858
B1749473838391N11205834WA0179601859
B1749483838396N11205837WA0179501859
B1749493838402N11205840WA0179401859
B1749503838408N11205843WA0179301860
B1749513838413N11205846WA0179301862
B1749523838417N11205850WA0179301864
B1749533838419N11205855WA0179401866
B1749543838420N11205862WA0179401867
B1749553838418N11205868WA0179501867
B1749563838414N11205873WA0179501868
B1749573838408N11205874WA0179601868
B1749583838404N11205870WA0179601869
B1749593838401N11205864WA0179701869
B1750003838401N11205857WA0179701870
B1750013838402N11205850WA0179701871
B1750023838404N11205845WA0179801873
B1750033838407N11205840WA0179901874
B1750043838411N11205836WA0179901874
B1750053838415N11205831WA0180001873
B1750063838420N11205827WA0180001872
B1750073838426N11205822WA0180101872
B1750083838432N11205819WA0180101873
B1750093838438N11205818WA0180101874
B1750103838445N11205820WA0180201874
B1750113838452N11205823WA0180201873
B1750123838457N11205829WA0180201872
B1750133838461N11205836WA0180201870
B1750143838463N11205844WA0180201868
B1750153838463N11205852WA0180201866
B1750163838461N11205859WA0180101864
B1750173838457N11205865WA0180001863
B1750183838453N11205870WA0180001863
B1750193838450N11205875WA0179901865
B1750203838446N11205879WA0179901866
B1750213838443N11205883WA0179901867
B1750223838440N11205887WA0179901866
B1750233838437N11205892WA0179901865
B1750243838435N11205898WA0179801865
B1750253838432N11205903WA0179801865
B1750263838429N11205907WA0179801865
B1750273838426N11205911WA0179801865
B1750283838423N11205914WA0179801865
B1750293838419N11205916WA0179801865
B1750303838416N11205918WA0179701865
B1750313838412N11205920WA0179701865
B1750323838408N11205922WA0179701865
B1750333838404N11205924WA0179701866
B1750343838401N11205926WA0179701866
B1750353838397N11205928WA0179701866
B1750363838394N11205930WA0179701865
B1750373838391N11205933WA0179701864
B1750383838388N11205936WA0179601864
B1750393838386N11205940WA0179601863
B1750403838383N11205945WA0179601862
B1750413838380N11205949WA0179501862
B1750423838377N11205954WA0179501862
B1750433838373N11205959WA0179401861
B1750443838370N11205964WA0179401861
B1750453838367N11205969WA0179401861
B1750463838363N11205973WA0179301860
B1750473838360N11205978WA0179301860
B1750483838358N11205982WA0179201861
B1750493838355N11205985WA0179201862
B1750503838353N11205989WA0179201861
B1750513838350N11205993WA0179201859
B1750523838347N11205996WA0179101856
B1750533838343N11206000WA0179001852
B1750543838339N11206004WA0178901848
B1750553838334N11206007WA0178801846
B1750563838331N11206009WA0178601845
B1750573838327N11206010WA0178501844
B1750583838324N11206010WA0178301843
B1750593838321N11206009WA0178201840
B1751003838318N11206007WA0178001838
B1751013838314N11206004WA0177901836
B1751023838311N11206001WA0177701833
B1751033838309N11205995WA0177601830
B1751043838306N11205989WA0177301827
B1751053838304N11205982WA0177201824
B1751063838303N11205975WA0176901822
B1751073838303N11205967WA0176801820
B1751083838304N11205959WA0176501818
B1751093838306N11205951WA0176401816
B1751103838308N11205943WA0176101814
B1751113838311N11205935WA0176001812
B1751123838313N11205927WA0175801812
B1751133838315N11205920WA0175601812
B1751143838317N11205914WA0175501812
B1751153838318N11205908WA0175401811
B1751163838320N11205901WA0175201809
B1751173838323N11205895WA0175101807
B1751183838326N11205888WA0175001806
B1751193838329N11205882WA0174901805
B1751203838332N11205877WA0174701803
B1751213838336N11205872WA0174601802
B1751223838341N11205867WA0174501801
B1751233838345N11205862WA0174401799
B1751243838350N11205856WA0174201799
B1751253838355N11205851WA0174101798
B1751263838360N11205847WA0174001797
B1751273838365N11205843WA0173901796
B1751283838370N11205840WA0173801794
B1751293838376N11205838WA0173701792
B1751303838382N11205836WA0173501790
B1751313838389N11205835WA0173401787
B1751323838395N11205834WA0173201784
B1751333838401N11205834WA0173101782
B1751343838407N11205835WA0172901779
B1751353838412N11205838WA0172701776
B1751363838416N11205844WA0172501773
B1751373838419N11205851WA0172301770
B1751383838419N11205858WA0172001767
B1751393838416N11205865WA0171801764
B1751403838413N11205869WA0171501762
B1751413838409N11205872WA0171301760
B1751423838405N11205873WA0171101758
B1751433838401N11205874WA0170901756
B1751443838397N11205874WA0170701754
B1751453838393N11205874WA0170601753
B1751463838388N11205875WA0170401752
B1751473838384N11205876WA0170301751
B1751483838380N11205879WA0170101749
B1751493838377N11205883WA0169901747
B1751503838375N11205890WA0169701746
B1751513838376N11205898WA0169601744
B1751523838380N11205904WA0169401741
B1751533838386N11205908WA0169301739
B1751543838392N11205908WA0169101737
B1751553838398N11205907WA0168901737
B1751563838403N11205905WA0168801736
B1751573838407N11205903WA0168701736
B1751583838411N11205903WA0168501735
B1751593838417N11205905WA0168401733
B1752003838422N11205907WA0168301732
B1752013838427N11205910WA0168201731
B1752023838431N11205915WA0168001730
B1752033838431N11205920WA0168001729
B1752043838429N11205925WA0167801727
B1752053838424N11205928WA0167701724
B1752063838420N11205928WA0167601724
B1752073838416N11205927WA0167501723
B1752083838412N11205926WA0167301724
B1752093838410N11205927WA0167301724
B1752103838407N11205930WA0167201723
B1752113838404N11205933WA0167101722
B1752123838401N11205938WA0167001721
B1752133838400N11205943WA0166901721
B1752143838400N11205950WA0166801720
B1752153838403N11205957WA0166801718
B1752163838406N11205963WA0166601714
B1752173838409N11205969WA0166501712
B1752183838411N11205975WA0166401710
B1752193838411N11205981WA0166301708
B1752203838410N11205987WA0166101705
B1752213838406N11205993WA0165901702
B1752223838402N11205997WA0165701699
B1752233838398N11206000WA0165601698
B1752243838394N11206003WA0165401697
B1752253838392N11206004WA0165201696
B1752263838389N11206006WA0165001695
B1752273838388N11206006WA0164901695
B1752283838387N11206007WA0164801694
B1752293838386N11206007WA0164701694
B1752303838386N11206008WA0164601694
B1752313838386N11206008WA0164501694
B1752323838386N11206009WA0164401694
B1752333838386N11206009WA0164301694
B1752343838386N11206009WA0164301694
B1752353838386N11206009WA0164201694
