AXXX000208
HFDTE240926
HFPLTPILOTINCHARGE:Andrew Dahl
HFCIDCOMPETITIONID:208
HFFTYFRTYPE:Flymaster task track export
HFGPSGPSDATUM:WGS-84
B1955103929623N11150165WA0224602364
B1955113929623N11150169WA0224402363
B1955123929620N11150173WA0224302363
B1955133929619N11150176WA0224302361
B1955143929618N11150177WA0224302360
B1955153929618N11150177WA0224202359
B1955163929617N11150178WA0224102359
B1955173929617N11150178WA0224102359
B1955183929617N11150178WA0224002359
B1955193929617N11150178WA0224002359
B1955203929617N11150178WA0223902359
B1955213929617N11150178WA0223902359
B1955223929617N11150178WA0223902359
B1955233929617N11150178WA0223902359
B1955243929617N11150178WA0223802358
B1955253929617N11150178WA0223802358
B1955263929617N11150178WA0223802358
B1955273929617N11150178WA0223802358
B1955283929617N11150178WA0223802358
B1955293929617N11150178WA0223802357
B1955303929617N11150178WA0223802357
B1955313929617N11150178WA0223702357
B1955323929617N11150178WA0223702357
B1955333929617N11150178WA0223702357
B1955343929617N11150178WA0223702357
B1955353929617N11150178WA0223702357
B1955363929617N11150178WA0223702357
B1955373929617N11150178WA0223702356
B1955383929617N11150178WA0223702356
B1955393929617N11150178WA0223702356
B1955403929617N11150177WA0223702356
B1955413929618N11150177WA0223702356
B1955423929618N11150178WA0223702356
B1955433929618N11150177WA0223702357
B1955443929618N11150177WA0223702357
B1955453929618N11150177WA0223702357
B1955463929618N11150177WA0223702356
B1955473929618N11150177WA0223702356
B1955483929618N11150177WA0223702356
B1955493929618N11150177WA0223702356
B1955503929618N11150177WA0223702356
B1955513929618N11150177WA0223702357
B1955523929618N11150177WA0223702357
B1955533929618N11150177WA0223702357
B1955543929618N11150177WA0223702357
B1955553929618N11150177WA0223702356
B1955563929618N11150177WA0223702356
B1955573929618N11150177WA0223702356
B1955583929618N11150177WA0223702356
B1955593929618N11150177WA0223702356
B1956003929618N11150177WA0223702356
B1956013929618N11150177WA0223702356
B1956023929618N11150177WA0223702356
B1956033929618N11150177WA0223702357
B1956043929618N11150177WA0223702357
B1956053929618N11150177WA0223702356
B1956063929618N11150177WA0223702356
B1956073929618N11150178WA0223702356
B1956083929618N11150178WA0223702356
B1956093929618N11150178WA0223702356
B1956103929618N11150178WA0223702356
B1956113929617N11150178WA0223702356
B1956123929617N11150178WA0223702355
B1956133929618N11150178WA0223702355
B1956143929618N11150178WA0223702355
B1956153929618N11150178WA0223702356
B1956163929617N11150178WA0223702355
B1956173929617N11150178WA0223702355
B1956183929617N11150178WA0223702355
B1956193929618N11150178WA0223702355
B1956203929618N11150178WA0223702355
B1956213929618N11150177WA0223702355
B1956223929618N11150177WA0223702355
B1956233929618N11150177WA0223702355
B1956243929618N11150177WA0223702355
B1956253929618N11150177WA0223702355
B1956263929618N11150177WA0223702355
B1956273929618N11150177WA0223702355
B1956283929618N11150177WA0223702355
B1956293929618N11150177WA0223702355
B1956303929618N11150177WA0223702354
B1956313929618N11150177WA0223702354
B1956323929618N11150177WA0223702354
B1956333929618N11150177WA0223702354
B1956343929618N11150177WA0223702354
B1956353929618N11150177WA0223702354
B1956363929618N11150177WA0223702354
B1956373929617N11150177WA0223702354
B1956383929617N11150177WA0223702353
B1956393929617N11150177WA0223702353
B1956403929617N11150177WA0223702353
B1956413929617N11150177WA0223702352
B1956423929617N11150177WA0223702352
B1956433929617N11150177WA0223702352
B1956443929617N11150177WA0223702352
B1956453929617N11150178WA0223702352
B1956463929617N11150178WA0223702352
B1956473929617N11150178WA0223702352
B1956483929617N11150178WA0223702352
B1956493929617N11150178WA0223702352
B1956503929617N11150178WA0223702352
B1956513929617N11150178WA0223702353
B1956523929617N11150178WA0223702353
B1956533929617N11150178WA0223702353
B1956543929617N11150178WA0223702353
B1956553929617N11150178WA0223702353
B1956563929617N11150178WA0223702353
B1956573929617N11150178WA0223702353
B1956583929617N11150178WA0223702353
B1956593929617N11150178WA0223702354
B1957003929617N11150178WA0223702354
B1957013929617N11150178WA0223702354
B1957023929617N11150178WA0223702354
B1957033929617N11150178WA0223702354
B1957043929617N11150178WA0223702354
B1957053929617N11150178WA0223702354
B1957063929617N11150178WA0223702354
B1957073929617N11150178WA0223702354
B1957083929617N11150178WA0223702354
B1957093929617N11150178WA0223702353
B1957103929617N11150179WA0223702353
B1957113929617N11150179WA0223702353
B1957123929617N11150179WA0223702353
B1957133929617N11150178WA0223702353
B1957143929616N11150178WA0223702353
B1957153929616N11150178WA0223702354
B1957163929616N11150179WA0223702354
B1957173929616N11150179WA0223702354
B1957183929616N11150179WA0223702354
B1957193929616N11150179WA0223702355
B1957203929616N11150179WA0223702355
B1957213929616N11150179WA0223702355
B1957223929616N11150179WA0223702355
B1957233929616N11150179WA0223702355
B1957243929616N11150179WA0223702355
B1957253929616N11150178WA0223702355
B1957263929616N11150178WA0223702355
B1957273929616N11150178WA0223702355
B1957283929616N11150178WA0223702355
B1957293929616N11150178WA0223702355
B1957303929616N11150178WA0223702355
B1957313929616N11150178WA0223702355
B1957323929616N11150178WA0223702355
B1957333929616N11150178WA0223702355
B1957343929616N11150179WA0223702355
B1957353929616N11150179WA0223702355
B1957363929616N11150179WA0223702355
B1957373929616N11150179WA0223702355
B1957383929615N11150179WA0223702355
B1957393929615N11150179WA0223702356
B1957403929615N11150179WA0223702356
B1957413929615N11150179WA0223702356
B1957423929615N11150179WA0223702356
B1957433929615N11150179WA0223702356
B1957443929615N11150179WA0223702356
B1957453929615N11150179WA0223702356
B1957463929615N11150179WA0223702356
B1957473929615N11150179WA0223702356
B1957483929615N11150180WA0223702356
B1957493929615N11150180WA0223702357
B1957503929615N11150180WA0223702357
B1957513929615N11150180WA0223702357
B1957523929615N11150180WA0223702357
B1957533929615N11150180WA0223702357
B1957543929615N11150180WA0223702357
B1957553929615N11150180WA0223702357
B1957563929615N11150180WA0223702358
B1957573929615N11150180WA0223702358
B1957583929615N11150180WA0223702357
B1957593929615N11150180WA0223802357
B1958003929615N11150180WA0223702357
B1958013929615N11150180WA0223702358
B1958023929615N11150180WA0223702359
B1958033929615N11150180WA0223802358
B1958043929615N11150180WA0223802359
B1958053929614N11150180WA0223802359
B1958063929614N11150180WA0223802360
B1958073929614N11150180WA0223802360
B1958083929614N11150180WA0223802360
B1958093929614N11150180WA0223802360
B1958103929614N11150180WA0223802360
B1958113929614N11150180WA0223802360
B1958123929614N11150180WA0223802359
B1958133929614N11150180WA0223802359
B1958143929614N11150180WA0223802359
B1958153929614N11150180WA0223802359
B1958163929614N11150180WA0223802358
B1958173929614N11150180WA0223802358
B1958183929614N11150180WA0223802359
B1958193929614N11150180WA0223802359
B1958203929614N11150180WA0223802359
B1958213929614N11150180WA0223802359
B1958223929614N11150180WA0223802359
B1958233929614N11150180WA0223802359
B1958243929613N11150180WA0223802359
B1958253929613N11150180WA0223802359
B1958263929613N11150180WA0223802359
B1958273929613N11150180WA0223802359
B1958283929613N11150180WA0223802359
B1958293929613N11150181WA0223802359
B1958303929613N11150181WA0223802359
B1958313929613N11150181WA0223802359
B1958323929613N11150181WA0223802359
B1958333929613N11150181WA0223802359
B1958343929613N11150181WA0223802359
B1958353929613N11150180WA0223802359
B1958363929613N11150180WA0223802359
B1958373929613N11150180WA0223802359
B1958383929613N11150180WA0223802358
B1958393929613N11150180WA0223802358
B1958403929613N11150180WA0223802358
B1958413929613N11150180WA0223802357
B1958423929613N11150180WA0223802358
B1958433929613N11150180WA0223802358
B1958443929613N11150180WA0223802358
B1958453929613N11150180WA0223802358
B1958463929613N11150180WA0223802358
B1958473929613N11150180WA0223802358
B1958483929613N11150180WA0223802358
B1958493929613N11150180WA0223802358
B1958503929613N11150180WA0223802358
B1958513929613N11150180WA0223802358
B1958523929613N11150180WA0223802358
B1958533929613N11150180WA0223802358
B1958543929613N11150180WA0223802358
B1958553929613N11150180WA0223802358
B1958563929613N11150180WA0223802358
B1958573929613N11150180WA0223802358
B1958583929613N11150180WA0223802358
B1958593929613N11150180WA0223802357
B1959003929613N11150180WA0223802357
B1959013929614N11150180WA0223802357
B1959023929614N11150180WA0223802357
B1959033929614N11150180WA0223802356
B1959043929614N11150180WA0223802357
B1959053929614N11150180WA0223802357
B1959063929614N11150180WA0223802357
B1959073929614N11150180WA0223802357
B1959083929614N11150180WA0223802357
B1959093929613N11150180WA0223802357
B1959103929613N11150180WA0223802357
B1959113929613N11150180WA0223802357
B1959123929613N11150180WA0223802356
B1959133929613N11150180WA0223802356
B1959143929613N11150180WA0223802356
B1959153929614N11150180WA0223802357
B1959163929614N11150180WA0223802357
B1959173929614N11150180WA0223802356
B1959183929614N11150180WA0223802356
B1959193929614N11150180WA0223802356
B1959203929614N11150180WA0223802356
B1959213929614N11150180WA0223802356
B1959223929614N11150180WA0223802356
B1959233929614N11150180WA0223802356
B1959243929614N11150180WA0223802356
B1959253929614N11150180WA0223802356
B1959263929614N11150180WA0223802356
B1959273929614N11150180WA0223802356
B1959283929614N11150180WA0223802356
B1959293929614N11150180WA0223802356
B1959303929614N11150180WA0223802356
B1959313929614N11150180WA0223802356
B1959323929614N11150180WA0223802356
B1959333929614N11150180WA0223802356
B1959343929614N11150181WA0223802357
B1959353929614N11150181WA0223802357
B1959363929614N11150181WA0223802357
B1959373929614N11150181WA0223802357
B1959383929614N11150181WA0223802357
B1959393929614N11150181WA0223802357
B1959403929614N11150181WA0223802357
B1959413929614N11150181WA0223802357
B1959423929614N11150181WA0223802357
B1959433929614N11150181WA0223802357
B1959443929614N11150181WA0223802357
B1959453929614N11150181WA0223802357
B1959463929614N11150181WA0223802357
B1959473929614N11150181WA0223802357
B1959483929614N11150181WA0223802357
B1959493929614N11150181WA0223802357
B1959503929614N11150180WA0223802357
B1959513929614N11150180WA0223802357
B1959523929614N11150180WA0223802357
B1959533929614N11150180WA0223802356
B1959543929614N11150180WA0223802356
B1959553929614N11150180WA0223802356
B1959563929614N11150180WA0223802356
B1959573929614N11150180WA0223802356
B1959583929614N11150180WA0223802356
B1959593929614N11150180WA0223802356
B2000003929614N11150180WA0223802356
B2000013929614N11150180WA0223802356
B2000023929614N11150180WA0223802356
B2000033929614N11150180WA0223802356
B2000043929615N11150180WA0223802356
B2000053929615N11150180WA0223802356
B2000063929615N11150180WA0223802356
B2000073929615N11150180WA0223802355
B2000083929615N11150180WA0223802355
B2000093929615N11150180WA0223802355
B2000103929615N11150179WA0223802355
B2000113929615N11150179WA0223802355
B2000123929615N11150179WA0223802355
B2000133929615N11150179WA0223802354
B2000143929615N11150179WA0223802354
B2000153929615N11150179WA0223802354
B2000163929615N11150178WA0223802354
B2000173929615N11150178WA0223802354
B2000183929615N11150178WA0223802353
B2000193929615N11150178WA0223802353
B2000203929615N11150178WA0223802354
B2000213929616N11150178WA0223802354
B2000223929616N11150177WA0223802354
B2000233929616N11150177WA0223802354
B2000243929617N11150176WA0223802354
B2000253929617N11150176WA0223802354
B2000263929617N11150176WA0223802354
B2000273929617N11150175WA0223802354
B2000283929617N11150175WA0223802354
B2000293929618N11150174WA0223802355
B2000303929618N11150174WA0223802355
B2000313929618N11150174WA0223902355
B2000323929618N11150174WA0223902356
B2000333929618N11150173WA0223902355
B2000343929618N11150173WA0223902355
B2000353929618N11150173WA0223902355
B2000363929618N11150173WA0223902354
B2000373929617N11150173WA0223902354
B2000383929617N11150172WA0223902355
B2000393929617N11150172WA0223902354
B2000403929617N11150172WA0224002354
B2000413929616N11150172WA0224002354
B2000423929616N11150172WA0224002354
B2000433929616N11150172WA0224002355
B2000443929615N11150172WA0224002355
B2000453929615N11150172WA0224002355
B2000463929615N11150172WA0224002355
B2000473929615N11150172WA0224002355
B2000483929614N11150172WA0224002355
B2000493929614N11150172WA0224002355
B2000503929614N11150172WA0224102355
B2000513929614N11150171WA0224102355
B2000523929613N11150171WA0224102355
B2000533929613N11150171WA0224102355
B2000543929613N11150171WA0224102355
B2000553929613N11150171WA0224102356
B2000563929613N11150171WA0224102356
B2000573929613N11150171WA0224102356
B2000583929613N11150171WA0224202357
B2000593929613N11150171WA0224202358
B2001003929613N11150171WA0224202358
B2001013929613N11150170WA0224202358
B2001023929613N11150170WA0224202359
B2001033929613N11150170WA0224202359
B2001043929613N11150169WA0224202359
B2001053929613N11150169WA0224302359
B2001063929613N11150169WA0224302359
B2001073929613N11150169WA0224302359
B2001083929613N11150168WA0224302360
B2001093929613N11150168WA0224302360
B2001103929612N11150168WA0224302360
B2001113929612N11150168WA0224402360
B2001123929612N11150168WA0224402361
B2001133929612N11150167WA0224402361
B2001143929612N11150167WA0224402361
B2001153929612N11150167WA0224402362
B2001163929612N11150167WA0224402362
B2001173929612N11150166WA0224502362
B2001183929611N11150166WA0224502362
B2001193929611N11150166WA0224502363
B2001203929611N11150165WA0224502363
B2001213929611N11150165WA0224502363
B2001223929611N11150165WA0224602364
B2001233929611N11150165WA0224602363
B2001243929611N11150164WA0224602363
B2001253929611N11150164WA0224602363
B2001263929611N11150163WA0224602363
B2001273929611N11150163WA0224602363
B2001283929611N11150162WA0224602362
B2001293929611N11150162WA0224702362
B2001303929612N11150161WA0224702362
B2001313929612N11150161WA0224702362
B2001323929612N11150161WA0224702362
B2001333929612N11150161WA0224702362
B2001343929612N11150161WA0224702363
B2001353929613N11150161WA0224802363
B2001363929613N11150161WA0224802363
B2001373929613N11150161WA0224802363
B2001383929612N11150161WA0224802363
B2001393929612N11150161WA0224802363
B2001403929612N11150161WA0224802364
B2001413929612N11150161WA0224802364
B2001423929612N11150161WA0224802364
B2001433929612N11150161WA0224802364
B2001443929612N11150161WA0224802365
B2001453929612N11150161WA0224802365
B2001463929612N11150161WA0224802365
B2001473929612N11150161WA0224802365
B2001483929612N11150161WA0224802365
B2001493929612N11150161WA0224802365
B2001503929612N11150161WA0224802365
B2001513929612N11150161WA0224902365
B2001523929612N11150161WA0224802365
B2001533929612N11150161WA0224802365
B2001543929612N11150161WA0224802366
B2001553929612N11150161WA0224902366
B2001563929611N11150161WA0224802366
B2001573929611N11150161WA0224802366
B2001583929611N11150162WA0224902366
B2001593929611N11150162WA0224902366
B2002003929611N11150162WA0224902366
B2002013929611N11150162WA0224902367
B2002023929611N11150162WA0224902366
B2002033929611N11150162WA0224902366
B2002043929611N11150161WA0224902366
B2002053929611N11150162WA0224902366
B2002063929611N11150162WA0224902366
B2002073929611N11150161WA0224902366
B2002083929611N11150161WA0224902366
B2002093929611N11150161WA0224902366
B2002103929611N11150161WA0224902366
B2002113929611N11150161WA0224902366
B2002123929611N11150161WA0224902366
B2002133929611N11150161WA0224902365
B2002143929611N11150161WA0224902365
B2002153929611N11150161WA0224902365
B2002163929611N11150161WA0224902365
B2002173929611N11150161WA0224902365
B2002183929611N11150161WA0224902365
B2002193929611N11150161WA0224802365
B2002203929611N11150161WA0224802365
B2002213929611N11150161WA0224802365
B2002223929611N11150161WA0224802365
B2002233929611N11150161WA0224802365
B2002243929611N11150161WA0224802365
B2002253929611N11150161WA0224802365
B2002263929611N11150161WA0224802365
B2002273929611N11150161WA0224802366
B2002283929611N11150161WA0224802366
B2002293929611N11150161WA0224802366
B2002303929611N11150161WA0224802366
B2002313929611N11150161WA0224802366
B2002323929611N11150161WA0224802366
B2002333929611N11150161WA0224802366
B2002343929611N11150161WA0224802367
B2002353929610N11150161WA0224802367
B2002363929610N11150161WA0224802367
B2002373929611N11150161WA0224802367
B2002383929611N11150161WA0224802367
B2002393929611N11150161WA0224802367
B2002403929610N11150161WA0224802367
B2002413929610N11150161WA0224802367
B2002423929611N11150161WA0224802367
B2002433929611N11150161WA0224802367
B2002443929611N11150161WA0224802366
B2002453929611N11150161WA0224802366
B2002463929611N11150161WA0224802366
B2002473929611N11150161WA0224802366
B2002483929611N11150161WA0224802366
B2002493929611N11150161WA0224802366
B2002503929611N11150161WA0224802366
B2002513929611N11150161WA0224802366
B2002523929611N11150161WA0224802366
B2002533929611N11150161WA0224802366
B2002543929611N11150161WA0224802366
B2002553929611N11150161WA0224802366
B2002563929611N11150161WA0224802366
B2002573929611N11150161WA0224802366
B2002583929611N11150161WA0224902366
B2002593929611N11150161WA0224902366
B2003003929611N11150161WA0224802366
B2003013929611N11150161WA0224802366
B2003023929611N11150161WA0224802366
B2003033929611N11150161WA0224802366
B2003043929611N11150161WA0224802366
B2003053929612N11150161WA0224802366
B2003063929612N11150161WA0224802366
B2003073929612N11150161WA0224802366
B2003083929612N11150161WA0224802366
B2003093929612N11150161WA0224802366
B2003103929612N11150161WA0224802366
B2003113929612N11150161WA0224802366
B2003123929612N11150161WA0224802365
B2003133929612N11150161WA0224802365
B2003143929612N11150161WA0224802365
B2003153929612N11150161WA0224802365
B2003163929612N11150161WA0224802365
B2003173929612N11150161WA0224802365
B2003183929612N11150161WA0224902365
B2003193929612N11150161WA0224902365
B2003203929612N11150161WA0224902365
B2003213929612N11150161WA0224902365
B2003223929612N11150161WA0224902365
B2003233929612N11150161WA0224802365
B2003243929612N11150161WA0224802365
B2003253929612N11150161WA0224902365
B2003263929612N11150161WA0224802365
B2003273929612N11150161WA0224902365
B2003283929612N11150161WA0224902365
B2003293929612N11150161WA0224902365
B2003303929612N11150161WA0224902365
B2003313929612N11150161WA0224902365
B2003323929612N11150161WA0224902365
B2003333929613N11150160WA0224902365
B2003343929613N11150160WA0224902365
B2003353929613N11150160WA0224902365
B2003363929613N11150160WA0224902365
B2003373929612N11150160WA0224902365
B2003383929612N11150161WA0224902365
B2003393929612N11150160WA0224902365
B2003403929612N11150160WA0224902365
B2003413929612N11150160WA0224902366
B2003423929612N11150160WA0224902366
B2003433929612N11150160WA0224902366
B2003443929612N11150160WA0224902366
B2003453929612N11150160WA0224902366
B2003463929612N11150161WA0224902366
B2003473929612N11150161WA0224902366
B2003483929612N11150161WA0224902366
B2003493929612N11150161WA0224902366
B2003503929612N11150161WA0224902366
B2003513929612N11150161WA0224902366
B2003523929611N11150161WA0224902366
B2003533929611N11150161WA0224902366
B2003543929611N11150161WA0224902366
B2003553929611N11150161WA0224902367
B2003563929611N11150161WA0224902367
B2003573929611N11150161WA0224902367
B2003583929611N11150161WA0224902367
B2003593929611N11150161WA0224902367
B2004003929611N11150161WA0224902367
B2004013929611N11150161WA0224902367
B2004023929611N11150161WA0224902367
B2004033929611N11150161WA0224902367
B2004043929611N11150161WA0224902367
B2004053929611N11150161WA0224902367
B2004063929611N11150161WA0224902367
B2004073929611N11150161WA0224902367
B2004083929611N11150161WA0224902367
B2004093929611N11150161WA0224902367
B2004103929611N11150161WA0224902367
B2004113929611N11150161WA0224902367
B2004123929611N11150161WA0224902367
B2004133929611N11150161WA0224902367
B2004143929611N11150161WA0224902367
B2004153929611N11150161WA0224902368
B2004163929611N11150161WA0224902368
B2004173929611N11150161WA0224902368
B2004183929611N11150161WA0224902368
B2004193929611N11150161WA0224902368
B2004203929611N11150161WA0224902368
B2004213929611N11150161WA0224902368
B2004223929611N11150161WA0224902368
B2004233929611N11150161WA0224902368
B2004243929611N11150161WA0224902368
B2004253929611N11150161WA0224902368
B2004263929611N11150161WA0224902368
B2004273929611N11150161WA0224902368
B2004283929611N11150161WA0224902368
B2004293929611N11150161WA0224902368
B2004303929611N11150161WA0224902368
B2004313929611N11150161WA0224902367
B2004323929611N11150161WA0224902367
B2004333929611N11150161WA0224902367
B2004343929611N11150161WA0224902367
B2004353929611N11150161WA0224902367
B2004363929611N11150161WA0224902367
B2004373929611N11150161WA0224902367
B2004383929611N11150161WA0224902367
B2004393929611N11150161WA0224902367
B2004403929611N11150161WA0224902367
B2004413929611N11150161WA0224902367
B2004423929611N11150161WA0224902367
B2004433929611N11150161WA0224902367
B2004443929611N11150161WA0224902367
B2004453929611N11150160WA0224902367
B2004463929611N11150160WA0224902367
B2004473929611N11150160WA0224902367
B2004483929611N11150160WA0224902367
B2004493929611N11150160WA0224902367
B2004503929611N11150160WA0224902367
B2004513929611N11150160WA0224902367
B2004523929611N11150160WA0224902367
B2004533929611N11150160WA0224902367
B2004543929611N11150160WA0224902367
B2004553929611N11150160WA0224902367
B2004563929611N11150160WA0224902367
B2004573929611N11150160WA0224902367
B2004583929611N11150160WA0224902367
B2004593929611N11150160WA0224902367
B2005003929611N11150160WA0224902367
B2005013929611N11150160WA0224902367
B2005023929611N11150160WA0224902367
B2005033929611N11150160WA0224902367
B2005043929611N11150160WA0224902367
B2005053929611N11150160WA0224902367
B2005063929611N11150160WA0224902367
B2005073929611N11150160WA0224902367
B2005083929611N11150160WA0224902367
B2005093929611N11150161WA0224902367
B2005103929611N11150161WA0224902367
B2005113929611N11150161WA0224902367
B2005123929611N11150161WA0224902367
B2005133929611N11150161WA0224902366
B2005143929611N11150161WA0224902366
B2005153929611N11150161WA0224902366
B2005163929611N11150161WA0224902366
B2005173929611N11150161WA0224902366
B2005183929611N11150161WA0224902367
B2005193929611N11150161WA0224902367
B2005203929611N11150161WA0224902367
B2005213929611N11150161WA0224902367
B2005223929611N11150161WA0224902367
B2005233929611N11150161WA0224902366
B2005243929611N11150161WA0224902366
B2005253929611N11150161WA0224902366
B2005263929611N11150161WA0224902366
B2005273929611N11150161WA0224902366
B2005283929611N11150161WA0224902366
B2005293929611N11150161WA0224902366
B2005303929611N11150161WA0224902366
B2005313929612N11150161WA0224902366
B2005323929612N11150161WA0224902366
B2005333929612N11150161WA0224902366
B2005343929612N11150161WA0224902366
B2005353929612N11150160WA0224902366
B2005363929612N11150160WA0224902366
B2005373929612N11150160WA0224902366
B2005383929612N11150160WA0224902366
B2005393929612N11150160WA0224902366
B2005403929612N11150160WA0224902366
B2005413929612N11150160WA0224902366
B2005423929612N11150160WA0224902365
B2005433929612N11150160WA0224902365
B2005443929612N11150160WA0224902365
B2005453929612N11150160WA0224902365
B2005463929612N11150160WA0224902365
B2005473929612N11150160WA0224902365
B2005483929612N11150160WA0224902364
B2005493929612N11150160WA0224902364
B2005503929612N11150161WA0224902364
B2005513929612N11150161WA0224902364
B2005523929612N11150161WA0224902364
B2005533929612N11150161WA0224902363
B2005543929612N11150161WA0224902363
B2005553929612N11150161WA0224902363
B2005563929612N11150161WA0224902363
B2005573929612N11150161WA0224902363
B2005583929612N11150161WA0224902363
B2005593929612N11150161WA0224902363
B2006003929612N11150161WA0224902362
B2006013929612N11150161WA0224902362
B2006023929612N11150161WA0224902362
B2006033929612N11150161WA0224902362
B2006043929612N11150161WA0224902362
B2006053929612N11150161WA0224902362
B2006063929612N11150161WA0224902362
B2006073929612N11150161WA0224902362
B2006083929612N11150161WA0224902362
B2006093929612N11150161WA0224902362
B2006103929612N11150161WA0224902362
B2006113929612N11150161WA0224902362
B2006123929612N11150161WA0224902362
B2006133929612N11150161WA0224902362
B2006143929612N11150161WA0224902362
B2006153929612N11150161WA0224902362
B2006163929612N11150161WA0224902362
B2006173929612N11150161WA0224902362
B2006183929612N11150161WA0224902362
B2006193929612N11150161WA0224902362
B2006203929612N11150161WA0224902362
B2006213929612N11150161WA0224902362
B2006223929612N11150161WA0224902362
B2006233929612N11150161WA0224902362
B2006243929612N11150161WA0224902362
B2006253929612N11150161WA0224902363
B2006263929612N11150161WA0224902363
B2006273929612N11150161WA0224902363
B2006283929612N11150162WA0224902363
B2006293929612N11150162WA0224902363
B2006303929612N11150162WA0224902363
B2006313929612N11150162WA0224902364
B2006323929612N11150162WA0224902364
B2006333929612N11150162WA0224902364
B2006343929612N11150162WA0224902364
B2006353929612N11150162WA0224902364
B2006363929612N11150162WA0224902364
B2006373929612N11150162WA0224902364
B2006383929612N11150162WA0224902364
B2006393929612N11150162WA0224902364
B2006403929612N11150162WA0224902364
B2006413929612N11150162WA0224902364
B2006423929612N11150162WA0224902364
B2006433929612N11150162WA0224902364
B2006443929612N11150162WA0224902364
B2006453929612N11150162WA0224902364
B2006463929612N11150162WA0224902364
B2006473929612N11150162WA0224902364
B2006483929612N11150162WA0224902364
B2006493929612N11150162WA0224902364
B2006503929612N11150162WA0224902364
B2006513929612N11150162WA0224902364
B2006523929612N11150162WA0224902364
B2006533929612N11150162WA0224902364
B2006543929612N11150162WA0224902364
B2006553929612N11150162WA0224902364
B2006563929612N11150162WA0224902364
B2006573929612N11150162WA0224902364
B2006583929612N11150162WA0225002364
B2006593929612N11150162WA0224902364
B2007003929612N11150162WA0224902364
B2007013929612N11150162WA0224902364
B2007023929611N11150162WA0224902364
B2007033929611N11150162WA0224902364
B2007043929611N11150162WA0224902364
B2007053929611N11150162WA0224902364
B2007063929611N11150162WA0224902364
B2007073929611N11150162WA0224902364
B2007083929611N11150163WA0224902364
B2007093929612N11150162WA0224902364
B2007103929612N11150162WA0224902364
B2007113929612N11150162WA0224902365
B2007123929612N11150162WA0224902364
B2007133929612N11150162WA0224902364
B2007143929612N11150162WA0224902364
B2007153929612N11150162WA0224902364
B2007163929612N11150162WA0225002364
B2007173929612N11150162WA0225002364
B2007183929612N11150162WA0225002364
B2007193929612N11150162WA0225002365
B2007203929612N11150161WA0225002365
B2007213929613N11150161WA0225002365
B2007223929613N11150161WA0225002365
B2007233929613N11150161WA0225002365
B2007243929613N11150161WA0225002365
B2007253929613N11150161WA0225002366
B2007263929613N11150161WA0225002366
B2007273929613N11150161WA0225002366
B2007283929613N11150161WA0225002366
B2007293929613N11150161WA0225002366
B2007303929613N11150161WA0225002366
B2007313929613N11150161WA0225002366
B2007323929613N11150161WA0225002366
B2007333929613N11150161WA0225002366
B2007343929613N11150161WA0225002366
B2007353929614N11150161WA0225002366
B2007363929614N11150161WA0225002366
B2007373929614N11150161WA0225002366
B2007383929614N11150161WA0225002366
B2007393929614N11150161WA0225002366
B2007403929614N11150162WA0225002365
B2007413929614N11150162WA0225002365
B2007423929614N11150162WA0225002366
B2007433929614N11150161WA0225002365
B2007443929614N11150161WA0225002365
B2007453929614N11150162WA0225002365
B2007463929614N11150162WA0225002365
B2007473929614N11150161WA0225002365
B2007483929614N11150161WA0224902365
B2007493929614N11150161WA0225002365
B2007503929614N11150161WA0224902366
B2007513929614N11150162WA0224902366
B2007523929614N11150162WA0224902366
B2007533929614N11150162WA0224902366
B2007543929614N11150162WA0224902366
B2007553929614N11150162WA0224902366
B2007563929613N11150162WA0224902366
B2007573929613N11150162WA0224902367
B2007583929613N11150162WA0224902367
B2007593929613N11150162WA0224902367
B2008003929613N11150162WA0224902367
B2008013929613N11150162WA0224902367
B2008023929613N11150162WA0224902367
B2008033929613N11150162WA0224902367
B2008043929613N11150162WA0224902367
B2008053929613N11150162WA0224902368
B2008063929613N11150162WA0224902368
B2008073929613N11150162WA0224902368
B2008083929613N11150163WA0224902368
B2008093929613N11150163WA0224902368
B2008103929613N11150163WA0224902369
B2008113929613N11150163WA0224902369
B2008123929613N11150163WA0224902369
B2008133929613N11150163WA0224902369
B2008143929613N11150163WA0224902369
B2008153929613N11150163WA0224902369
B2008163929613N11150163WA0224902369
B2008173929613N11150163WA0224902369
B2008183929613N11150163WA0224902369
B2008193929613N11150163WA0224902369
B2008203929613N11150163WA0224902369
B2008213929613N11150163WA0224902369
B2008223929613N11150163WA0224902369
B2008233929613N11150163WA0224902370
B2008243929613N11150163WA0224902370
B2008253929613N11150163WA0224902370
B2008263929613N11150163WA0224902370
B2008273929613N11150163WA0224902370
B2008283929613N11150163WA0224902370
B2008293929613N11150163WA0224902370
B2008303929613N11150163WA0224902370
B2008313929613N11150163WA0224902369
B2008323929613N11150163WA0224902369
B2008333929613N11150163WA0224902369
B2008343929613N11150163WA0224902369
B2008353929613N11150163WA0224902369
B2008363929613N11150163WA0224902369
B2008373929613N11150163WA0224902369
B2008383929613N11150163WA0224902369
B2008393929613N11150163WA0224902369
B2008403929613N11150163WA0224902369
B2008413929613N11150163WA0224902369
B2008423929613N11150163WA0224902368
B2008433929613N11150163WA0224902368
B2008443929613N11150163WA0224902368
B2008453929613N11150163WA0224902368
B2008463929613N11150163WA0224902368
B2008473929613N11150163WA0224902367
B2008483929614N11150163WA0224902367
B2008493929614N11150163WA0224902367
B2008503929614N11150163WA0224902367
B2008513929614N11150163WA0224902366
B2008523929614N11150163WA0224902366
B2008533929614N11150164WA0224902366
B2008543929614N11150164WA0224902366
B2008553929614N11150164WA0224902366
B2008563929614N11150164WA0224902366
B2008573929614N11150165WA0224902366
B2008583929614N11150166WA0224902366
B2008593929614N11150168WA0224802365
B2009003929614N11150171WA0224802365
B2009013929614N11150175WA0224802365
B2009023929613N11150179WA0224702365
B2009033929611N11150183WA0224702363
B2009043929609N11150187WA0224702364
B2009053929607N11150191WA0224602364
B2009063929606N11150195WA0224702365
B2009073929604N11150199WA0224702365
B2009083929603N11150203WA0224702366
B2009093929603N11150208WA0224702366
B2009103929604N11150212WA0224702366
B2009113929606N11150217WA0224702366
B2009123929608N11150221WA0224702366
B2009133929610N11150224WA0224802367
B2009143929613N11150226WA0224802367
B2009153929617N11150228WA0224802367
B2009163929620N11150230WA0224802367
B2009173929624N11150233WA0224802366
B2009183929627N11150236WA0224802365
B2009193929631N11150240WA0224702364
B2009203929634N11150243WA0224702364
B2009213929637N11150244WA0224702365
B2009223929640N11150246WA0224702366
B2009233929642N11150248WA0224702365
B2009243929645N11150251WA0224702364
B2009253929649N11150254WA0224702361
B2009263929653N11150255WA0224602359
B2009273929659N11150255WA0224502356
B2009283929665N11150252WA0224402354
B2009293929671N11150249WA0224302354
B2009303929677N11150248WA0224202355
B2009313929682N11150249WA0224102356
B2009323929685N11150250WA0224102357
B2009333929688N11150251WA0224102357
B2009343929691N11150253WA0224002356
B2009353929694N11150256WA0224002353
B2009363929697N11150261WA0223802349
B2009373929700N11150266WA0223702347
B2009383929701N11150272WA0223602346
B2009393929702N11150277WA0223502346
B2009403929704N11150281WA0223402346
B2009413929707N11150284WA0223302344
B2009423929712N11150286WA0223202341
B2009433929717N11150288WA0223002339
B2009443929722N11150290WA0222902338
B2009453929726N11150294WA0222802338
B2009463929728N11150298WA0222702337
B2009473929730N11150302WA0222602336
B2009483929734N11150305WA0222502335
B2009493929739N11150306WA0222502333
B2009503929744N11150306WA0222302331
B2009513929750N11150305WA0222202331
B2009523929755N11150305WA0222202331
B2009533929759N11150306WA0222102331
B2009543929763N11150307WA0222102330
B2009553929768N11150308WA0222102330
B2009563929773N11150308WA0222002329
B2009573929777N11150310WA0222002329
B2009583929780N11150313WA0221902328
B2009593929783N11150317WA0221902327
B2010003929785N11150321WA0221802326
B2010013929788N11150324WA0221802325
B2010023929790N11150327WA0221702325
B2010033929791N11150331WA0221702323
B2010043929793N11150336WA0221602321
B2010053929795N11150341WA0221502318
B2010063929798N11150345WA0221302316
B2010073929802N11150349WA0221202317
B2010083929805N11150352WA0221202318
B2010093929807N11150356WA0221102318
B2010103929809N11150361WA0221102320
B2010113929809N11150366WA0221002319
B2010123929810N11150371WA0221002318
B2010133929811N11150376WA0221002318
B2010143929811N11150381WA0220902317
B2010153929811N11150387WA0220802316
B2010163929811N11150392WA0220802316
B2010173929811N11150397WA0220702316
B2010183929811N11150403WA0220702316
B2010193929811N11150409WA0220602314
B2010203929811N11150415WA0220502314
B2010213929812N11150422WA0220502313
B2010223929813N11150426WA0220502315
B2010233929814N11150430WA0220502316
B2010243929817N11150432WA0220502317
B2010253929819N11150436WA0220502316
B2010263929821N11150441WA0220502315
B2010273929824N11150446WA0220502314
B2010283929826N11150451WA0220502314
B2010293929828N11150455WA0220502314
B2010303929830N11150459WA0220402314
B2010313929832N11150464WA0220402313
B2010323929834N11150470WA0220302311
B2010333929835N11150477WA0220202309
B2010343929837N11150483WA0220102308
B2010353929839N11150488WA0220102308
B2010363929841N11150493WA0220002308
B2010373929844N11150497WA0219902307
B2010383929847N11150501WA0219802305
B2010393929850N11150507WA0219702302
B2010403929853N11150512WA0219502299
B2010413929856N11150517WA0219402296
B2010423929859N11150522WA0219202294
B2010433929862N11150526WA0219102292
B2010443929866N11150530WA0218902290
B2010453929870N11150534WA0218702288
B2010463929875N11150538WA0218502285
B2010473929879N11150543WA0218302284
B2010483929881N11150548WA0218102284
B2010493929883N11150553WA0218002284
B2010503929885N11150558WA0217902283
B2010513929886N11150563WA0217802282
B2010523929888N11150569WA0217702281
B2010533929890N11150575WA0217602280
B2010543929891N11150581WA0217402279
B2010553929892N11150587WA0217302278
B2010563929893N11150592WA0217202276
B2010573929892N11150597WA0217102275
B2010583929891N11150602WA0216902271
B2010593929890N11150608WA0216802269
B2011003929889N11150614WA0216602267
B2011013929890N11150619WA0216502267
B2011023929892N11150622WA0216402266
B2011033929896N11150626WA0216302264
B2011043929900N11150631WA0216102261
B2011053929904N11150636WA0215902259
B2011063929906N11150641WA0215802257
B2011073929907N11150646WA0215602256
B2011083929910N11150651WA0215502254
B2011093929913N11150655WA0215402251
B2011103929918N11150659WA0215202249
B2011113929923N11150662WA0215002248
B2011123929928N11150666WA0214802247
B2011133929933N11150669WA0214702245
B2011143929937N11150673WA0214502244
B2011153929943N11150676WA0214402242
B2011163929948N11150678WA0214202240
B2011173929954N11150681WA0214002238
B2011183929960N11150684WA0213802236
B2011193929965N11150689WA0213702234
B2011203929970N11150694WA0213502233
B2011213929974N11150698WA0213302231
B2011223929979N11150702WA0213102230
B2011233929983N11150705WA0213002229
B2011243929987N11150709WA0212902228
B2011253929989N11150714WA0212802226
B2011263929992N11150720WA0212602223
B2011273929995N11150727WA0212402220
B2011283929998N11150734WA0212102217
B2011293930000N11150741WA0212002216
B2011303930001N11150747WA0211802215
B2011313930001N11150753WA0211702214
B2011323930000N11150758WA0211502212
B2011333930000N11150764WA0211402210
B2011343930001N11150770WA0211202208
B2011353930001N11150775WA0211002207
B2011363930002N11150781WA0210902205
B2011373930003N11150786WA0210802204
B2011383930004N11150791WA0210602203
B2011393930006N11150797WA0210502202
B2011403930006N11150802WA0210402202
B2011413930006N11150808WA0210402202
B2011423930006N11150813WA0210302202
B2011433930005N11150817WA0210302202
B2011443930005N11150821WA0210302202
B2011453930005N11150826WA0210302202
B2011463930006N11150831WA0210202200
B2011473930006N11150837WA0210102198
B2011483930007N11150843WA0210002196
B2011493930007N11150848WA0209902194
B2011503930008N11150853WA0209802191
B2011513930010N11150858WA0209602190
B2011523930013N11150863WA0209502188
B2011533930017N11150868WA0209302186
B2011543930021N11150873WA0209202184
B2011553930025N11150877WA0209002183
B2011563930028N11150880WA0208902183
B2011573930031N11150884WA0208802181
B2011583930035N11150889WA0208602178
B2011593930037N11150894WA0208502177
B2012003930038N11150899WA0208302175
B2012013930039N11150905WA0208102172
B2012023930040N11150911WA0207902169
B2012033930042N11150917WA0207702167
B2012043930044N11150922WA0207502165
B2012053930047N11150927WA0207402164
B2012063930049N11150932WA0207202163
B2012073930050N11150937WA0207002161
B2012083930052N11150943WA0206802159
B2012093930054N11150949WA0206702156
B2012103930056N11150956WA0206402154
B2012113930058N11150962WA0206302152
B2012123930060N11150967WA0206102152
B2012133930063N11150972WA0206002151
B2012143930066N11150977WA0205802149
B2012153930070N11150983WA0205602146
B2012163930074N11150991WA0205302142
B2012173930078N11151000WA0205202139
B2012183930083N11151008WA0204902137
B2012193930087N11151016WA0204702137
B2012203930088N11151024WA0204602139
B2012213930086N11151030WA0204502143
B2012223930084N11151035WA0204502145
B2012233930081N11151038WA0204602146
B2012243930079N11151041WA0204602146
B2012253930079N11151046WA0204602144
B2012263930079N11151051WA0204502142
B2012273930080N11151057WA0204502140
B2012283930082N11151062WA0204402139
B2012293930083N11151067WA0204402138
B2012303930083N11151072WA0204302138
B2012313930083N11151077WA0204202138
B2012323930081N11151082WA0204202137
B2012333930080N11151087WA0204102136
B2012343930078N11151092WA0204002134
B2012353930078N11151098WA0204002132
B2012363930079N11151104WA0203802130
B2012373930081N11151108WA0203702128
B2012383930084N11151112WA0203602126
B2012393930088N11151114WA0203502124
B2012403930092N11151115WA0203302123
B2012413930096N11151116WA0203202123
B2012423930101N11151119WA0203102122
B2012433930105N11151122WA0202902121
B2012443930109N11151126WA0202802121
B2012453930112N11151129WA0202802121
B2012463930114N11151133WA0202702123
B2012473930116N11151136WA0202702123
B2012483930117N11151140WA0202702122
B2012493930117N11151144WA0202602120
B2012503930118N11151149WA0202502119
B2012513930118N11151156WA0202502117
B2012523930117N11151162WA0202302116
B2012533930115N11151167WA0202302117
B2012543930113N11151171WA0202202117
B2012553930109N11151176WA0202202117
B2012563930105N11151180WA0202102115
B2012573930101N11151186WA0202002115
B2012583930097N11151191WA0202002115
B2012593930094N11151197WA0202002116
B2013003930092N11151202WA0202002117
B2013013930090N11151207WA0202002119
B2013023930087N11151211WA0202002119
B2013033930084N11151216WA0202102119
B2013043930081N11151221WA0202102118
B2013053930077N11151226WA0202102117
B2013063930074N11151232WA0202002116
B2013073930071N11151239WA0201902114
B2013083930069N11151245WA0201802113
B2013093930068N11151251WA0201802113
B2013103930065N11151256WA0201702113
B2013113930062N11151259WA0201702112
B2013123930058N11151264WA0201502109
B2013133930054N11151269WA0201402105
B2013143930051N11151276WA0201202100
B2013153930049N11151284WA0201002097
B2013163930048N11151292WA0200802094
B2013173930048N11151299WA0200602093
B2013183930048N11151306WA0200402092
B2013193930048N11151314WA0200302091
B2013203930048N11151321WA0200102091
B2013213930048N11151328WA0200102090
B2013223930048N11151335WA0199902089
B2013233930047N11151343WA0199802089
B2013243930045N11151349WA0199702090
B2013253930041N11151355WA0199602090
B2013263930036N11151359WA0199602091
B2013273930030N11151362WA0199502092
B2013283930025N11151365WA0199502092
B2013293930021N11151370WA0199502092
B2013303930018N11151377WA0199402090
B2013313930016N11151385WA0199302089
B2013323930015N11151393WA0199202088
B2013333930015N11151400WA0199102089
B2013343930015N11151406WA0199102090
B2013353930016N11151410WA0199102091
B2013363930016N11151415WA0199102092
B2013373930017N11151419WA0199102091
B2013383930017N11151424WA0199102088
B2013393930019N11151431WA0199002085
B2013403930021N11151439WA0198902082
B2013413930023N11151446WA0198802083
B2013423930024N11151452WA0198702086
B2013433930025N11151457WA0198802090
B2013443930025N11151461WA0198902093
B2013453930025N11151465WA0198902094
B2013463930026N11151471WA0199002094
B2013473930027N11151478WA0199002093
B2013483930027N11151486WA0199102093
B2013493930027N11151493WA0199102094
B2013503930027N11151500WA0199202096
B2013513930027N11151506WA0199202099
B2013523930028N11151512WA0199302101
B2013533930029N11151517WA0199402102
B2013543930029N11151523WA0199502103
B2013553930029N11151529WA0199502102
B2013563930028N11151536WA0199602103
B2013573930028N11151542WA0199602105
B2013583930028N11151548WA0199802107
B2013593930029N11151553WA0199902110
B2014003930030N11151559WA0200002112
B2014013930029N11151564WA0200202114
B2014023930028N11151571WA0200302116
B2014033930027N11151578WA0200402116
B2014043930026N11151584WA0200602117
B2014053930025N11151591WA0200702119
B2014063930024N11151597WA0200802122
B2014073930022N11151602WA0201002127
B2014083930020N11151607WA0201302131
B2014093930019N11151612WA0201402134
B2014103930017N11151618WA0201702136
B2014113930016N11151625WA0201802137
B2014123930015N11151631WA0202002140
B2014133930013N11151636WA0202202143
B2014143930010N11151640WA0202502145
B2014153930006N11151644WA0202702146
B2014163930002N11151649WA0202802146
B2014173929999N11151655WA0202902146
B2014183929996N11151662WA0203102145
B2014193929994N11151669WA0203202146
B2014203929992N11151676WA0203302148
B2014213929991N11151682WA0203402149
B2014223929991N11151690WA0203602149
B2014233929991N11151697WA0203602150
B2014243929991N11151703WA0203802151
B2014253929989N11151709WA0203902151
B2014263929985N11151715WA0204002151
B2014273929981N11151720WA0204002151
B2014283929977N11151725WA0204102151
B2014293929973N11151729WA0204102152
B2014303929969N11151733WA0204202154
B2014313929966N11151737WA0204302156
B2014323929962N11151742WA0204402157
B2014333929959N11151747WA0204502158
B2014343929955N11151752WA0204602157
B2014353929952N11151757WA0204602157
B2014363929950N11151763WA0204702156
B2014373929947N11151769WA0204702153
B2014383929945N11151777WA0204602149
B2014393929942N11151785WA0204502146
B2014403929940N11151793WA0204402143
B2014413929937N11151800WA0204302141
B2014423929935N11151808WA0204202141
B2014433929932N11151814WA0204102140
B2014443929929N11151820WA0204002139
B2014453929927N11151826WA0203902137
B2014463929924N11151833WA0203802134
B2014473929922N11151839WA0203602132
B2014483929918N11151845WA0203402130
B2014493929914N11151851WA0203302129
B2014503929910N11151855WA0203202128
B2014513929905N11151859WA0203102128
B2014523929901N11151864WA0203002127
B2014533929898N11151868WA0202902127
B2014543929894N11151872WA0202702126
B2014553929889N11151876WA0202702125
B2014563929885N11151879WA0202502124
B2014573929880N11151881WA0202402122
B2014583929874N11151883WA0202302121
B2014593929869N11151887WA0202202120
B2015003929864N11151891WA0202102119
B2015013929859N11151895WA0202002117
B2015023929854N11151899WA0201802116
B2015033929849N11151903WA0201702116
B2015043929844N11151906WA0201602115
B2015053929839N11151911WA0201502116
B2015063929835N11151916WA0201402116
B2015073929832N11151923WA0201402115
B2015083929830N11151930WA0201302115
B2015093929828N11151935WA0201202117
B2015103929825N11151939WA0201302120
B2015113929823N11151943WA0201402123
B2015123929821N11151947WA0201402124
B2015133929821N11151952WA0201402122
B2015143929823N11151959WA0201402119
B2015153929826N11151965WA0201402117
B2015163929830N11151971WA0201402115
B2015173929834N11151976WA0201302115
B2015183929839N11151980WA0201302116
B2015193929843N11151983WA0201302116
B2015203929848N11151986WA0201302116
B2015213929852N11151989WA0201302116
B2015223929856N11151994WA0201302114
B2015233929859N11152001WA0201202109
B2015243929863N11152008WA0201202107
B2015253929866N11152015WA0201102106
B2015263929867N11152022WA0201002104
B2015273929866N11152029WA0200902102
B2015283929865N11152035WA0200802099
B2015293929864N11152041WA0200602097
B2015303929863N11152048WA0200502095
B2015313929862N11152054WA0200302092
B2015323929861N11152060WA0200102089
B2015333929858N11152067WA0199902086
B2015343929855N11152073WA0199602082
B2015353929851N11152079WA0199402078
B2015363929848N11152085WA0199002076
B2015373929845N11152091WA0198802075
B2015383929842N11152095WA0198602073
B2015393929838N11152099WA0198402071
B2015403929834N11152103WA0198102068
B2015413929830N11152108WA0197902065
B2015423929827N11152113WA0197602063
B2015433929824N11152118WA0197402061
B2015443929821N11152123WA0197102059
B2015453929818N11152128WA0197002058
B2015463929814N11152132WA0196702056
B2015473929810N11152136WA0196602054
B2015483929807N11152141WA0196302053
B2015493929804N11152146WA0196202053
B2015503929802N11152150WA0196002052
B2015513929800N11152153WA0196002053
B2015523929796N11152157WA0195802052
B2015533929793N11152162WA0195702049
B2015543929789N11152169WA0195502047
B2015553929786N11152175WA0195402047
B2015563929785N11152180WA0195302046
B2015573929784N11152184WA0195302047
B2015583929782N11152188WA0195302048
B2015593929779N11152192WA0195302047
B2016003929777N11152197WA0195202044
B2016013929774N11152203WA0195102041
B2016023929771N11152208WA0195002041
B2016033929768N11152214WA0195002041
B2016043929765N11152218WA0195002042
B2016053929762N11152221WA0195002043
B2016063929759N11152225WA0195002043
B2016073929755N11152229WA0194902042
B2016083929751N11152235WA0194902040
B2016093929747N11152241WA0194802040
B2016103929743N11152246WA0194802040
B2016113929739N11152251WA0194802041
B2016123929735N11152255WA0194802042
B2016133929731N11152259WA0194902043
B2016143929727N11152264WA0194902043
B2016153929723N11152268WA0194902045
B2016163929717N11152271WA0194902047
B2016173929713N11152272WA0195002049
B2016183929708N11152273WA0195202051
B2016193929703N11152274WA0195202051
B2016203929698N11152277WA0195302050
B2016213929693N11152281WA0195302048
B2016223929687N11152286WA0195302048
B2016233929683N11152291WA0195302049
B2016243929680N11152295WA0195402053
B2016253929676N11152299WA0195502055
B2016263929672N11152303WA0195602055
B2016273929668N11152307WA0195602053
B2016283929663N11152312WA0195602052
B2016293929658N11152316WA0195602053
B2016303929655N11152320WA0195702053
B2016313929651N11152323WA0195702054
B2016323929648N11152327WA0195702053
B2016333929643N11152331WA0195702051
B2016343929638N11152335WA0195602049
B2016353929633N11152339WA0195502048
B2016363929628N11152342WA0195402047
B2016373929623N11152346WA0195402047
B2016383929619N11152350WA0195302047
B2016393929614N11152353WA0195302046
B2016403929609N11152356WA0195202045
B2016413929604N11152359WA0195102043
B2016423929598N11152362WA0195002042
B2016433929593N11152364WA0194902042
B2016443929588N11152366WA0194802042
B2016453929583N11152368WA0194702041
B2016463929578N11152369WA0194602040
B2016473929572N11152371WA0194502039
B2016483929566N11152373WA0194402038
B2016493929561N11152375WA0194302038
B2016503929556N11152378WA0194202037
B2016513929552N11152382WA0194102036
B2016523929548N11152385WA0194002035
B2016533929544N11152390WA0193902034
B2016543929541N11152395WA0193802033
B2016553929538N11152399WA0193702033
B2016563929534N11152402WA0193602032
B2016573929531N11152403WA0193502032
B2016583929526N11152403WA0193402030
B2016593929520N11152403WA0193302028
B2017003929515N11152405WA0193102026
B2017013929510N11152407WA0192902026
B2017023929507N11152409WA0192802025
B2017033929503N11152411WA0192802025
B2017043929498N11152412WA0192602023
B2017053929493N11152415WA0192502019
B2017063929489N11152418WA0192302018
B2017073929487N11152423WA0192202018
B2017083929486N11152427WA0192102018
B2017093929484N11152430WA0192002017
B2017103929480N11152433WA0191802014
B2017113929476N11152439WA0191702008
B2017123929473N11152445WA0191402005
B2017133929472N11152453WA0191202003
B2017143929471N11152459WA0191002002
B2017153929470N11152463WA0190902001
B2017163929468N11152466WA0190802001
B2017173929464N11152469WA0190701998
B2017183929460N11152474WA0190401992
B2017193929458N11152482WA0190201987
B2017203929458N11152490WA0189901984
B2017213929460N11152497WA0189701982
B2017223929462N11152502WA0189501981
B2017233929463N11152507WA0189401981
B2017243929462N11152513WA0189201978
B2017253929461N11152519WA0189001972
B2017263929460N11152525WA0188801970
B2017273929458N11152530WA0188701969
B2017283929455N11152534WA0188501968
B2017293929450N11152537WA0188301965
B2017303929445N11152537WA0188001962
B2017313929439N11152536WA0187901960
B2017323929434N11152536WA0187701959
B2017333929429N11152537WA0187501957
B2017343929424N11152539WA0187301955
B2017353929420N11152543WA0187101953
B2017363929416N11152546WA0186901951
B2017373929410N11152548WA0186701948
B2017383929405N11152547WA0186501946
B2017393929399N11152544WA0186301942
B2017403929395N11152538WA0186001938
B2017413929392N11152530WA0185801936
B2017423929390N11152522WA0185601934
B2017433929390N11152514WA0185401932
B2017443929392N11152505WA0185101930
B2017453929394N11152496WA0184901928
B2017463929397N11152488WA0184701925
B2017473929401N11152480WA0184501922
B2017483929405N11152473WA0184201919
B2017493929410N11152465WA0184001916
B2017503929414N11152458WA0183701914
B2017513929418N11152450WA0183501913
B2017523929422N11152443WA0183301912
B2017533929426N11152436WA0183101910
B2017543929430N11152429WA0182901909
B2017553929434N11152422WA0182701907
B2017563929439N11152415WA0182501905
B2017573929444N11152408WA0182401903
B2017583929449N11152401WA0182101902
B2017593929454N11152395WA0182001901
B2018003929459N11152389WA0181901900
B2018013929464N11152383WA0181801898
B2018023929469N11152378WA0181601897
B2018033929474N11152372WA0181501895
B2018043929480N11152367WA0181301893
B2018053929485N11152361WA0181201891
B2018063929491N11152356WA0181001889
B2018073929497N11152351WA0180901887
B2018083929503N11152346WA0180701885
B2018093929509N11152342WA0180501883
B2018103929515N11152337WA0180301881
B2018113929521N11152333WA0180201880
B2018123929527N11152329WA0180001878
B2018133929533N11152325WA0179901876
B2018143929539N11152322WA0179701874
B2018153929545N11152319WA0179501871
B2018163929551N11152315WA0179201869
B2018173929557N11152312WA0179101867
B2018183929563N11152308WA0178901866
B2018193929569N11152305WA0178701865
B2018203929575N11152301WA0178501863
B2018213929580N11152297WA0178401862
B2018223929586N11152293WA0178201860
B2018233929591N11152288WA0178101859
B2018243929596N11152283WA0177901858
B2018253929601N11152278WA0177801856
B2018263929606N11152273WA0177601855
B2018273929611N11152268WA0177501853
B2018283929616N11152262WA0177401852
B2018293929620N11152257WA0177201850
B2018303929625N11152252WA0177101848
B2018313929631N11152246WA0176901846
B2018323929636N11152241WA0176701844
B2018333929641N11152235WA0176601842
B2018343929646N11152229WA0176401841
B2018353929650N11152222WA0176301839
B2018363929655N11152216WA0176101838
B2018373929659N11152210WA0176001837
B2018383929664N11152205WA0175901836
B2018393929667N11152199WA0175801834
B2018403929670N11152193WA0175601833
B2018413929671N11152185WA0175501832
B2018423929670N11152177WA0175301829
B2018433929666N11152169WA0175201827
B2018443929660N11152166WA0175001825
B2018453929654N11152165WA0174901823
B2018463929649N11152168WA0174701822
B2018473929646N11152174WA0174601821
B2018483929645N11152180WA0174501822
B2018493929646N11152185WA0174401822
B2018503929648N11152188WA0174301821
B2018513929651N11152192WA0174201819
B2018523929654N11152195WA0174101817
B2018533929659N11152198WA0174001813
B2018543929664N11152200WA0173801810
B2018553929670N11152200WA0173601808
B2018563929676N11152198WA0173401805
B2018573929681N11152194WA0173301804
B2018583929685N11152188WA0173101802
B2018593929687N11152181WA0173001800
B2019003929688N11152172WA0172801798
B2019013929687N11152164WA0172601797
B2019023929684N11152158WA0172401795
B2019033929679N11152153WA0172301794
B2019043929674N11152151WA0172101792
B2019053929668N11152152WA0171901790
B2019063929664N11152155WA0171701789
B2019073929661N11152161WA0171601787
B2019083929661N11152166WA0171401786
B2019093929661N11152171WA0171301786
B2019103929661N11152176WA0171201784
B2019113929662N11152181WA0171001783
B2019123929663N11152187WA0170901781
B2019133929664N11152193WA0170701778
B2019143929667N11152199WA0170501775
B2019153929672N11152203WA0170401773
B2019163929676N11152206WA0170201772
B2019173929681N11152208WA0170101770
B2019183929686N11152208WA0169901769
B2019193929692N11152207WA0169801767
B2019203929698N11152205WA0169601765
B2019213929704N11152203WA0169401762
B2019223929711N11152200WA0169201760
B2019233929717N11152197WA0169001759
B2019243929723N11152195WA0168901758
B2019253929729N11152192WA0168701758
B2019263929734N11152190WA0168601757
B2019273929739N11152187WA0168501756
B2019283929745N11152183WA0168301753
B2019293929750N11152178WA0168201752
B2019303929756N11152173WA0168001750
B2019313929762N11152168WA0167901750
B2019323929767N11152165WA0167801751
B2019333929773N11152163WA0167701751
B2019343929778N11152161WA0167701752
B2019353929783N11152159WA0167601752
B2019363929789N11152156WA0167601752
B2019373929795N11152153WA0167501752
B2019383929801N11152150WA0167401752
B2019393929807N11152147WA0167401753
B2019403929812N11152146WA0167401754
B2019413929817N11152145WA0167401754
B2019423929821N11152145WA0167401753
B2019433929826N11152145WA0167301750
B2019443929831N11152143WA0167201748
B2019453929836N11152142WA0167201746
B2019463929840N11152141WA0167101744
B2019473929845N11152138WA0167001743
B2019483929849N11152136WA0166901741
B2019493929855N11152134WA0166801739
B2019503929862N11152132WA0166701739
B2019513929867N11152132WA0166601739
B2019523929873N11152132WA0166501739
B2019533929878N11152133WA0166501740
B2019543929883N11152134WA0166401740
B2019553929887N11152136WA0166401738
B2019563929893N11152137WA0166201736
B2019573929899N11152139WA0166201734
B2019583929904N11152142WA0166001732
B2019593929910N11152146WA0165901731
B2020003929913N11152152WA0165801730
B2020013929914N11152160WA0165701729
B2020023929913N11152168WA0165501728
B2020033929910N11152174WA0165401727
B2020043929905N11152179WA0165301727
B2020053929901N11152182WA0165201727
B2020063929896N11152184WA0165101728
B2020073929891N11152185WA0165101727
B2020083929885N11152184WA0165001726
B2020093929879N11152183WA0164901724
B2020103929873N11152180WA0164701722
B2020113929868N11152176WA0164701722
B2020123929864N11152171WA0164601721
B2020133929860N11152166WA0164501720
B2020143929856N11152160WA0164401718
B2020153929852N11152155WA0164301716
B2020163929849N11152149WA0164101714
B2020173929846N11152143WA0164001713
B2020183929843N11152137WA0163901711
B2020193929839N11152132WA0163801710
B2020203929834N11152128WA0163601707
B2020213929829N11152127WA0163501705
B2020223929825N11152128WA0163301703
B2020233929820N11152130WA0163201701
B2020243929817N11152133WA0163001699
B2020253929814N11152137WA0162901696
B2020263929811N11152142WA0162701694
B2020273929809N11152148WA0162601692
B2020283929807N11152154WA0162401690
B2020293929806N11152159WA0162301689
B2020303929806N11152165WA0162101687
B2020313929807N11152171WA0162001685
B2020323929810N11152176WA0161801683
B2020333929812N11152181WA0161701681
B2020343929815N11152186WA0161601680
B2020353929817N11152190WA0161501678
B2020363929819N11152195WA0161301677
B2020373929821N11152199WA0161201675
B2020383929822N11152205WA0161001673
B2020393929822N11152211WA0160901671
B2020403929821N11152216WA0160701668
B2020413929817N11152222WA0160601666
B2020423929813N11152226WA0160401664
B2020433929807N11152228WA0160301663
B2020443929801N11152227WA0160101662
B2020453929795N11152226WA0160001661
B2020463929789N11152223WA0159801658
B2020473929783N11152222WA0159701656
B2020483929776N11152223WA0159501654
B2020493929770N11152226WA0159301652
B2020503929765N11152229WA0159101651
B2020513929760N11152233WA0159001650
B2020523929756N11152237WA0158901650
B2020533929752N11152240WA0158801650
B2020543929749N11152244WA0158701649
B2020553929747N11152249WA0158601648
B2020563929746N11152255WA0158501647
B2020573929746N11152260WA0158401645
B2020583929747N11152265WA0158301645
B2020593929748N11152271WA0158201643
B2021003929748N11152277WA0158101642
B2021013929748N11152283WA0158101641
B2021023929747N11152289WA0157901640
B2021033929746N11152295WA0157901638
B2021043929745N11152300WA0157801638
B2021053929743N11152305WA0157701638
B2021063929741N11152309WA0157601637
B2021073929739N11152312WA0157501636
B2021083929737N11152313WA0157401636
B2021093929737N11152315WA0157401636
B2021103929737N11152316WA0157301636
B2021113929737N11152316WA0157201636
B2021123929737N11152316WA0157201636
B2021133929736N11152316WA0157201636
