AXXX000561
HFDTE240926
HFPLTPILOTINCHARGE:Ben Pedersen Wedlock
HFCIDCOMPETITIONID:561
HFFTYFRTYPE:Flymaster task track export
HFGPSGPSDATUM:WGS-84
B2034053929533N11150194WA0225402369
B2034063929532N11150195WA0225402368
B2034073929530N11150197WA0225402367
B2034083929528N11150198WA0225402367
B2034093929527N11150200WA0225402367
B2034103929525N11150201WA0225402366
B2034113929523N11150203WA0225402366
B2034123929521N11150205WA0225402366
B2034133929519N11150206WA0225402366
B2034143929517N11150208WA0225402366
B2034153929514N11150210WA0225402366
B2034163929512N11150213WA0225402366
B2034173929510N11150215WA0225402366
B2034183929507N11150218WA0225402365
B2034193929505N11150221WA0225402365
B2034203929502N11150225WA0225402365
B2034213929500N11150228WA0225402365
B2034223929497N11150232WA0225402364
B2034233929495N11150236WA0225402364
B2034243929492N11150240WA0225402363
B2034253929489N11150245WA0225402363
B2034263929487N11150249WA0225402362
B2034273929485N11150253WA0225402361
B2034283929482N11150257WA0225402361
B2034293929480N11150261WA0225402360
B2034303929478N11150264WA0225402360
B2034313929475N11150268WA0225302359
B2034323929472N11150272WA0225302358
B2034333929469N11150275WA0225202357
B2034343929466N11150278WA0225202356
B2034353929464N11150281WA0225202356
B2034363929461N11150283WA0225102355
B2034373929458N11150286WA0225102355
B2034383929455N11150288WA0225002355
B2034393929453N11150290WA0225002354
B2034403929450N11150292WA0225002354
B2034413929447N11150294WA0224902354
B2034423929444N11150297WA0224902353
B2034433929441N11150299WA0224802353
B2034443929438N11150302WA0224802353
B2034453929435N11150305WA0224802353
B2034463929432N11150308WA0224702352
B2034473929429N11150311WA0224702352
B2034483929427N11150313WA0224602351
B2034493929423N11150316WA0224602350
B2034503929420N11150320WA0224502349
B2034513929417N11150323WA0224402348
B2034523929414N11150327WA0224402346
B2034533929411N11150330WA0224302345
B2034543929408N11150334WA0224202344
B2034553929405N11150338WA0224102343
B2034563929402N11150341WA0224002341
B2034573929399N11150345WA0223902339
B2034583929396N11150349WA0223802338
B2034593929393N11150353WA0223702338
B2035003929390N11150357WA0223702337
B2035013929387N11150362WA0223602337
B2035023929384N11150366WA0223502336
B2035033929382N11150371WA0223402336
B2035043929379N11150375WA0223402335
B2035053929376N11150379WA0223302334
B2035063929373N11150384WA0223202333
B2035073929371N11150389WA0223102332
B2035083929368N11150393WA0223002331
B2035093929365N11150397WA0222902330
B2035103929362N11150402WA0222802329
B2035113929359N11150406WA0222702327
B2035123929356N11150411WA0222602326
B2035133929354N11150415WA0222502325
B2035143929351N11150419WA0222402324
B2035153929349N11150424WA0222302323
B2035163929347N11150428WA0222202322
B2035173929345N11150431WA0222102321
B2035183929342N11150435WA0222002321
B2035193929340N11150438WA0221902319
B2035203929337N11150441WA0221902317
B2035213929335N11150444WA0221802317
B2035223929332N11150448WA0221702316
B2035233929330N11150451WA0221602315
B2035243929327N11150455WA0221502314
B2035253929325N11150459WA0221402314
B2035263929322N11150463WA0221402313
B2035273929319N11150466WA0221302312
B2035283929317N11150470WA0221202312
B2035293929314N11150474WA0221102312
B2035303929312N11150478WA0221102311
B2035313929309N11150482WA0221002311
B2035323929307N11150485WA0220902311
B2035333929305N11150489WA0220902310
B2035343929302N11150492WA0220802310
B2035353929300N11150495WA0220702309
B2035363929297N11150498WA0220702309
B2035373929295N11150501WA0220602308
B2035383929292N11150503WA0220602307
B2035393929289N11150506WA0220502306
B2035403929286N11150508WA0220502306
B2035413929282N11150509WA0220402306
B2035423929278N11150510WA0220402304
B2035433929274N11150511WA0220302303
B2035443929270N11150511WA0220202301
B2035453929265N11150510WA0220102300
B2035463929261N11150509WA0220002298
B2035473929256N11150508WA0219902296
B2035483929252N11150506WA0219802295
B2035493929247N11150505WA0219602293
B2035503929243N11150504WA0219502292
B2035513929240N11150503WA0219402291
B2035523929236N11150502WA0219302290
B2035533929233N11150501WA0219202289
B2035543929229N11150500WA0219102289
B2035553929226N11150498WA0218902288
B2035563929223N11150496WA0218902287
B2035573929220N11150494WA0218702286
B2035583929217N11150492WA0218702285
B2035593929213N11150491WA0218502285
B2036003929210N11150489WA0218502284
B2036013929206N11150487WA0218302284
B2036023929203N11150485WA0218302284
B2036033929200N11150484WA0218202284
B2036043929198N11150482WA0218202285
B2036053929195N11150481WA0218102286
B2036063929192N11150479WA0218102286
B2036073929190N11150477WA0218102286
B2036083929187N11150475WA0218002286
B2036093929184N11150473WA0218002287
B2036103929182N11150471WA0218002287
B2036113929180N11150470WA0218002287
B2036123929178N11150469WA0218002287
B2036133929176N11150468WA0218002287
B2036143929173N11150467WA0217902286
B2036153929171N11150467WA0217902286
B2036163929168N11150469WA0217902285
B2036173929166N11150471WA0217902285
B2036183929163N11150473WA0217802284
B2036193929161N11150475WA0217802283
B2036203929160N11150477WA0217702282
B2036213929158N11150478WA0217702281
B2036223929156N11150480WA0217602280
B2036233929154N11150481WA0217602279
B2036243929152N11150482WA0217502279
B2036253929150N11150483WA0217402278
B2036263929148N11150484WA0217402277
B2036273929146N11150486WA0217302276
B2036283929145N11150488WA0217202275
B2036293929144N11150490WA0217102274
B2036303929144N11150492WA0217102274
B2036313929144N11150494WA0217002274
B2036323929145N11150497WA0216902273
B2036333929147N11150498WA0216802272
B2036343929149N11150499WA0216802272
B2036353929151N11150500WA0216702270
B2036363929154N11150501WA0216702269
B2036373929156N11150502WA0216602269
B2036383929159N11150503WA0216502268
B2036393929162N11150505WA0216402267
B2036403929165N11150507WA0216402265
B2036413929168N11150509WA0216302264
B2036423929170N11150512WA0216202264
B2036433929173N11150515WA0216102263
B2036443929175N11150517WA0216002261
B2036453929178N11150520WA0215902260
B2036463929181N11150523WA0215802258
B2036473929183N11150526WA0215702256
B2036483929185N11150530WA0215602255
B2036493929186N11150533WA0215502254
B2036503929188N11150537WA0215402254
B2036513929189N11150540WA0215302254
B2036523929190N11150542WA0215202253
B2036533929190N11150544WA0215102252
B2036543929191N11150546WA0215002252
B2036553929192N11150548WA0214902251
B2036563929193N11150551WA0214802251
B2036573929194N11150553WA0214702250
B2036583929195N11150556WA0214702249
B2036593929196N11150558WA0214602248
B2037003929197N11150561WA0214502248
B2037013929198N11150564WA0214402247
B2037023929200N11150567WA0214302246
B2037033929201N11150570WA0214202245
B2037043929202N11150573WA0214102244
B2037053929203N11150576WA0214002243
B2037063929204N11150579WA0213902241
B2037073929204N11150582WA0213802240
B2037083929205N11150586WA0213702238
B2037093929204N11150590WA0213602235
B2037103929203N11150593WA0213502234
B2037113929202N11150597WA0213302233
B2037123929201N11150601WA0213302231
B2037133929200N11150605WA0213102229
B2037143929200N11150609WA0213002228
B2037153929200N11150613WA0212802226
B2037163929201N11150617WA0212702225
B2037173929202N11150620WA0212602225
B2037183929204N11150623WA0212502224
B2037193929205N11150625WA0212402223
B2037203929207N11150628WA0212302221
B2037213929208N11150630WA0212102220
B2037223929209N11150633WA0212102219
B2037233929210N11150636WA0211902219
B2037243929210N11150640WA0211902218
B2037253929209N11150643WA0211702217
B2037263929209N11150647WA0211702217
B2037273929208N11150650WA0211602216
B2037283929209N11150653WA0211502216
B2037293929210N11150655WA0211402215
B2037303929210N11150658WA0211302213
B2037313929211N11150660WA0211202213
B2037323929211N11150662WA0211202212
B2037333929211N11150664WA0211102212
B2037343929210N11150667WA0211002211
B2037353929209N11150669WA0210902211
B2037363929207N11150671WA0210902210
B2037373929205N11150672WA0210802209
B2037383929203N11150672WA0210702208
B2037393929200N11150672WA0210602207
B2037403929197N11150672WA0210602205
B2037413929194N11150672WA0210502203
B2037423929190N11150672WA0210402202
B2037433929187N11150671WA0210302201
B2037443929184N11150671WA0210202199
B2037453929181N11150672WA0210102198
B2037463929179N11150672WA0210002197
B2037473929176N11150672WA0209902195
B2037483929173N11150673WA0209802193
B2037493929170N11150674WA0209702192
B2037503929167N11150675WA0209602191
B2037513929164N11150676WA0209402189
B2037523929161N11150677WA0209302188
B2037533929159N11150678WA0209202186
B2037543929156N11150678WA0209102185
B2037553929153N11150678WA0208902183
B2037563929151N11150679WA0208802181
B2037573929148N11150679WA0208702180
B2037583929146N11150679WA0208602178
B2037593929143N11150680WA0208402177
B2038003929141N11150681WA0208302176
B2038013929140N11150683WA0208102175
B2038023929138N11150685WA0208002174
B2038033929138N11150687WA0207902173
B2038043929138N11150690WA0207802172
B2038053929139N11150692WA0207702172
B2038063929140N11150694WA0207602173
B2038073929141N11150696WA0207502173
B2038083929143N11150698WA0207402172
B2038093929145N11150700WA0207302171
B2038103929147N11150701WA0207302171
B2038113929149N11150703WA0207202170
B2038123929152N11150705WA0207102170
B2038133929154N11150708WA0207002169
B2038143929156N11150710WA0207002169
B2038153929158N11150713WA0206902168
B2038163929160N11150716WA0206802167
B2038173929161N11150719WA0206702166
B2038183929162N11150722WA0206602165
B2038193929162N11150726WA0206502164
B2038203929163N11150730WA0206502163
B2038213929164N11150734WA0206302162
B2038223929165N11150737WA0206302160
B2038233929167N11150741WA0206102159
B2038243929168N11150744WA0206102158
B2038253929170N11150748WA0205902157
B2038263929171N11150751WA0205802156
B2038273929172N11150754WA0205702154
B2038283929173N11150757WA0205602153
B2038293929174N11150760WA0205502152
B2038303929175N11150764WA0205402151
B2038313929175N11150767WA0205302148
B2038323929175N11150771WA0205202147
B2038333929175N11150775WA0205002145
B2038343929174N11150778WA0204902144
B2038353929173N11150782WA0204802142
B2038363929172N11150785WA0204702141
B2038373929170N11150787WA0204502141
B2038383929169N11150789WA0204402139
B2038393929168N11150791WA0204302139
B2038403929167N11150792WA0204202138
B2038413929166N11150793WA0204102137
B2038423929166N11150794WA0204002137
B2038433929166N11150794WA0203902136
B2038443929166N11150794WA0203902137
B2038453929166N11150794WA0203802136
B2038463929166N11150794WA0203802136
B2038473929166N11150794WA0203702136
B2038483929166N11150794WA0203702135
B2038493929166N11150794WA0203602135
B2038503929166N11150794WA0203602134
B2038513929165N11150794WA0203602134
B2038523929165N11150794WA0203602134
B2038533929165N11150794WA0203502134
B2038543929165N11150794WA0203502133
B2038553929165N11150794WA0203502133
B2038563929165N11150794WA0203502133
B2038573929165N11150794WA0203502133
B2038583929165N11150794WA0203502133
B2038593929165N11150794WA0203502133
