AXFMSFP Flymaster Live, V1.0, S/N 769901
HFFXA010
HFPLTPILOT:Wade Lippincott
HFGTYGLIDERTYPE: 
HFGIDGLIDERID:
HFDTM100GPSDATUM:WGS-1984
HFCIDCOMPETITIONID:307
HFCCLCOMPETITIONCLASS:
HOSITSITE:Chelan Butte-US
HFGPS:UBLOXNEO6
HFPRSPRESSALTSENSOR:NA
HFRFWFIRMWAREVERSION:203f
HFRHWHARDWAREVERSION:1.0R2
HFFTYFRTYPE:FLYMASTER,LIVE
HFDTE260625
B1914024748292N12002307WA0109401127
B1914034748291N12002308WA0109401127
B1914044748290N12002310WA0109401128
B1914054748289N12002311WA0109401129
B1914064748288N12002312WA0109401130
B1914074748287N12002313WA0109401130
B1914084748286N12002313WA0109401130
B1914094748285N12002313WA0109401130
B1914104748284N12002314WA0109401130
B1914114748284N12002314WA0109401129
B1914124748283N12002314WA0109401129
B1914134748282N12002315WA0109401130
B1914144748281N12002315WA0109401130
B1914154748280N12002315WA0109401130
B1914164748280N12002315WA0109401130
B1914174748280N12002315WA0109401130
B1914184748280N12002315WA0109401129
B1914194748280N12002316WA0109401129
B1914204748280N12002316WA0109301129
B1914214748280N12002316WA0109301129
B1914224748280N12002316WA0109301130
B1914234748280N12002316WA0109301130
B1914244748280N12002316WA0109301130
B1914254748280N12002316WA0109301130
B1914264748280N12002316WA0109301130
B1914274748280N12002316WA0109301130
B1914284748280N12002316WA0109301130
B1914294748280N12002316WA0109301130
B1914304748280N12002316WA0109301129
B1914314748280N12002316WA0109301129
B1914324748280N12002316WA0109301129
B1914334748280N12002316WA0109301129
B1914344748280N12002316WA0109301129
B1914354748280N12002316WA0109301130
B1914364748280N12002316WA0109301130
B1914374748280N12002316WA0109301130
B1914384748280N12002316WA0109301130
B1914394748280N12002316WA0109201130
B1914404748280N12002316WA0109201130
B1914414748280N12002316WA0109201129
B1914424748280N12002316WA0109201129
B1914434748280N12002316WA0109201129
B1914444748280N12002316WA0109201129
B1914454748280N12002316WA0109201129
B1914464748280N12002316WA0109201129
B1914474748280N12002316WA0109201129
B1914484748280N12002316WA0109201129
B1914494748280N12002316WA0109201129
B1914504748280N12002316WA0109201129
B1914514748280N12002316WA0109201129
B1914524748280N12002316WA0109201129
B1914534748280N12002316WA0109201129
B1914544748280N12002316WA0109201129
B1914554748280N12002316WA0109201129
B1914564748280N12002316WA0109201129
B1914574748280N12002316WA0109201129
B1914584748280N12002316WA0109201129
B1914594748280N12002316WA0109201129
B1915004748280N12002316WA0109201129
B1915014748280N12002316WA0109201129
B1915024748280N12002316WA0109201129
B1915034748280N12002316WA0109201129
B1915044748280N12002316WA0109201129
B1915054748280N12002315WA0109201129
B1915064748280N12002315WA0109201129
B1915074748280N12002315WA0109201129
B1915084748280N12002315WA0109201129
B1915094748280N12002315WA0109201129
B1915104748280N12002315WA0109201129
B1915114748280N12002315WA0109201129
B1915124748280N12002315WA0109201129
B1915134748280N12002315WA0109201129
B1915144748280N12002315WA0109201129
B1915154748280N12002315WA0109201129
B1915164748280N12002315WA0109201129
B1915174748280N12002315WA0109201128
B1915184748280N12002315WA0109201129
B1915194748280N12002315WA0109201129
B1915204748280N12002315WA0109201129
B1915214748280N12002315WA0109201129
B1915224748280N12002315WA0109201129
B1915234748280N12002315WA0109201129
B1915244748280N12002315WA0109201129
B1915254748280N12002315WA0109201129
B1915264748280N12002315WA0109201129
B1915274748280N12002315WA0109201129
B1915284748280N12002315WA0109201129
B1915294748280N12002315WA0109201128
B1915304748280N12002315WA0109201128
B1915314748280N12002315WA0109201128
B1915324748280N12002315WA0109201128
B1915334748280N12002315WA0109201128
B1915344748280N12002315WA0109201128
B1915354748280N12002315WA0109201128
B1915364748280N12002315WA0109201128
B1915374748280N12002315WA0109201128
B1915384748280N12002315WA0109201128
B1915394748280N12002315WA0109201128
B1915404748280N12002315WA0109201128
B1915414748280N12002315WA0109101128
B1915424748280N12002315WA0109101128
B1915434748280N12002315WA0109101128
B1915444748280N12002315WA0109101128
B1915454748280N12002315WA0109101128
B1915464748280N12002315WA0109101128
B1915474748280N12002315WA0109101128
B1915484748280N12002315WA0109101128
B1915494748280N12002315WA0109101128
B1915504748280N12002314WA0109101128
B1915514748280N12002314WA0109101128
B1915524748280N12002314WA0109101128
B1915534748280N12002314WA0109101128
B1915544748280N12002314WA0109101128
B1915554748280N12002314WA0109101128
B1915564748280N12002314WA0109101128
B1915574748280N12002314WA0109101128
B1915584748280N12002314WA0109101128
B1915594748280N12002314WA0109101128
B1916004748280N12002314WA0109101128
B1916014748280N12002315WA0109101128
B1916024748280N12002315WA0109101128
B1916034748280N12002315WA0109101128
B1916044748280N12002315WA0109101128
B1916054748280N12002315WA0109101128
B1916064748280N12002315WA0109101128
B1916074748280N12002315WA0109001128
B1916084748280N12002315WA0109001128
B1916094748280N12002315WA0109001128
B1916104748280N12002315WA0109001128
B1916114748280N12002315WA0109001128
B1916124748280N12002315WA0109001128
B1916134748280N12002315WA0109001128
B1916144748280N12002315WA0109001128
B1916154748280N12002315WA0109001128
B1916164748280N12002315WA0109001128
B1916174748280N12002315WA0109001128
B1916184748281N12002315WA0109001128
B1916194748281N12002315WA0109001128
B1916204748281N12002315WA0108901128
B1916214748281N12002315WA0108901128
B1916224748281N12002315WA0108901128
B1916234748281N12002315WA0108901128
B1916244748281N12002315WA0108901128
B1916254748281N12002315WA0108901128
B1916264748281N12002315WA0108901128
B1916274748281N12002315WA0108901128
B1916284748281N12002315WA0108901128
B1916294748281N12002315WA0108901128
B1916304748281N12002315WA0108901128
B1916314748281N12002315WA0108901128
B1916324748281N12002315WA0108901128
B1916334748281N12002315WA0108901128
B1916344748281N12002315WA0108901128
B1916354748281N12002315WA0108801128
B1916364748281N12002315WA0108801128
B1916374748281N12002315WA0108801128
B1916384748281N12002315WA0108801128
B1916394748281N12002315WA0108801128
B1916404748281N12002315WA0108801128
B1916414748281N12002315WA0108801128
B1916424748281N12002316WA0108801128
B1916434748281N12002316WA0108801128
B1916444748281N12002316WA0108801128
B1916454748281N12002316WA0108801128
B1916464748281N12002316WA0108801128
B1916474748281N12002316WA0108801128
B1916484748281N12002316WA0108801128
B1916494748281N12002316WA0108801128
B1916504748281N12002316WA0108801128
B1916514748281N12002316WA0108801128
B1916524748281N12002316WA0108801128
B1916534748281N12002316WA0108801128
B1916544748281N12002316WA0108801128
B1916554748281N12002316WA0108801128
B1916564748281N12002316WA0108801128
B1916574748281N12002316WA0108801128
B1916584748281N12002316WA0108801128
B1916594748281N12002316WA0108801128
B1917004748281N12002316WA0108801128
B1917014748281N12002316WA0108801128
B1917024748281N12002316WA0108801128
B1917034748281N12002316WA0108801128
B1917044748281N12002316WA0108801128
B1917054748281N12002316WA0108801128
B1917064748281N12002316WA0108801128
B1917074748281N12002316WA0108801128
B1917084748281N12002316WA0108801128
B1917094748281N12002316WA0108801128
B1917104748281N12002316WA0108801128
B1917114748281N12002316WA0108801128
B1917124748281N12002316WA0108801128
B1917134748281N12002316WA0108801128
B1917144748281N12002316WA0108801128
B1917154748281N12002316WA0108801128
B1917164748281N12002316WA0108801128
B1917174748281N12002315WA0108801128
B1917184748281N12002315WA0108801128
B1917194748281N12002315WA0108801128
B1917204748281N12002315WA0108801128
B1917214748281N12002315WA0108801128
B1917224748281N12002315WA0108801128
B1917234748281N12002315WA0108801128
B1917244748281N12002315WA0108801128
B1917254748281N12002315WA0108801128
B1917264748280N12002315WA0108801128
B1917274748280N12002315WA0108801128
B1917284748280N12002315WA0108801127
B1917294748280N12002315WA0108801128
B1917304748280N12002315WA0108801127
B1917314748280N12002315WA0108801127
B1917324748280N12002315WA0108801127
B1917334748280N12002315WA0108801127
B1917344748280N12002315WA0108701127
B1917354748280N12002315WA0108701127
B1917364748280N12002315WA0108701127
B1917374748280N12002315WA0108701127
B1917384748280N12002315WA0108701127
B1917394748280N12002315WA0108701127
B1917404748280N12002315WA0108701127
B1917414748280N12002315WA0108701126
B1917424748280N12002315WA0108701126
B1917434748280N12002315WA0108701126
B1917444748280N12002315WA0108701126
B1917454748280N12002315WA0108701126
B1917464748280N12002315WA0108701126
B1917474748280N12002315WA0108701126
B1917484748280N12002315WA0108701126
B1917494748280N12002315WA0108701126
B1917504748280N12002315WA0108701126
B1917514748280N12002315WA0108701126
B1917524748280N12002315WA0108701126
B1917534748280N12002315WA0108801126
B1917544748280N12002315WA0108801126
B1917554748280N12002315WA0108801126
B1917564748280N12002315WA0108801126
B1917574748280N12002315WA0108801126
B1917584748280N12002315WA0108801126
B1917594748280N12002315WA0108801126
B1918004748280N12002315WA0108801126
B1918014748280N12002315WA0108801126
B1918024748280N12002315WA0108901126
B1918034748280N12002315WA0108901126
B1918044748280N12002315WA0108901126
B1918054748280N12002315WA0108901126
B1918064748280N12002315WA0108901126
B1918074748280N12002315WA0108901126
B1918084748280N12002315WA0108901126
B1918094748280N12002315WA0108901126
B1918104748280N12002315WA0108901126
B1918114748280N12002315WA0109001126
B1918124748281N12002315WA0109001126
B1918134748281N12002315WA0109001126
B1918144748281N12002315WA0109001126
B1918154748281N12002315WA0109001126
B1918164748281N12002315WA0109001126
B1918174748281N12002315WA0109001126
B1918184748281N12002315WA0109001126
B1918194748281N12002315WA0109001126
B1918204748281N12002315WA0109001126
B1918214748281N12002315WA0109101126
B1918224748281N12002315WA0109101127
B1918234748281N12002315WA0109101127
B1918244748281N12002315WA0109101127
B1918254748281N12002315WA0109101127
B1918264748281N12002315WA0109101126
B1918274748281N12002315WA0109101126
B1918284748281N12002315WA0109101126
B1918294748281N12002315WA0109101126
B1918304748281N12002315WA0109201126
B1918314748281N12002315WA0109201126
B1918324748281N12002315WA0109201126
B1918334748281N12002315WA0109201126
B1918344748281N12002315WA0109201126
B1918354748281N12002315WA0109201126
B1918364748281N12002315WA0109201126
B1918374748281N12002315WA0109201126
B1918384748281N12002315WA0109201126
B1918394748281N12002315WA0109301126
B1918404748281N12002315WA0109301126
B1918414748281N12002315WA0109301126
B1918424748281N12002315WA0109301126
B1918434748281N12002315WA0109301126
B1918444748281N12002315WA0109301126
B1918454748281N12002315WA0109301126
B1918464748281N12002315WA0109301126
B1918474748281N12002315WA0109301126
B1918484748282N12002315WA0109301126
B1918494748282N12002315WA0109401126
B1918504748282N12002315WA0109401126
B1918514748282N12002315WA0109401126
B1918524748282N12002315WA0109401126
B1918534748282N12002315WA0109401126
B1918544748282N12002315WA0109401126
B1918554748282N12002315WA0109401126
B1918564748282N12002315WA0109401126
B1918574748282N12002315WA0109501126
B1918584748282N12002315WA0109501126
B1918594748282N12002315WA0109501126
B1919004748282N12002315WA0109501126
B1919014748282N12002315WA0109501126
B1919024748282N12002315WA0109501126
B1919034748282N12002315WA0109501126
B1919044748282N12002315WA0109501126
B1919054748282N12002315WA0109501126
B1919064748282N12002315WA0109601125
B1919074748282N12002315WA0109601125
B1919084748282N12002315WA0109601125
B1919094748282N12002315WA0109601125
B1919104748282N12002315WA0109601125
B1919114748282N12002315WA0109601125
B1919124748282N12002315WA0109601125
B1919134748282N12002314WA0109601125
B1919144748282N12002314WA0109601125
B1919154748282N12002314WA0109601125
B1919164748282N12002314WA0109701125
B1919174748282N12002314WA0109701125
B1919184748282N12002314WA0109701125
B1919194748282N12002314WA0109701125
B1919204748282N12002314WA0109701125
B1919214748282N12002314WA0109701125
B1919224748282N12002314WA0109701125
B1919234748282N12002314WA0109701124
B1919244748282N12002314WA0109701124
B1919254748282N12002314WA0109801124
B1919264748282N12002314WA0109801124
B1919274748282N12002314WA0109801124
B1919284748282N12002314WA0109801124
B1919294748282N12002314WA0109801124
B1919304748282N12002314WA0109801124
B1919314748282N12002314WA0109801124
B1919324748282N12002314WA0109801124
B1919334748282N12002314WA0109801124
B1919344748282N12002314WA0109801124
B1919354748282N12002314WA0109801124
B1919364748282N12002314WA0109801124
B1919374748282N12002314WA0109901124
B1919384748282N12002314WA0109901124
B1919394748282N12002314WA0109901124
B1919404748282N12002314WA0109901124
B1919414748282N12002314WA0109901124
B1919424748282N12002314WA0109901124
B1919434748282N12002314WA0109901124
B1919444748282N12002314WA0109901124
B1919454748282N12002314WA0109901124
B1919464748282N12002314WA0109901124
B1919474748282N12002314WA0109901123
B1919484748282N12002314WA0109901123
B1919494748282N12002314WA0110001123
B1919504748282N12002314WA0110001123
B1919514748282N12002314WA0110001123
B1919524748282N12002314WA0110001123
B1919534748282N12002314WA0110001123
B1919544748282N12002314WA0110001123
B1919554748282N12002314WA0110001122
B1919564748282N12002314WA0110001122
B1919574748282N12002314WA0110001122
B1919584748282N12002314WA0110001122
B1919594748282N12002314WA0110001122
B1920004748282N12002314WA0110001122
B1920014748282N12002314WA0110001122
B1920024748282N12002314WA0110001122
B1920034748282N12002314WA0110001122
B1920044748282N12002314WA0110001122
B1920054748282N12002314WA0110001122
B1920064748282N12002314WA0110001121
B1920074748282N12002314WA0110101121
B1920084748282N12002314WA0110101121
B1920094748282N12002314WA0110101121
B1920104748282N12002314WA0110101121
B1920114748282N12002314WA0110101121
B1920124748282N12002314WA0110101121
B1920134748282N12002314WA0110101121
B1920144748282N12002314WA0110101121
B1920154748282N12002314WA0110101121
B1920164748282N12002314WA0110101121
B1920174748282N12002314WA0110101121
B1920184748282N12002314WA0110101121
B1920194748282N12002314WA0110101121
B1920204748282N12002314WA0110101120
B1920214748282N12002314WA0110101120
B1920224748282N12002314WA0110101120
B1920234748282N12002314WA0110201120
B1920244748282N12002314WA0110201120
B1920254748282N12002314WA0110201120
B1920264748282N12002314WA0110201120
B1920274748282N12002314WA0110201120
B1920284748282N12002314WA0110201120
B1920294748282N12002314WA0110201120
B1920304748282N12002314WA0110201120
B1920314748282N12002314WA0110201120
B1920324748282N12002314WA0110201120
B1920334748282N12002314WA0110201120
B1920344748282N12002314WA0110201120
B1920354748282N12002314WA0110201120
B1920364748282N12002314WA0110201120
B1920374748282N12002314WA0110201120
B1920384748282N12002314WA0110201120
B1920394748282N12002314WA0110301120
B1920404748282N12002314WA0110301120
B1920414748282N12002314WA0110301120
B1920424748282N12002314WA0110301120
B1920434748282N12002314WA0110301120
B1920444748282N12002314WA0110301120
B1920454748282N12002314WA0110301120
B1920464748282N12002314WA0110301120
B1920474748282N12002314WA0110301120
B1920484748282N12002314WA0110301120
B1920494748282N12002314WA0110301121
B1920504748282N12002314WA0110301121
B1920514748282N12002314WA0110301121
B1920524748282N12002314WA0110301121
B1920534748282N12002314WA0110401121
B1920544748282N12002314WA0110401121
B1920554748282N12002314WA0110401121
B1920564748282N12002314WA0110401121
B1920574748282N12002314WA0110401121
B1920584748282N12002314WA0110401121
B1920594748282N12002314WA0110401121
B1921004748282N12002314WA0110401121
B1921014748282N12002314WA0110401121
B1921024748282N12002314WA0110401121
B1921034748282N12002314WA0110401121
B1921044748282N12002314WA0110401121
B1921054748282N12002314WA0110401121
B1921064748282N12002314WA0110501121
B1921074748282N12002314WA0110501121
B1921084748282N12002314WA0110501121
B1921094748282N12002314WA0110501121
B1921104748282N12002314WA0110501121
B1921114748282N12002314WA0110501121
B1921124748282N12002314WA0110501121
B1921134748282N12002314WA0110501121
B1921144748282N12002314WA0110501121
B1921154748282N12002314WA0110501121
B1921164748282N12002314WA0110501121
B1921174748282N12002314WA0110501121
B1921184748282N12002314WA0110501121
B1921194748282N12002314WA0110501121
B1921204748282N12002314WA0110501121
B1921214748282N12002314WA0110601121
B1921224748282N12002314WA0110601121
B1921234748282N12002314WA0110601121
B1921244748282N12002314WA0110601121
B1921254748282N12002314WA0110601121
B1921264748282N12002314WA0110601120
B1921274748282N12002314WA0110601120
B1921284748282N12002314WA0110601120
B1921294748282N12002313WA0110601120
B1921304748282N12002314WA0110601120
B1921314748282N12002314WA0110601120
B1921324748282N12002314WA0110601120
B1921334748282N12002314WA0110601120
B1921344748282N12002314WA0110601120
B1921354748282N12002314WA0110601120
B1921364748282N12002314WA0110601120
B1921374748282N12002314WA0110701120
B1921384748282N12002313WA0110701120
B1921394748282N12002313WA0110701120
B1921404748282N12002313WA0110701120
B1921414748282N12002313WA0110701120
B1921424748282N12002313WA0110701120
B1921434748282N12002313WA0110701120
B1921444748282N12002313WA0110701120
B1921454748282N12002313WA0110701120
B1921464748282N12002313WA0110701120
B1921474748282N12002313WA0110701119
B1921484748282N12002313WA0110701119
B1921494748282N12002313WA0110701119
B1921504748282N12002313WA0110701119
B1921514748282N12002313WA0110701119
B1921524748282N12002313WA0110701119
B1921534748282N12002313WA0110801119
B1921544748282N12002313WA0110801119
B1921554748282N12002313WA0110801119
B1921564748282N12002313WA0110801119
B1921574748282N12002313WA0110801119
B1921584748282N12002313WA0110801119
B1921594748282N12002313WA0110801119
B1922004748282N12002313WA0110801119
B1922014748282N12002313WA0110801119
B1922024748282N12002313WA0110801119
B1922034748282N12002313WA0110801119
B1922044748282N12002313WA0110801119
B1922054748282N12002313WA0110801119
B1922064748282N12002313WA0110801119
B1922074748282N12002313WA0110901119
B1922084748282N12002313WA0110901119
B1922094748282N12002313WA0110901119
B1922104748282N12002313WA0110901119
B1922114748282N12002313WA0110901120
B1922124748282N12002313WA0110901120
B1922134748282N12002313WA0110901120
B1922144748282N12002313WA0110901120
B1922154748282N12002314WA0110901120
B1922164748282N12002314WA0110901120
B1922174748282N12002314WA0110901120
B1922184748282N12002314WA0110901120
B1922194748282N12002314WA0110901120
B1922204748282N12002314WA0110901120
B1922214748282N12002314WA0110901120
B1922224748282N12002314WA0110901120
B1922234748282N12002314WA0110901120
B1922244748282N12002314WA0110901120
B1922254748282N12002314WA0110901121
B1922264748282N12002314WA0110901121
B1922274748282N12002314WA0111001121
B1922284748282N12002314WA0111001121
B1922294748282N12002314WA0111001121
B1922304748282N12002314WA0111001121
B1922314748282N12002314WA0111001121
B1922324748282N12002314WA0111001121
B1922334748282N12002314WA0111001121
B1922344748282N12002314WA0111001121
B1922354748282N12002314WA0111001121
B1922364748282N12002314WA0111001121
B1922374748282N12002314WA0111001121
B1922384748282N12002314WA0111001121
B1922394748282N12002314WA0111001121
B1922404748282N12002314WA0111001121
B1922414748282N12002314WA0111001121
B1922424748282N12002314WA0111001121
B1922434748282N12002314WA0111001121
B1922444748282N12002314WA0111001121
B1922454748282N12002314WA0111001121
B1922464748282N12002314WA0111001121
B1922474748282N12002314WA0111001121
B1922484748282N12002314WA0111001121
B1922494748282N12002314WA0111001121
B1922504748282N12002314WA0111101121
B1922514748282N12002314WA0111101121
B1922524748282N12002314WA0111101121
B1922534748282N12002314WA0111101121
B1922544748282N12002314WA0111101121
B1922554748282N12002314WA0111101121
B1922564748282N12002314WA0111101121
B1922574748282N12002314WA0111101121
B1922584748282N12002314WA0111101121
B1922594748282N12002314WA0111101121
B1923004748282N12002314WA0111101121
B1923014748282N12002314WA0111101121
B1923024748282N12002314WA0111101121
B1923034748282N12002314WA0111101121
B1923044748282N12002314WA0111101121
B1923054748282N12002314WA0111101121
B1923064748282N12002314WA0111101121
B1923074748282N12002314WA0111101121
B1923084748282N12002314WA0111101121
B1923094748282N12002314WA0111101122
B1923104748282N12002314WA0111101121
B1923114748282N12002314WA0111101121
B1923124748282N12002314WA0111101121
B1923134748282N12002314WA0111101121
B1923144748282N12002314WA0111101122
B1923154748282N12002314WA0111101122
B1923164748282N12002314WA0111101122
B1923174748281N12002314WA0111101121
B1923184748281N12002314WA0111101121
B1923194748281N12002314WA0111201121
B1923204748281N12002314WA0111201122
B1923214748281N12002314WA0111201121
B1923224748281N12002314WA0111201121
B1923234748281N12002314WA0111201122
B1923244748281N12002314WA0111201122
B1923254748281N12002314WA0111201122
B1923264748281N12002314WA0111201122
B1923274748281N12002314WA0111201122
B1923284748281N12002314WA0111201122
B1923294748281N12002314WA0111201122
B1923304748281N12002314WA0111201122
B1923314748282N12002314WA0111201122
B1923324748282N12002314WA0111201122
B1923334748282N12002314WA0111201122
B1923344748282N12002314WA0111201122
B1923354748282N12002314WA0111201122
B1923364748282N12002314WA0111201122
B1923374748282N12002314WA0111201122
B1923384748282N12002314WA0111201122
B1923394748282N12002314WA0111201122
B1923404748282N12002314WA0111201122
B1923414748282N12002314WA0111201122
B1923424748282N12002314WA0111201122
B1923434748282N12002314WA0111201122
B1923444748282N12002314WA0111201122
B1923454748282N12002314WA0111201122
B1923464748282N12002314WA0111201122
B1923474748282N12002314WA0111201122
B1923484748282N12002314WA0111201122
B1923494748282N12002314WA0111201122
B1923504748282N12002314WA0111201122
B1923514748282N12002314WA0111301122
B1923524748282N12002314WA0111301122
B1923534748282N12002314WA0111301122
B1923544748282N12002314WA0111301122
B1923554748282N12002314WA0111301122
B1923564748282N12002314WA0111301122
B1923574748282N12002314WA0111301122
B1923584748282N12002314WA0111301122
B1923594748282N12002314WA0111301122
B1924004748282N12002314WA0111301122
B1924014748282N12002314WA0111301122
B1924024748282N12002314WA0111301122
B1924034748282N12002314WA0111301122
B1924044748282N12002314WA0111301122
B1924054748282N12002314WA0111301122
B1924064748282N12002314WA0111301122
B1924074748282N12002314WA0111301122
B1924084748282N12002314WA0111301122
B1924094748282N12002314WA0111301122
B1924104748282N12002314WA0111301122
B1924114748282N12002314WA0111301122
B1924124748282N12002314WA0111301122
B1924134748282N12002314WA0111301122
B1924144748282N12002314WA0111301122
B1924154748283N12002313WA0111301122
B1924164748284N12002313WA0111301122
B1924174748285N12002312WA0111301122
B1924184748286N12002312WA0111301122
B1924194748287N12002311WA0111301122
B1924204748288N12002310WA0111301122
B1924214748289N12002309WA0111301121
B1924224748290N12002309WA0111301121
B1924234748291N12002308WA0111301121
B1924244748292N12002307WA0111301121
B1924254748293N12002306WA0111301121
B1924264748293N12002305WA0111301120
B1924274748294N12002304WA0111301120
B1924284748295N12002304WA0111301120
B1924294748295N12002303WA0111301120
B1924304748295N12002303WA0111301120
B1924314748295N12002303WA0111301120
B1924324748295N12002303WA0111301120
B1924334748295N12002303WA0111301120
B1924344748295N12002303WA0111301120
B1924354748295N12002303WA0111301120
B1924364748295N12002303WA0111301120
B1924374748295N12002304WA0111301120
B1924384748295N12002304WA0111301120
B1924394748295N12002304WA0111301120
B1924404748295N12002304WA0111301121
B1924414748295N12002304WA0111301121
B1924424748295N12002304WA0111301121
B1924434748295N12002304WA0111301121
B1924444748295N12002304WA0111301121
B1924454748295N12002304WA0111301121
B1924464748295N12002304WA0111301121
B1924474748295N12002304WA0111301121
B1924484748295N12002304WA0111301121
B1924494748296N12002304WA0111301121
B1924504748296N12002303WA0111301121
B1924514748296N12002303WA0111301121
B1924524748297N12002302WA0111301121
B1924534748298N12002301WA0111301121
B1924544748299N12002299WA0111301121
B1924554748300N12002298WA0111301121
B1924564748301N12002296WA0111301121
B1924574748303N12002294WA0111301120
B1924584748304N12002292WA0111301119
B1924594748305N12002290WA0111301119
B1925004748307N12002287WA0111301119
B1925014748309N12002285WA0111301119
B1925024748310N12002282WA0111301119
B1925034748312N12002280WA0111301119
B1925044748314N12002278WA0111301119
B1925054748316N12002275WA0111301119
B1925064748318N12002273WA0111301119
B1925074748320N12002270WA0111301119
B1925084748322N12002268WA0111301119
B1925094748324N12002266WA0111301119
B1925104748325N12002264WA0111301119
B1925114748327N12002262WA0111301119
B1925124748328N12002261WA0111301120
B1925134748329N12002259WA0111301120
B1925144748330N12002258WA0111301120
B1925154748331N12002257WA0111301120
B1925164748332N12002256WA0111301121
B1925174748333N12002256WA0111301120
B1925184748334N12002256WA0111301120
B1925194748335N12002256WA0111301120
B1925204748336N12002257WA0111301119
B1925214748336N12002258WA0111301119
B1925224748337N12002260WA0111301119
B1925234748338N12002262WA0111301119
B1925244748339N12002265WA0111301118
B1925254748340N12002267WA0111301119
B1925264748340N12002270WA0111301118
B1925274748341N12002273WA0111301117
B1925284748341N12002276WA0111301117
B1925294748342N12002279WA0111301116
B1925304748342N12002283WA0111301115
B1925314748343N12002286WA0111201115
B1925324748343N12002290WA0111201114
B1925334748343N12002294WA0111201113
B1925344748343N12002298WA0111201112
B1925354748343N12002303WA0111101111
B1925364748343N12002307WA0111101110
B1925374748344N12002311WA0111101110
B1925384748344N12002315WA0111101109
B1925394748344N12002319WA0111001108
B1925404748344N12002323WA0111001108
B1925414748343N12002327WA0111001107
B1925424748343N12002330WA0111001106
B1925434748342N12002334WA0110901105
B1925444748342N12002338WA0110901104
B1925454748340N12002341WA0110901103
B1925464748339N12002345WA0110901103
B1925474748338N12002348WA0110801102
B1925484748337N12002351WA0110801101
B1925494748335N12002354WA0110801100
B1925504748334N12002357WA0110801099
B1925514748332N12002361WA0110701099
B1925524748331N12002364WA0110701098
B1925534748329N12002367WA0110701097
B1925544748328N12002371WA0110701096
B1925554748326N12002374WA0110601095
B1925564748325N12002377WA0110601095
B1925574748323N12002381WA0110601094
B1925584748322N12002385WA0110501093
B1925594748320N12002389WA0110501092
B1926004748319N12002392WA0110501091
B1926014748317N12002396WA0110401091
B1926024748316N12002400WA0110401090
B1926034748315N12002404WA0110401089
B1926044748313N12002408WA0110301088
B1926054748312N12002412WA0110301088
B1926064748311N12002416WA0110301087
B1926074748310N12002420WA0110201086
B1926084748309N12002425WA0110201086
B1926094748309N12002429WA0110201085
B1926104748309N12002433WA0110101084
B1926114748309N12002437WA0110101083
B1926124748309N12002441WA0110001083
B1926134748310N12002446WA0110001082
B1926144748310N12002450WA0110001082
B1926154748310N12002455WA0109901081
B1926164748309N12002459WA0109901080
B1926174748308N12002464WA0109801079
B1926184748307N12002468WA0109801078
B1926194748306N12002473WA0109801077
B1926204748305N12002477WA0109701076
B1926214748303N12002482WA0109701075
B1926224748302N12002486WA0109601074
B1926234748301N12002489WA0109601074
B1926244748301N12002494WA0109501073
B1926254748300N12002498WA0109501072
B1926264748300N12002503WA0109501071
B1926274748300N12002507WA0109401071
B1926284748300N12002512WA0109401070
B1926294748301N12002516WA0109301069
B1926304748302N12002519WA0109301069
B1926314748304N12002523WA0109201069
B1926324748305N12002527WA0109201068
B1926334748307N12002531WA0109101068
B1926344748308N12002535WA0109101067
B1926354748308N12002538WA0109001067
B1926364748309N12002541WA0109001067
B1926374748309N12002545WA0109001066
B1926384748309N12002549WA0108901066
B1926394748308N12002553WA0108901065
B1926404748307N12002557WA0108801063
B1926414748306N12002561WA0108801063
B1926424748304N12002565WA0108701062
B1926434748303N12002569WA0108701061
B1926444748301N12002573WA0108701060
B1926454748300N12002578WA0108601059
B1926464748299N12002582WA0108601058
B1926474748298N12002586WA0108501057
B1926484748298N12002590WA0108501056
B1926494748297N12002595WA0108401055
B1926504748298N12002599WA0108401054
B1926514748298N12002603WA0108301054
B1926524748299N12002608WA0108301053
B1926534748300N12002612WA0108201052
B1926544748301N12002616WA0108201051
B1926554748302N12002621WA0108201050
B1926564748302N12002625WA0108101049
B1926574748302N12002630WA0108101048
B1926584748302N12002634WA0108001047
B1926594748301N12002637WA0108001046
B1927004748300N12002641WA0107901045
B1927014748298N12002646WA0107901044
B1927024748296N12002651WA0107901043
B1927034748294N12002656WA0107801041
B1927044748292N12002661WA0107801040
B1927054748290N12002666WA0107701039
B1927064748288N12002671WA0107601038
B1927074748287N12002677WA0107601036
B1927084748286N12002684WA0107501035
B1927094748286N12002690WA0107501034
B1927104748287N12002696WA0107401033
B1927114748287N12002701WA0107301032
B1927124748287N12002707WA0107301031
B1927134748286N12002712WA0107201030
B1927144748285N12002717WA0107201029
B1927154748284N12002722WA0107101028
B1927164748281N12002727WA0107101027
B1927174748279N12002731WA0107001026
B1927184748277N12002736WA0107001025
B1927194748274N12002741WA0106901024
B1927204748272N12002746WA0106901024
B1927214748270N12002751WA0106801023
B1927224748268N12002756WA0106801022
B1927234748267N12002761WA0106701021
B1927244748265N12002765WA0106601021
B1927254748264N12002770WA0106601020
B1927264748262N12002774WA0106501019
B1927274748261N12002777WA0106501019
B1927284748259N12002780WA0106401019
B1927294748258N12002782WA0106401018
B1927304748257N12002783WA0106301018
B1927314748255N12002784WA0106301018
B1927324748254N12002785WA0106301018
B1927334748253N12002785WA0106201017
B1927344748252N12002786WA0106201017
B1927354748251N12002787WA0106101017
B1927364748250N12002789WA0106101017
B1927374748249N12002791WA0106101016
B1927384748249N12002793WA0106001016
B1927394748249N12002796WA0106001016
B1927404748250N12002799WA0106001016
B1927414748251N12002801WA0105901016
B1927424748252N12002802WA0105901016
B1927434748254N12002803WA0105801016
B1927444748255N12002803WA0105801016
B1927454748256N12002803WA0105701015
B1927464748257N12002803WA0105701015
B1927474748259N12002803WA0105601014
B1927484748260N12002803WA0105601013
B1927494748262N12002803WA0105601012
B1927504748264N12002803WA0105501012
B1927514748265N12002801WA0105501011
B1927524748267N12002800WA0105401010
B1927534748268N12002798WA0105401010
B1927544748270N12002796WA0105401009
B1927554748271N12002794WA0105301009
B1927564748272N12002792WA0105301008
B1927574748273N12002789WA0105201008
B1927584748275N12002787WA0105201008
B1927594748276N12002784WA0105201007
B1928004748277N12002782WA0105101007
B1928014748279N12002779WA0105101006
B1928024748280N12002776WA0105101005
B1928034748282N12002773WA0105001005
B1928044748284N12002770WA0105001004
B1928054748286N12002768WA0104901004
B1928064748288N12002766WA0104901003
B1928074748292N12002764WA0104801001
B1928084748295N12002762WA0104801001
B1928094748299N12002760WA0104700999
B1928104748303N12002759WA0104700998
B1928114748307N12002757WA0104600997
B1928124748310N12002754WA0104600996
B1928134748313N12002752WA0104500996
B1928144748316N12002748WA0104500995
B1928154748318N12002744WA0104400994
B1928164748320N12002740WA0104300993
B1928174748322N12002737WA0104200992
B1928184748324N12002733WA0104200991
B1928194748325N12002729WA0104100990
B1928204748328N12002726WA0104100990
B1928214748330N12002722WA0104000989
B1928224748332N12002720WA0104000989
B1928234748336N12002718WA0103900988
B1928244748339N12002716WA0103900987
B1928254748343N12002715WA0103800986
B1928264748347N12002715WA0103700985
B1928274748350N12002714WA0103700984
B1928284748354N12002714WA0103600983
B1928294748357N12002712WA0103600982
B1928304748360N12002711WA0103500981
B1928314748363N12002709WA0103400980
B1928324748365N12002707WA0103400979
B1928334748368N12002704WA0103300978
B1928344748371N12002701WA0103300977
B1928354748373N12002698WA0103200977
B1928364748376N12002695WA0103200976
B1928374748379N12002692WA0103100976
B1928384748381N12002689WA0103000975
B1928394748383N12002686WA0103000973
B1928404748385N12002682WA0102900973
B1928414748387N12002680WA0102800972
B1928424748389N12002677WA0102800971
B1928434748392N12002676WA0102700970
B1928444748395N12002675WA0102700969
B1928454748398N12002675WA0102600969
B1928464748401N12002675WA0102600969
B1928474748404N12002675WA0102500967
B1928484748407N12002676WA0102400965
B1928494748410N12002677WA0102400964
B1928504748413N12002678WA0102300963
B1928514748415N12002678WA0102200962
B1928524748418N12002678WA0102200962
B1928534748420N12002678WA0102100961
B1928544748422N12002678WA0102000961
B1928554748424N12002678WA0101900960
B1928564748426N12002679WA0101900959
B1928574748428N12002681WA0101800959
B1928584748429N12002684WA0101700958
B1928594748430N12002687WA0101700957
B1929004748430N12002690WA0101600956
B1929014748429N12002694WA0101600956
B1929024748427N12002697WA0101500956
B1929034748425N12002699WA0101400955
B1929044748422N12002700WA0101400954
B1929054748419N12002700WA0101300954
B1929064748417N12002700WA0101300954
B1929074748414N12002699WA0101200954
B1929084748411N12002698WA0101100953
B1929094748409N12002697WA0101100953
B1929104748406N12002696WA0101000952
B1929114748404N12002695WA0101000952
B1929124748401N12002695WA0100900951
B1929134748399N12002697WA0100800951
B1929144748398N12002700WA0100800950
B1929154748397N12002704WA0100700950
B1929164748396N12002709WA0100700948
B1929174748395N12002714WA0100600948
B1929184748394N12002719WA0100500947
B1929194748393N12002724WA0100500946
B1929204748392N12002730WA0100400947
B1929214748391N12002735WA0100300946
B1929224748390N12002740WA0100300945
B1929234748389N12002745WA0100200944
B1929244748387N12002750WA0100100944
B1929254748385N12002754WA0100000943
B1929264748383N12002757WA0100000942
B1929274748380N12002759WA0099900941
B1929284748377N12002762WA0099800940
B1929294748375N12002765WA0099700939
B1929304748372N12002769WA0099700938
B1929314748371N12002774WA0099600936
B1929324748371N12002778WA0099500935
B1929334748371N12002783WA0099400935
B1929344748370N12002788WA0099400935
B1929354748369N12002792WA0099300935
B1929364748367N12002797WA0099200934
B1929374748365N12002801WA0099200932
B1929384748364N12002805WA0099100931
B1929394748363N12002809WA0099000931
B1929404748363N12002813WA0099000931
B1929414748363N12002817WA0098900930
B1929424748363N12002821WA0098900930
B1929434748364N12002825WA0098800929
B1929444748364N12002829WA0098700929
B1929454748364N12002833WA0098600928
B1929464748364N12002836WA0098600927
B1929474748365N12002840WA0098500927
B1929484748366N12002844WA0098500926
B1929494748368N12002848WA0098400927
B1929504748369N12002851WA0098400926
B1929514748370N12002854WA0098300926
B1929524748371N12002857WA0098300925
B1929534748373N12002861WA0098200925
B1929544748373N12002865WA0098200924
B1929554748375N12002868WA0098100924
B1929564748376N12002872WA0098100924
B1929574748377N12002876WA0098000924
B1929584748378N12002879WA0098000923
B1929594748380N12002883WA0097900923
B1930004748381N12002887WA0097900922
B1930014748383N12002891WA0097800921
B1930024748385N12002895WA0097800920
B1930034748387N12002898WA0097700920
B1930044748389N12002901WA0097700919
B1930054748390N12002905WA0097600919
B1930064748392N12002908WA0097600918
B1930074748394N12002912WA0097500917
B1930084748395N12002916WA0097400917
B1930094748397N12002920WA0097400916
B1930104748399N12002924WA0097300915
B1930114748400N12002927WA0097200915
B1930124748402N12002931WA0097200914
B1930134748403N12002935WA0097100914
B1930144748404N12002940WA0097100913
B1930154748406N12002945WA0097000912
B1930164748407N12002950WA0097000911
B1930174748410N12002956WA0096900910
B1930184748412N12002962WA0096900909
B1930194748414N12002968WA0096800908
B1930204748415N12002973WA0096700907
B1930214748416N12002979WA0096700906
B1930224748417N12002985WA0096600904
B1930234748417N12002991WA0096500903
B1930244748417N12002997WA0096500902
B1930254748417N12003003WA0096400900
B1930264748418N12003009WA0096300899
B1930274748419N12003014WA0096200899
B1930284748422N12003020WA0096200897
B1930294748425N12003024WA0096100896
B1930304748428N12003029WA0096000896
B1930314748432N12003033WA0095900894
B1930324748435N12003038WA0095900893
B1930334748438N12003043WA0095800891
B1930344748442N12003048WA0095700890
B1930354748445N12003052WA0095600888
B1930364748449N12003056WA0095600887
B1930374748453N12003058WA0095500886
B1930384748457N12003060WA0095400883
B1930394748462N12003062WA0095300882
B1930404748466N12003064WA0095300880
B1930414748470N12003066WA0095200879
B1930424748474N12003068WA0095100878
B1930434748477N12003071WA0095000877
B1930444748481N12003074WA0095000876
B1930454748486N12003077WA0094900875
B1930464748490N12003081WA0094800874
B1930474748494N12003085WA0094800873
B1930484748497N12003090WA0094700872
B1930494748501N12003094WA0094700871
B1930504748504N12003099WA0094600870
B1930514748507N12003104WA0094600869
B1930524748510N12003109WA0094500869
B1930534748513N12003114WA0094500868
B1930544748516N12003119WA0094400867
B1930554748519N12003124WA0094400865
B1930564748522N12003129WA0094300864
B1930574748526N12003135WA0094200862
B1930584748529N12003141WA0094200861
B1930594748532N12003147WA0094100859
B1931004748535N12003154WA0094000857
B1931014748539N12003160WA0094000855
B1931024748543N12003166WA0093900854
B1931034748547N12003171WA0093800852
B1931044748552N12003174WA0093800851
B1931054748556N12003176WA0093700851
B1931064748561N12003177WA0093600849
B1931074748565N12003177WA0093600849
B1931084748570N12003178WA0093500848
B1931094748574N12003178WA0093500848
B1931104748578N12003178WA0093400848
B1931114748582N12003179WA0093400848
B1931124748586N12003180WA0093300847
B1931134748590N12003182WA0093300847
B1931144748594N12003185WA0093300847
B1931154748597N12003188WA0093200846
B1931164748601N12003192WA0093200845
B1931174748604N12003195WA0093200844
B1931184748608N12003197WA0093100844
B1931194748612N12003199WA0093100844
B1931204748616N12003200WA0093100843
B1931214748621N12003201WA0093100843
B1931224748625N12003201WA0093000843
B1931234748630N12003202WA0093000843
B1931244748634N12003203WA0093000842
B1931254748638N12003204WA0092900841
B1931264748643N12003205WA0092900841
B1931274748647N12003207WA0092900840
B1931284748651N12003208WA0092900840
B1931294748655N12003211WA0092800839
B1931304748659N12003214WA0092800839
B1931314748663N12003217WA0092800838
B1931324748666N12003220WA0092700837
B1931334748670N12003223WA0092700836
B1931344748675N12003226WA0092700835
B1931354748679N12003228WA0092600835
B1931364748683N12003230WA0092600834
B1931374748688N12003231WA0092500833
B1931384748692N12003232WA0092500833
B1931394748696N12003233WA0092500832
B1931404748701N12003234WA0092400831
B1931414748706N12003234WA0092400830
B1931424748710N12003234WA0092300829
B1931434748715N12003234WA0092300828
B1931444748720N12003235WA0092200827
B1931454748725N12003235WA0092200826
B1931464748729N12003235WA0092100825
B1931474748734N12003235WA0092000824
B1931484748739N12003234WA0092000824
B1931494748743N12003234WA0091900823
B1931504748748N12003234WA0091900822
B1931514748752N12003233WA0091800821
B1931524748757N12003233WA0091800820
B1931534748761N12003233WA0091700819
B1931544748766N12003232WA0091600819
B1931554748771N12003232WA0091600817
B1931564748776N12003232WA0091500817
B1931574748781N12003233WA0091400816
B1931584748785N12003233WA0091400815
B1931594748790N12003234WA0091300814
B1932004748794N12003234WA0091200813
B1932014748798N12003234WA0091200813
B1932024748801N12003232WA0091100812
B1932034748804N12003230WA0091000811
B1932044748806N12003228WA0091000811
B1932054748808N12003224WA0090900811
B1932064748810N12003220WA0090900811
B1932074748811N12003215WA0090800811
B1932084748812N12003211WA0090700810
B1932094748813N12003206WA0090700810
B1932104748813N12003201WA0090600810
B1932114748812N12003197WA0090600809
B1932124748811N12003192WA0090500809
B1932134748809N12003188WA0090400808
B1932144748806N12003184WA0090400808
B1932154748803N12003180WA0090300807
B1932164748800N12003176WA0090300806
B1932174748797N12003173WA0090200806
B1932184748794N12003171WA0090200806
B1932194748790N12003168WA0090100806
B1932204748787N12003166WA0090100805
B1932214748784N12003163WA0090000804
B1932224748781N12003160WA0090000804
B1932234748778N12003156WA0089900803
B1932244748776N12003152WA0089900803
B1932254748773N12003148WA0089800802
B1932264748772N12003144WA0089800801
B1932274748770N12003139WA0089700801
B1932284748770N12003135WA0089700801
B1932294748770N12003130WA0089700801
B1932304748771N12003125WA0089600801
B1932314748772N12003120WA0089600801
B1932324748772N12003115WA0089500801
B1932334748772N12003110WA0089500800
B1932344748771N12003105WA0089500800
B1932354748769N12003101WA0089400800
B1932364748767N12003098WA0089400799
B1932374748764N12003095WA0089300799
B1932384748761N12003093WA0089300799
B1932394748757N12003091WA0089200798
B1932404748753N12003089WA0089200798
B1932414748750N12003087WA0089100797
B1932424748746N12003086WA0089100796
B1932434748742N12003086WA0089100796
B1932444748738N12003086WA0089000795
B1932454748734N12003086WA0089000794
B1932464748730N12003085WA0088900793
B1932474748726N12003084WA0088900792
B1932484748721N12003083WA0088900792
B1932494748717N12003082WA0088800792
B1932504748713N12003082WA0088800791
B1932514748708N12003083WA0088800791
B1932524748704N12003083WA0088700790
B1932534748700N12003083WA0088700789
B1932544748695N12003083WA0088600789
B1932554748691N12003082WA0088600788
B1932564748688N12003082WA0088600788
B1932574748684N12003082WA0088500787
B1932584748680N12003082WA0088500787
B1932594748677N12003083WA0088500786
B1933004748674N12003083WA0088400785
B1933014748670N12003082WA0088400785
B1933024748667N12003082WA0088400784
B1933034748663N12003082WA0088300783
B1933044748660N12003082WA0088300781
B1933054748657N12003082WA0088200780
B1933064748654N12003082WA0088100778
B1933074748650N12003082WA0088100777
B1933084748648N12003081WA0088000776
B1933094748645N12003079WA0087900775
B1933104748642N12003078WA0087900775
B1933114748640N12003075WA0087800774
B1933124748638N12003071WA0087800772
B1933134748636N12003068WA0087700771
B1933144748635N12003064WA0087600770
B1933154748634N12003060WA0087500770
B1933164748634N12003056WA0087500770
B1933174748633N12003052WA0087400770
B1933184748633N12003048WA0087400769
B1933194748632N12003045WA0087300769
B1933204748632N12003041WA0087200768
B1933214748630N12003038WA0087100768
B1933224748629N12003034WA0087100767
B1933234748628N12003031WA0087000766
B1933244748626N12003028WA0086900766
B1933254748625N12003024WA0086800765
B1933264748623N12003021WA0086700764
B1933274748622N12003018WA0086600763
B1933284748621N12003016WA0086600762
B1933294748620N12003013WA0086500761
B1933304748620N12003010WA0086400760
B1933314748621N12003007WA0086400761
B1933324748623N12003005WA0086300761
B1933334748625N12003004WA0086200761
B1933344748627N12003004WA0086200761
B1933354748629N12003005WA0086200761
B1933364748632N12003007WA0086100761
B1933374748634N12003009WA0086100759
B1933384748638N12003011WA0086000758
B1933394748642N12003011WA0086000757
B1933404748645N12003011WA0085900755
B1933414748649N12003010WA0085900754
B1933424748652N12003008WA0085900754
B1933434748656N12003006WA0085800753
B1933444748659N12003004WA0085800752
B1933454748663N12003003WA0085700752
B1933464748666N12003001WA0085700752
B1933474748670N12002999WA0085600751
B1933484748673N12002997WA0085600750
B1933494748677N12002994WA0085500750
B1933504748681N12002991WA0085400748
B1933514748685N12002987WA0085400745
B1933524748690N12002982WA0085300742
B1933534748694N12002979WA0085200739
B1933544748697N12002975WA0085200737
B1933554748701N12002972WA0085100735
B1933564748705N12002969WA0085000733
B1933574748709N12002966WA0084900732
B1933584748712N12002964WA0084800730
B1933594748716N12002961WA0084700728
B1934004748719N12002959WA0084700726
B1934014748723N12002956WA0084600725
B1934024748726N12002954WA0084500723
B1934034748729N12002952WA0084400722
B1934044748733N12002951WA0084400720
B1934054748737N12002950WA0084300719
B1934064748741N12002948WA0084200717
B1934074748745N12002947WA0084100716
B1934084748749N12002946WA0084100715
B1934094748753N12002945WA0084000714
B1934104748758N12002944WA0083900713
B1934114748762N12002943WA0083800712
B1934124748766N12002942WA0083700711
B1934134748770N12002940WA0083600710
B1934144748773N12002938WA0083600709
B1934154748776N12002936WA0083500707
B1934164748779N12002935WA0083400707
B1934174748782N12002934WA0083300706
B1934184748785N12002934WA0083200705
B1934194748787N12002936WA0083200702
B1934204748790N12002938WA0083100702
B1934214748792N12002940WA0083000701
B1934224748795N12002942WA0082900699
B1934234748797N12002944WA0082900698
B1934244748800N12002946WA0082800697
B1934254748803N12002948WA0082700695
B1934264748807N12002948WA0082600693
B1934274748810N12002948WA0082600690
B1934284748813N12002948WA0082500689
B1934294748816N12002948WA0082400688
B1934304748819N12002948WA0082400687
B1934314748822N12002947WA0082300686
B1934324748825N12002947WA0082300685
B1934334748828N12002946WA0082200684
B1934344748832N12002945WA0082100682
B1934354748835N12002944WA0082100681
B1934364748840N12002943WA0082000679
B1934374748845N12002942WA0082000678
B1934384748849N12002942WA0081900676
B1934394748854N12002941WA0081800675
B1934404748859N12002940WA0081800673
B1934414748864N12002938WA0081700672
B1934424748868N12002936WA0081700670
B1934434748873N12002935WA0081600668
B1934444748878N12002933WA0081500667
B1934454748882N12002932WA0081400665
B1934464748887N12002930WA0081400663
B1934474748892N12002930WA0081300662
B1934484748896N12002929WA0081200661
B1934494748901N12002929WA0081200660
B1934504748905N12002929WA0081100659
B1934514748909N12002929WA0081000659
B1934524748912N12002930WA0081000658
B1934534748915N12002931WA0080900657
B1934544748918N12002932WA0080900656
B1934554748920N12002934WA0080800655
B1934564748923N12002936WA0080800654
B1934574748925N12002939WA0080700653
B1934584748927N12002942WA0080700652
B1934594748930N12002946WA0080600652
B1935004748933N12002949WA0080500651
B1935014748936N12002951WA0080500650
B1935024748939N12002953WA0080400650
B1935034748942N12002954WA0080400649
B1935044748945N12002955WA0080300649
B1935054748948N12002956WA0080300648
B1935064748951N12002957WA0080200648
B1935074748954N12002959WA0080200647
B1935084748957N12002961WA0080100647
B1935094748960N12002964WA0080100646
B1935104748963N12002968WA0080000645
B1935114748966N12002970WA0080000644
B1935124748970N12002973WA0079900643
B1935134748973N12002974WA0079900643
B1935144748977N12002974WA0079800642
B1935154748981N12002974WA0079700641
B1935164748985N12002975WA0079700640
B1935174748988N12002976WA0079600639
B1935184748992N12002978WA0079600638
B1935194748995N12002980WA0079500637
B1935204748999N12002982WA0079500636
B1935214749002N12002984WA0079400635
B1935224749006N12002986WA0079400634
B1935234749009N12002988WA0079300633
B1935244749012N12002991WA0079200632
B1935254749016N12002994WA0079200631
B1935264749019N12002996WA0079100630
B1935274749022N12002997WA0079100630
B1935284749025N12002998WA0079000629
B1935294749029N12002998WA0079000630
B1935304749032N12002998WA0078900630
B1935314749035N12002999WA0078800630
B1935324749039N12002999WA0078800630
B1935334749042N12003001WA0078700628
B1935344749046N12003003WA0078700627
B1935354749050N12003005WA0078600626
B1935364749053N12003006WA0078600624
B1935374749057N12003008WA0078500623
B1935384749062N12003010WA0078500622
B1935394749066N12003011WA0078400620
B1935404749070N12003012WA0078300618
B1935414749075N12003014WA0078200615
B1935424749080N12003015WA0078200613
B1935434749084N12003018WA0078100611
B1935444749089N12003020WA0078000609
B1935454749094N12003023WA0077900608
B1935464749098N12003026WA0077900606
B1935474749103N12003027WA0077800605
B1935484749108N12003028WA0077700605
B1935494749112N12003028WA0077600604
B1935504749117N12003027WA0077600603
B1935514749122N12003026WA0077500603
B1935524749128N12003026WA0077500602
B1935534749133N12003027WA0077400600
B1935544749138N12003028WA0077300599
B1935554749144N12003029WA0077300597
B1935564749149N12003031WA0077200596
B1935574749154N12003032WA0077100594
B1935584749160N12003033WA0077100592
B1935594749166N12003032WA0077000591
B1936004749171N12003032WA0076900589
B1936014749177N12003031WA0076800588
B1936024749182N12003031WA0076800587
B1936034749187N12003032WA0076700586
B1936044749192N12003033WA0076600585
B1936054749197N12003034WA0076500584
B1936064749202N12003034WA0076500582
B1936074749208N12003034WA0076400582
B1936084749213N12003034WA0076400581
B1936094749218N12003034WA0076300581
B1936104749223N12003035WA0076300581
B1936114749228N12003036WA0076300581
B1936124749232N12003039WA0076300582
B1936134749236N12003041WA0076200582
B1936144749240N12003043WA0076200581
B1936154749245N12003044WA0076200581
B1936164749249N12003045WA0076100580
B1936174749254N12003046WA0076100579
B1936184749258N12003047WA0076100579
B1936194749263N12003048WA0076000578
B1936204749268N12003049WA0076000577
B1936214749273N12003050WA0075900576
B1936224749278N12003051WA0075900575
B1936234749283N12003052WA0075900574
B1936244749289N12003053WA0075800573
B1936254749294N12003055WA0075800572
B1936264749298N12003056WA0075700572
B1936274749303N12003058WA0075700571
B1936284749308N12003060WA0075700571
B1936294749312N12003062WA0075600570
B1936304749317N12003064WA0075600569
B1936314749322N12003065WA0075500568
B1936324749327N12003067WA0075500567
B1936334749332N12003068WA0075400566
B1936344749337N12003069WA0075400565
B1936354749342N12003069WA0075300564
B1936364749347N12003069WA0075300564
B1936374749352N12003069WA0075200563
B1936384749357N12003068WA0075200563
B1936394749362N12003068WA0075200562
B1936404749367N12003067WA0075100562
B1936414749373N12003066WA0075100561
B1936424749379N12003064WA0075100560
B1936434749384N12003063WA0075000559
B1936444749390N12003062WA0075000558
B1936454749395N12003060WA0074900558
B1936464749401N12003059WA0074900558
B1936474749406N12003058WA0074900558
B1936484749411N12003057WA0074800557
B1936494749416N12003057WA0074800557
B1936504749422N12003056WA0074800557
B1936514749427N12003056WA0074700556
B1936524749432N12003056WA0074700555
B1936534749437N12003056WA0074600554
B1936544749443N12003055WA0074600553
B1936554749448N12003054WA0074600552
B1936564749453N12003054WA0074500551
B1936574749459N12003053WA0074500550
B1936584749464N12003053WA0074400550
B1936594749469N12003052WA0074400549
B1937004749475N12003051WA0074300548
B1937014749480N12003050WA0074300548
B1937024749485N12003049WA0074200547
B1937034749491N12003048WA0074200546
B1937044749496N12003047WA0074100545
B1937054749501N12003047WA0074100545
B1937064749505N12003048WA0074000544
B1937074749510N12003050WA0074000543
B1937084749515N12003051WA0074000543
B1937094749520N12003054WA0073900542
B1937104749524N12003056WA0073900541
B1937114749529N12003057WA0073800541
B1937124749534N12003059WA0073800540
B1937134749540N12003061WA0073700539
B1937144749545N12003063WA0073700537
B1937154749550N12003065WA0073600535
B1937164749556N12003067WA0073600534
B1937174749562N12003068WA0073500533
B1937184749567N12003069WA0073500532
B1937194749572N12003070WA0073400531
B1937204749577N12003071WA0073400531
B1937214749582N12003072WA0073300531
B1937224749586N12003074WA0073300531
B1937234749590N12003077WA0073200531
B1937244749594N12003080WA0073200530
B1937254749598N12003084WA0073200530
B1937264749601N12003088WA0073100530
B1937274749604N12003093WA0073100530
B1937284749607N12003097WA0073100530
B1937294749609N12003102WA0073000531
B1937304749612N12003107WA0073000531
B1937314749613N12003113WA0073000531
B1937324749614N12003119WA0073000531
B1937334749615N12003125WA0073000532
B1937344749616N12003131WA0072900533
B1937354749617N12003136WA0072900534
B1937364749617N12003142WA0072900535
B1937374749618N12003148WA0072900535
B1937384749618N12003154WA0072900536
B1937394749619N12003160WA0072900536
B1937404749620N12003166WA0072900536
B1937414749621N12003171WA0072800537
B1937424749622N12003175WA0072800537
B1937434749622N12003178WA0072800537
B1937444749622N12003179WA0072800537
B1937454749622N12003179WA0072700537
B1937464749622N12003179WA0072700537
B1937474749622N12003179WA0072700537
B1937484749622N12003179WA0072700537
B1937494749622N12003179WA0072700537
B1937504749622N12003179WA0072700537
B1937514749622N12003179WA0072700538
B1937524749622N12003179WA0072600538
B1937534749622N12003179WA0072600538
B1937544749622N12003180WA0072600538
B1937554749623N12003182WA0072600538
B1937564749623N12003184WA0072600538
B1937574749623N12003188WA0072600538
B1937584749623N12003191WA0072600539
B1937594749623N12003196WA0072500539
B1938004749624N12003202WA0072500539
B1938014749625N12003208WA0072500539
B1938024749626N12003215WA0072500538
B1938034749627N12003222WA0072500538
B1938044749629N12003229WA0072500537
B1938054749630N12003237WA0072400537
B1938064749631N12003244WA0072400537
B1938074749631N12003251WA0072400537
B1938084749630N12003258WA0072300537
B1938094749628N12003264WA0072300537
B1938104749627N12003270WA0072300537
B1938114749627N12003276WA0072300536
B1938124749629N12003281WA0072200536
B1938134749632N12003285WA0072200536
B1938144749636N12003289WA0072200536
B1938154749641N12003292WA0072200536
B1938164749646N12003295WA0072100536
B1938174749651N12003296WA0072100535
B1938184749657N12003296WA0072100535
B1938194749662N12003294WA0072000534
B1938204749668N12003292WA0072000534
B1938214749674N12003290WA0072000533
B1938224749679N12003290WA0072000533
B1938234749685N12003290WA0071900533
B1938244749690N12003292WA0071900532
B1938254749695N12003296WA0071900531
B1938264749700N12003300WA0071800530
B1938274749704N12003306WA0071800529
B1938284749708N12003313WA0071700528
B1938294749711N12003320WA0071700527
B1938304749714N12003327WA0071700526
B1938314749718N12003334WA0071600526
B1938324749721N12003339WA0071600525
B1938334749726N12003344WA0071500524
B1938344749731N12003348WA0071500523
B1938354749736N12003351WA0071400522
B1938364749742N12003354WA0071400520
B1938374749747N12003356WA0071300518
B1938384749753N12003359WA0071300517
B1938394749758N12003362WA0071200516
B1938404749764N12003364WA0071200515
B1938414749770N12003366WA0071100513
B1938424749775N12003369WA0071000512
B1938434749781N12003371WA0071000511
B1938444749787N12003374WA0070900510
B1938454749792N12003377WA0070900509
B1938464749798N12003379WA0070800507
B1938474749802N12003383WA0070700506
B1938484749807N12003386WA0070700505
B1938494749811N12003392WA0070600504
B1938504749815N12003398WA0070600503
B1938514749819N12003405WA0070500502
B1938524749822N12003412WA0070400501
B1938534749825N12003419WA0070400499
B1938544749828N12003426WA0070300498
B1938554749830N12003435WA0070200497
B1938564749831N12003444WA0070200496
B1938574749833N12003453WA0070100494
B1938584749835N12003461WA0070100493
B1938594749837N12003470WA0070000492
B1939004749840N12003479WA0069900491
B1939014749843N12003487WA0069900490
B1939024749846N12003495WA0069800488
B1939034749848N12003503WA0069700487
B1939044749851N12003510WA0069700485
B1939054749853N12003516WA0069600484
B1939064749855N12003521WA0069500483
B1939074749858N12003525WA0069400483
B1939084749861N12003527WA0069400482
B1939094749864N12003527WA0069300481
B1939104749868N12003524WA0069300480
B1939114749870N12003519WA0069200479
B1939124749872N12003512WA0069200478
B1939134749873N12003505WA0069100477
B1939144749874N12003496WA0069100476
B1939154749876N12003487WA0069000475
B1939164749877N12003478WA0069000474
B1939174749879N12003468WA0068900473
B1939184749881N12003458WA0068800472
B1939194749883N12003448WA0068800470
B1939204749884N12003437WA0068700469
B1939214749886N12003427WA0068600468
B1939224749888N12003417WA0068600466
B1939234749891N12003407WA0068500465
B1939244749894N12003398WA0068400463
B1939254749897N12003389WA0068300462
B1939264749900N12003381WA0068300460
B1939274749902N12003372WA0068200459
B1939284749904N12003363WA0068100457
B1939294749905N12003354WA0068000456
B1939304749905N12003345WA0068000455
B1939314749904N12003336WA0067900454
B1939324749904N12003327WA0067800453
B1939334749902N12003318WA0067700452
B1939344749901N12003309WA0067700450
B1939354749898N12003300WA0067600449
B1939364749895N12003291WA0067500448
B1939374749891N12003283WA0067500446
B1939384749887N12003276WA0067400445
B1939394749883N12003268WA0067300444
B1939404749879N12003261WA0067300443
B1939414749875N12003253WA0067200442
B1939424749871N12003245WA0067100440
B1939434749868N12003236WA0067000438
B1939444749865N12003228WA0067000436
B1939454749862N12003219WA0066900435
B1939464749859N12003211WA0066800433
B1939474749856N12003203WA0066700432
B1939484749852N12003195WA0066600430
B1939494749848N12003189WA0066500429
B1939504749844N12003185WA0066500427
B1939514749838N12003182WA0066400426
B1939524749833N12003181WA0066300425
B1939534749828N12003180WA0066200424
B1939544749824N12003179WA0066100423
B1939554749820N12003178WA0066000422
B1939564749817N12003176WA0066000421
B1939574749815N12003174WA0065900420
B1939584749813N12003170WA0065800420
B1939594749813N12003166WA0065800418
B1940004749815N12003162WA0065700417
B1940014749818N12003158WA0065700416
B1940024749823N12003157WA0065600415
B1940034749828N12003156WA0065500415
B1940044749833N12003156WA0065500414
B1940054749839N12003158WA0065400413
B1940064749844N12003159WA0065400413
B1940074749849N12003160WA0065300413
B1940084749854N12003163WA0065300413
B1940094749859N12003165WA0065200414
B1940104749863N12003168WA0065100412
B1940114749867N12003171WA0065100412
B1940124749871N12003174WA0065000410
B1940134749876N12003178WA0065000410
B1940144749880N12003183WA0064900408
B1940154749885N12003188WA0064800407
B1940164749890N12003192WA0064800405
B1940174749895N12003196WA0064700404
B1940184749900N12003200WA0064600403
B1940194749906N12003204WA0064600402
B1940204749911N12003208WA0064500400
B1940214749917N12003211WA0064400398
B1940224749923N12003214WA0064400396
B1940234749929N12003216WA0064300394
B1940244749935N12003218WA0064200392
B1940254749942N12003219WA0064200390
B1940264749948N12003220WA0064100388
B1940274749954N12003222WA0064000386
B1940284749961N12003224WA0064000385
B1940294749967N12003226WA0063900383
B1940304749974N12003229WA0063800382
B1940314749980N12003231WA0063700381
B1940324749986N12003233WA0063700380
B1940334749992N12003236WA0063600379
B1940344749998N12003238WA0063500379
B1940354750003N12003242WA0063400379
B1940364750008N12003246WA0063400383
B1940374750013N12003249WA0063300383
B1940384750018N12003251WA0063200382
B1940394750024N12003254WA0063100379
B1940404750029N12003257WA0063100378
B1940414750034N12003260WA0063000376
B1940424750040N12003263WA0062900374
B1940434750045N12003265WA0062900372
B1940444750050N12003267WA0062800371
B1940454750056N12003267WA0062700370
B1940464750062N12003267WA0062700369
B1940474750068N12003267WA0062600368
B1940484750074N12003266WA0062500368
B1940494750079N12003265WA0062500367
B1940504750085N12003264WA0062400367
B1940514750090N12003262WA0062300366
B1940524750096N12003261WA0062300365
B1940534750102N12003260WA0062200364
B1940544750107N12003258WA0062200363
B1940554750113N12003257WA0062100362
B1940564750118N12003256WA0062000361
B1940574750123N12003255WA0062000361
B1940584750128N12003253WA0061900360
B1940594750132N12003252WA0061800360
B1941004750137N12003251WA0061800359
B1941014750140N12003250WA0061700358
B1941024750144N12003249WA0061700357
B1941034750147N12003248WA0061600357
B1941044750149N12003247WA0061500356
B1941054750150N12003246WA0061500355
B1941064750151N12003245WA0061400355
B1941074750152N12003245WA0061300355
B1941084750153N12003243WA0061300355
B1941094750154N12003239WA0061300354
B1941104750155N12003235WA0061300355
B1941114750154N12003229WA0061200354
B1941124750154N12003222WA0061200354
B1941134750153N12003214WA0061200354
B1941144750152N12003205WA0061100354
B1941154750151N12003195WA0061100354
B1941164750150N12003185WA0061100353
B1941174750149N12003175WA0061100353
B1941184750148N12003165WA0061000353
B1941194750146N12003155WA0061000354
B1941204750145N12003145WA0061000353
B1941214750144N12003135WA0060900353
B1941224750143N12003124WA0060900353
B1941234750142N12003114WA0060900353
B1941244750141N12003103WA0060900352
B1941254750140N12003091WA0060800352
B1941264750138N12003079WA0060800351
B1941274750137N12003067WA0060800351
B1941284750136N12003055WA0060700350
B1941294750134N12003043WA0060700349
B1941304750133N12003031WA0060700349
B1941314750132N12003019WA0060600349
B1941324750130N12003007WA0060600349
B1941334750129N12002994WA0060600348
B1941344750128N12002982WA0060500348
B1941354750126N12002970WA0060500347
B1941364750125N12002957WA0060500346
B1941374750124N12002945WA0060400346
B1941384750122N12002932WA0060400345
B1941394750121N12002920WA0060300344
B1941404750120N12002907WA0060300343
B1941414750118N12002894WA0060300342
B1941424750117N12002881WA0060200342
B1941434750116N12002868WA0060200341
B1941444750114N12002855WA0060100340
B1941454750113N12002842WA0060100340
B1941464750112N12002830WA0060000339
B1941474750111N12002816WA0060000339
B1941484750109N12002803WA0060000339
B1941494750108N12002790WA0059900339
B1941504750105N12002777WA0059900338
B1941514750103N12002764WA0059800338
B1941524750101N12002751WA0059800338
B1941534750098N12002738WA0059800338
B1941544750095N12002725WA0059700338
B1941554750092N12002712WA0059700338
B1941564750090N12002699WA0059700338
B1941574750087N12002685WA0059600338
B1941584750084N12002672WA0059600338
B1941594750081N12002659WA0059600338
B1942004750079N12002646WA0059500338
B1942014750077N12002632WA0059500339
B1942024750075N12002619WA0059500339
B1942034750073N12002606WA0059400338
B1942044750072N12002594WA0059400338
B1942054750070N12002581WA0059400338
B1942064750068N12002568WA0059400338
B1942074750067N12002554WA0059300338
B1942084750065N12002542WA0059300338
B1942094750064N12002529WA0059300338
B1942104750062N12002516WA0059300338
B1942114750061N12002503WA0059200338
B1942124750059N12002490WA0059200338
B1942134750058N12002477WA0059200338
B1942144750056N12002463WA0059200338
B1942154750055N12002450WA0059100338
B1942164750054N12002437WA0059100338
B1942174750052N12002423WA0059100338
B1942184750051N12002411WA0059100338
B1942194750051N12002399WA0059000338
B1942204750050N12002388WA0059000338
B1942214750051N12002377WA0059000338
B1942224750052N12002367WA0058900338
B1942234750054N12002357WA0058900338
B1942244750057N12002347WA0058900338
B1942254750061N12002338WA0058800338
B1942264750065N12002329WA0058800338
B1942274750070N12002322WA0058800338
B1942284750076N12002315WA0058800339
B1942294750082N12002309WA0058700337
B1942304750088N12002305WA0058700337
B1942314750095N12002301WA0058700337
B1942324750101N12002297WA0058700337
B1942334750108N12002292WA0058600337
B1942344750115N12002287WA0058600337
B1942354750122N12002283WA0058600337
B1942364750128N12002277WA0058600337
B1942374750134N12002270WA0058600337
B1942384750140N12002262WA0058500337
B1942394750144N12002253WA0058500337
B1942404750149N12002244WA0058500336
B1942414750152N12002233WA0058500336
B1942424750154N12002222WA0058400336
B1942434750156N12002211WA0058400336
B1942444750156N12002200WA0058400336
B1942454750156N12002188WA0058400336
B1942464750155N12002177WA0058300336
B1942474750154N12002165WA0058300336
B1942484750153N12002154WA0058300336
B1942494750152N12002142WA0058200336
B1942504750151N12002131WA0058200336
B1942514750150N12002120WA0058200336
B1942524750149N12002109WA0058200336
B1942534750148N12002098WA0058100336
B1942544750148N12002087WA0058100336
B1942554750147N12002076WA0058100336
B1942564750147N12002065WA0058100336
B1942574750147N12002055WA0058000336
B1942584750148N12002044WA0058000336
B1942594750149N12002033WA0058000336
B1943004750151N12002022WA0058000337
B1943014750153N12002012WA0057900337
B1943024750156N12002002WA0057900337
B1943034750159N12001991WA0057900338
B1943044750162N12001981WA0057900338
B1943054750166N12001970WA0057900339
B1943064750169N12001960WA0057800339
B1943074750173N12001950WA0057800339
B1943084750176N12001939WA0057800340
B1943094750179N12001928WA0057800340
B1943104750182N12001916WA0057800340
B1943114750183N12001904WA0057800341
B1943124750185N12001892WA0057700341
B1943134750185N12001879WA0057700341
B1943144750185N12001867WA0057700341
B1943154750184N12001854WA0057700342
B1943164750183N12001842WA0057700342
B1943174750182N12001829WA0057700342
B1943184750182N12001817WA0057600342
B1943194750181N12001805WA0057600343
B1943204750181N12001793WA0057600343
B1943214750180N12001781WA0057600343
B1943224750179N12001769WA0057600343
B1943234750178N12001757WA0057500343
B1943244750178N12001745WA0057500343
B1943254750177N12001734WA0057500344
B1943264750176N12001723WA0057500344
B1943274750176N12001712WA0057500344
B1943284750175N12001701WA0057400344
B1943294750174N12001690WA0057400343
B1943304750173N12001680WA0057400344
B1943314750172N12001669WA0057400344
B1943324750171N12001658WA0057300343
B1943334750171N12001648WA0057300343
B1943344750170N12001637WA0057300343
B1943354750170N12001626WA0057300343
B1943364750169N12001615WA0057200342
B1943374750168N12001604WA0057200342
B1943384750168N12001592WA0057200342
B1943394750167N12001581WA0057100342
B1943404750166N12001569WA0057100342
B1943414750166N12001558WA0057100342
B1943424750165N12001546WA0057100342
B1943434750164N12001534WA0057000342
B1943444750164N12001523WA0057000343
B1943454750163N12001512WA0057000343
B1943464750163N12001501WA0057000344
B1943474750163N12001490WA0056900344
B1943484750163N12001479WA0056900345
B1943494750162N12001468WA0056900346
B1943504750162N12001457WA0056900346
B1943514750161N12001446WA0056900346
B1943524750161N12001436WA0056900347
B1943534750160N12001425WA0056800347
B1943544750160N12001415WA0056800347
B1943554750159N12001405WA0056800348
B1943564750159N12001394WA0056800348
B1943574750158N12001384WA0056800349
B1943584750157N12001374WA0056800349
B1943594750157N12001363WA0056800349
B1944004750156N12001352WA0056800350
B1944014750155N12001341WA0056800350
B1944024750154N12001330WA0056800350
B1944034750153N12001319WA0056700350
B1944044750153N12001308WA0056700350
B1944054750152N12001297WA0056700350
B1944064750152N12001286WA0056700350
B1944074750151N12001275WA0056700350
B1944084750150N12001264WA0056700349
B1944094750150N12001253WA0056700349
B1944104750149N12001242WA0056600349
B1944114750148N12001231WA0056600349
B1944124750148N12001220WA0056600349
B1944134750147N12001209WA0056600350
B1944144750147N12001198WA0056600350
B1944154750146N12001186WA0056600349
B1944164750146N12001174WA0056600349
B1944174750145N12001163WA0056500349
B1944184750144N12001151WA0056500349
B1944194750144N12001140WA0056500349
B1944204750143N12001129WA0056500349
B1944214750142N12001118WA0056400349
B1944224750142N12001107WA0056400349
B1944234750141N12001096WA0056400349
B1944244750141N12001085WA0056400349
B1944254750141N12001075WA0056300348
B1944264750143N12001064WA0056300348
B1944274750145N12001054WA0056300348
B1944284750148N12001044WA0056300348
B1944294750151N12001034WA0056200348
B1944304750154N12001024WA0056200348
B1944314750158N12001014WA0056200348
B1944324750161N12001005WA0056200348
B1944334750164N12000995WA0056100347
B1944344750168N12000985WA0056100347
B1944354750171N12000975WA0056100347
B1944364750175N12000966WA0056100346
B1944374750178N12000956WA0056000346
B1944384750181N12000947WA0056000345
B1944394750184N12000937WA0056000345
B1944404750188N12000928WA0055900345
B1944414750192N12000920WA0055900345
B1944424750197N12000913WA0055900345
B1944434750202N12000907WA0055900344
B1944444750208N12000903WA0055800344
B1944454750214N12000901WA0055800344
B1944464750221N12000899WA0055800344
B1944474750228N12000898WA0055800342
B1944484750235N12000897WA0055700343
B1944494750242N12000896WA0055700343
B1944504750249N12000895WA0055700342
B1944514750256N12000894WA0055700342
B1944524750263N12000893WA0055600342
B1944534750271N12000892WA0055600342
B1944544750278N12000892WA0055600342
B1944554750285N12000891WA0055600342
B1944564750292N12000891WA0055600341
B1944574750300N12000890WA0055500341
B1944584750307N12000890WA0055500341
B1944594750314N12000889WA0055500341
B1945004750321N12000889WA0055500341
B1945014750328N12000888WA0055500340
B1945024750334N12000888WA0055400340
B1945034750340N12000887WA0055400340
B1945044750345N12000887WA0055400340
B1945054750349N12000886WA0055300340
B1945064750353N12000886WA0055300340
B1945074750355N12000886WA0055300340
B1945084750358N12000886WA0055300340
B1945094750359N12000886WA0055200341
B1945104750360N12000886WA0055200341
B1945114750360N12000886WA0055200341
B1945124750361N12000885WA0055200341
B1945134750361N12000885WA0055100341
B1945144750362N12000885WA0055100341
B1945154750362N12000885WA0055100342
B1945164750363N12000885WA0055100341
B1945174750364N12000885WA0055100341
B1945184750366N12000885WA0055000341
B1945194750368N12000885WA0055000341
B1945204750370N12000884WA0055000341
B1945214750372N12000884WA0055000342
B1945224750374N12000884WA0055000342
B1945234750376N12000884WA0055000342
B1945244750379N12000884WA0054900342
B1945254750382N12000884WA0054900342
B1945264750384N12000883WA0054900342
B1945274750386N12000881WA0054900342
B1945284750388N12000878WA0054900343
B1945294750388N12000873WA0054900343
B1945304750388N12000867WA0054900343
B1945314750388N12000860WA0054800343
B1945324750388N12000852WA0054800344
B1945334750389N12000843WA0054800344
B1945344750389N12000834WA0054800344
B1945354750388N12000825WA0054800344
B1945364750388N12000815WA0054800344
B1945374750388N12000805WA0054700345
B1945384750388N12000795WA0054700345
B1945394750388N12000785WA0054700346
B1945404750388N12000774WA0054700346
B1945414750388N12000764WA0054700346
B1945424750388N12000753WA0054700346
B1945434750388N12000743WA0054600347
B1945444750387N12000732WA0054600347
B1945454750387N12000721WA0054600348
B1945464750387N12000710WA0054600349
B1945474750387N12000699WA0054600349
B1945484750386N12000688WA0054600350
B1945494750386N12000678WA0054600350
B1945504750386N12000667WA0054600351
B1945514750386N12000656WA0054600351
B1945524750385N12000645WA0054500352
B1945534750385N12000634WA0054500352
B1945544750385N12000623WA0054500353
B1945554750384N12000612WA0054500353
B1945564750384N12000601WA0054500353
B1945574750384N12000591WA0054500354
B1945584750383N12000580WA0054500355
B1945594750383N12000569WA0054500356
B1946004750383N12000558WA0054500357
B1946014750382N12000547WA0054500358
B1946024750382N12000536WA0054500358
B1946034750382N12000524WA0054500359
B1946044750382N12000513WA0054500359
B1946054750381N12000501WA0054500360
B1946064750381N12000489WA0054500361
B1946074750381N12000477WA0054500361
B1946084750380N12000466WA0054500362
B1946094750380N12000454WA0054500362
B1946104750380N12000442WA0054500363
B1946114750379N12000430WA0054500363
B1946124750379N12000418WA0054500363
B1946134750379N12000407WA0054500364
B1946144750379N12000395WA0054500364
B1946154750378N12000384WA0054500365
B1946164750378N12000373WA0054500365
B1946174750378N12000362WA0054500366
B1946184750377N12000351WA0054500366
B1946194750377N12000339WA0054500367
B1946204750377N12000328WA0054500367
B1946214750377N12000317WA0054500367
B1946224750376N12000306WA0054500368
B1946234750376N12000295WA0054500368
B1946244750376N12000284WA0054500368
B1946254750376N12000272WA0054500369
B1946264750375N12000261WA0054500369
B1946274750375N12000249WA0054500369
B1946284750375N12000238WA0054500369
B1946294750375N12000226WA0054500369
B1946304750374N12000214WA0054500369
B1946314750374N12000202WA0054500369
B1946324750374N12000190WA0054500368
B1946334750373N12000177WA0054500368
B1946344750373N12000165WA0054400368
B1946354750373N12000152WA0054400368
B1946364750372N12000140WA0054400368
B1946374750372N12000128WA0054400368
B1946384750372N12000116WA0054400368
B1946394750371N12000105WA0054400368
B1946404750371N12000094WA0054400369
B1946414750371N12000084WA0054400369
B1946424750370N12000073WA0054300369
B1946434750370N12000063WA0054300369
B1946444750370N12000052WA0054300369
B1946454750369N12000042WA0054300369
B1946464750369N12000031WA0054300370
B1946474750369N12000020WA0054300370
B1946484750368N12000008WA0054300370
B1946494750368N11959997WA0054300370
B1946504750368N11959985WA0054300370
B1946514750367N11959972WA0054300370
B1946524750367N11959960WA0054300371
B1946534750366N11959947WA0054300371
B1946544750364N11959934WA0054300371
B1946554750363N11959922WA0054200372
B1946564750361N11959909WA0054200372
B1946574750360N11959897WA0054200372
B1946584750359N11959885WA0054200373
B1946594750358N11959873WA0054200373
B1947004750357N11959861WA0054200374
B1947014750356N11959849WA0054200374
B1947024750355N11959837WA0054200374
B1947034750354N11959824WA0054200374
B1947044750353N11959812WA0054200375
B1947054750352N11959799WA0054200375
B1947064750351N11959787WA0054200375
B1947074750350N11959775WA0054200376
B1947084750349N11959762WA0054200376
B1947094750348N11959749WA0054200377
B1947104750347N11959737WA0054200378
B1947114750346N11959724WA0054200378
B1947124750346N11959711WA0054200379
B1947134750345N11959698WA0054200380
B1947144750344N11959684WA0054200380
B1947154750343N11959671WA0054300381
B1947164750342N11959657WA0054300382
B1947174750341N11959643WA0054300383
B1947184750340N11959629WA0054300384
B1947194750339N11959615WA0054300385
B1947204750339N11959602WA0054300386
B1947214750339N11959588WA0054300387
B1947224750339N11959575WA0054300387
B1947234750340N11959562WA0054400388
B1947244750342N11959549WA0054400388
B1947254750344N11959536WA0054400389
B1947264750347N11959523WA0054400390
B1947274750349N11959511WA0054400390
B1947284750353N11959499WA0054400391
B1947294750356N11959488WA0054400392
B1947304750360N11959476WA0054400392
B1947314750364N11959465WA0054400392
B1947324750368N11959455WA0054400393
B1947334750373N11959445WA0054400393
B1947344750378N11959435WA0054400393
B1947354750383N11959425WA0054400393
B1947364750389N11959416WA0054400393
B1947374750395N11959407WA0054400393
B1947384750401N11959398WA0054400393
B1947394750406N11959390WA0054400393
B1947404750412N11959381WA0054400393
B1947414750418N11959371WA0054500393
B1947424750424N11959362WA0054500394
B1947434750429N11959351WA0054500394
B1947444750434N11959341WA0054500395
B1947454750439N11959329WA0054500395
B1947464750443N11959318WA0054500395
B1947474750448N11959306WA0054500395
B1947484750452N11959294WA0054500395
B1947494750455N11959282WA0054500395
B1947504750459N11959270WA0054400395
B1947514750463N11959259WA0054400395
B1947524750466N11959247WA0054400395
B1947534750470N11959236WA0054400395
B1947544750473N11959225WA0054400395
B1947554750476N11959214WA0054400395
B1947564750478N11959205WA0054400395
B1947574750480N11959196WA0054400395
B1947584750482N11959189WA0054400395
B1947594750482N11959183WA0054300395
B1948004750482N11959177WA0054300395
B1948014750480N11959172WA0054300395
B1948024750477N11959168WA0054300395
B1948034750473N11959165WA0054300395
B1948044750469N11959163WA0054300395
B1948054750464N11959163WA0054300394
B1948064750459N11959162WA0054300393
B1948074750455N11959162WA0054300393
B1948084750450N11959160WA0054200393
B1948094750446N11959158WA0054200393
B1948104750442N11959154WA0054200393
B1948114750439N11959149WA0054200394
B1948124750436N11959143WA0054200394
B1948134750434N11959136WA0054200394
B1948144750433N11959128WA0054200394
B1948154750432N11959119WA0054200395
B1948164750430N11959110WA0054200395
B1948174750428N11959101WA0054200395
B1948184750425N11959093WA0054200396
B1948194750421N11959086WA0054200397
B1948204750416N11959079WA0054200398
B1948214750411N11959074WA0054200398
B1948224750406N11959070WA0054200398
B1948234750400N11959066WA0054200398
B1948244750394N11959063WA0054200398
B1948254750388N11959059WA0054300398
B1948264750382N11959056WA0054300399
B1948274750376N11959053WA0054300399
B1948284750370N11959049WA0054300399
B1948294750364N11959045WA0054200399
B1948304750359N11959040WA0054200398
B1948314750354N11959036WA0054200398
B1948324750348N11959031WA0054200398
B1948334750343N11959027WA0054200398
B1948344750337N11959022WA0054200397
B1948354750332N11959017WA0054200396
B1948364750327N11959011WA0054200396
B1948374750322N11959005WA0054100396
B1948384750317N11958999WA0054100397
B1948394750312N11958993WA0054100397
B1948404750307N11958986WA0054100397
B1948414750302N11958979WA0054100397
B1948424750298N11958972WA0054100397
B1948434750294N11958965WA0054100397
B1948444750290N11958958WA0054100397
B1948454750286N11958953WA0054100397
B1948464750282N11958949WA0054000397
B1948474750277N11958946WA0054000397
B1948484750272N11958946WA0054000398
B1948494750267N11958947WA0054000398
B1948504750262N11958949WA0054000398
B1948514750257N11958953WA0054000396
B1948524750252N11958957WA0054000396
B1948534750248N11958961WA0054000395
B1948544750244N11958965WA0054000395
B1948554750240N11958968WA0054000394
B1948564750236N11958970WA0053900393
B1948574750232N11958971WA0053900392
B1948584750228N11958972WA0053900391
B1948594750225N11958970WA0053800390
B1949004750222N11958967WA0053800389
B1949014750220N11958962WA0053800389
B1949024750220N11958956WA0053700388
B1949034750220N11958950WA0053700388
B1949044750220N11958944WA0053700388
B1949054750220N11958939WA0053700388
B1949064750219N11958934WA0053600388
B1949074750218N11958930WA0053600388
B1949084750216N11958928WA0053600388
B1949094750214N11958926WA0053600388
B1949104750212N11958924WA0053500388
B1949114750211N11958922WA0053500389
B1949124750209N11958921WA0053500389
B1949134750208N11958920WA0053500389
B1949144750207N11958919WA0053500389
B1949154750206N11958918WA0053500389
B1949164750205N11958918WA0053400389
B1949174750205N11958917WA0053400390
B1949184750204N11958917WA0053400390
B1949194750204N11958917WA0053400390
B1949204750204N11958917WA0053400390
B1949214750204N11958917WA0053400390
B1949224750204N11958917WA0053300390
B1949234750204N11958918WA0053300390
B1949244750204N11958918WA0053300390
B1949254750204N11958918WA0053300390
B1949264750204N11958918WA0053300390
B1949274750204N11958918WA0053300390
B1949284750204N11958918WA0053300390
B1949294750205N11958918WA0053300390
B1949304750205N11958918WA0053300390
B1949314750205N11958918WA0053200390
B1949324750205N11958918WA0053200390
B1949334750205N11958918WA0053200390
B1949344750205N11958918WA0053200390
B1949354750205N11958918WA0053200390
B1949364750205N11958918WA0053200390
B1949374750205N11958918WA0053200390
B1949384750205N11958918WA0053200390
B1949394750205N11958918WA0053200390
B1949404750205N11958918WA0053200390
B1949414750205N11958918WA0053100390
B1949424750205N11958918WA0053100390
B1949434750205N11958918WA0053100390
B1949444750205N11958918WA0053100390
B1949454750205N11958918WA0053100390
B1949464750205N11958918WA0053100390
B1949474750205N11958918WA0053100390
B1949484750205N11958918WA0053100390
B1949494750205N11958918WA0053100390
B1949504750205N11958918WA0053100390
B1949514750205N11958918WA0053000390
B1949524750205N11958918WA0053000390
B1949534750205N11958918WA0053000390
B1949544750205N11958918WA0053000390
B1949554750205N11958918WA0053000390
B1949564750205N11958918WA0053000390
B1949574750205N11958918WA0053000390
B1949584750205N11958918WA0053000390
B1949594750205N11958918WA0053000390
B1950004750205N11958918WA0053000390
B1950014750205N11958918WA0052900390
B1950024750205N11958918WA0052900390
B1950034750205N11958918WA0052900390
B1950044750205N11958918WA0052900390
B1950054750205N11958918WA0052900390
B1950064750205N11958918WA0052900390
B1950074750205N11958918WA0052900390
B1950084750205N11958918WA0052900390
B1950094750205N11958918WA0052900390
B1950104750205N11958918WA0052900390
B1950114750205N11958918WA0052800390
B1950124750205N11958918WA0052800390
B1950134750205N11958918WA0052800390
B1950144750205N11958918WA0052800390
B1950154750205N11958918WA0052800390
B1950164750205N11958918WA0052800390
B1950174750205N11958918WA0052800390
B1950184750205N11958918WA0052800390
B1950194750205N11958918WA0052800390
B1950204750205N11958918WA0052800390
B1950214750205N11958918WA0052700390
B1950224750205N11958918WA0052700390
B1950234750205N11958918WA0052700390
B1950244750205N11958918WA0052700390
B1950254750205N11958918WA0052700390
B1950264750205N11958918WA0052700390
B1950274750205N11958918WA0052700389
B1950284750205N11958918WA0052700389
B1950294750205N11958918WA0052700389
B1950304750205N11958918WA0052700389
B1950314750205N11958918WA0052700389
B1950324750205N11958918WA0052600389
B1950334750205N11958918WA0052600389
B1950344750205N11958918WA0052600389
B1950354750205N11958918WA0052600389
B1950364750205N11958918WA0052600389
B1950374750205N11958918WA0052600389
B1950384750205N11958918WA0052600389
B1950394750205N11958918WA0052600389
B1950404750205N11958918WA0052600389
B1950414750205N11958918WA0052600389
B1950424750205N11958918WA0052500389
B1950434750205N11958918WA0052500389
B1950444750205N11958918WA0052500389
B1950454750205N11958918WA0052500389
B1950464750205N11958918WA0052500389
B1950474750205N11958918WA0052500389
B1950484750205N11958918WA0052500389
B1950494750205N11958918WA0052500389
B1950504750205N11958918WA0052500389
B1950514750205N11958918WA0052500389
B1950524750205N11958918WA0052400389
B1950534750205N11958918WA0052400389
B1950544750205N11958918WA0052400389
B1950554750205N11958918WA0052400389
B1950564750205N11958918WA0052400389
B1950574750205N11958918WA0052400389
B1950584750205N11958918WA0052400389
B1950594750205N11958918WA0052400389
B1951004750205N11958918WA0052400389
B1951014750205N11958918WA0052400389
B1951024750205N11958918WA0052300389
B1951034750205N11958918WA0052300389
B1951044750205N11958918WA0052300389
B1951054750205N11958918WA0052300389
B1951064750205N11958918WA0052300390
B1951074750205N11958918WA0052300390
B1951084750205N11958918WA0052300390
B1951094750205N11958918WA0052300390
B1951104750205N11958918WA0052300390
B1951114750205N11958918WA0052300390
B1951124750205N11958918WA0052200390
B1951134750205N11958918WA0052200390
B1951144750205N11958918WA0052200390
B1951154750205N11958918WA0052200390
B1951164750205N11958918WA0052200390
B1951174750205N11958918WA0052200390
B1951184750205N11958918WA0052200390
B1951194750205N11958918WA0052200390
B1951204750205N11958918WA0052200390
B1951214750205N11958918WA0052200390
B1951224750205N11958918WA0052100390
B1951234750205N11958918WA0052100390
B1951244750205N11958918WA0052100390
B1951254750205N11958918WA0052100390
B1951264750205N11958918WA0052100390
B1951274750205N11958918WA0052100391
B1951284750205N11958918WA0052100391
B1951294750205N11958918WA0052100391
B1951304750205N11958918WA0052100391
B1951314750205N11958918WA0052100391
B1951324750205N11958918WA0052100391
B1951334750205N11958918WA0052100391
B1951344750205N11958918WA0052000391
B1951354750205N11958918WA0052000391
B1951364750205N11958918WA0052000391
B1951374750205N11958918WA0052000391
B1951384750205N11958918WA0052000391
B1951394750205N11958918WA0052000391
B1951404750205N11958918WA0052000391
B1951414750205N11958918WA0052000391
B1951424750205N11958918WA0052000391
B1951434750205N11958918WA0052000391
B1951444750205N11958918WA0052000391
B1951454750205N11958918WA0052000391
B1951464750205N11958918WA0051900391
B1951474750205N11958918WA0051900391
B1951484750205N11958918WA0051900391
B1951494750205N11958918WA0051900391
B1951504750205N11958918WA0051900391
B1951514750205N11958918WA0051900391
B1951524750205N11958918WA0051900391
B1951534750205N11958918WA0051900391
B1951544750205N11958918WA0051900391
B1951554750205N11958918WA0051900391
B1951564750205N11958918WA0051900391
B1951574750205N11958918WA0051800391
B1951584750205N11958918WA0051800391
B1951594750205N11958918WA0051800391
B1952004750205N11958918WA0051800391
B1952014750205N11958918WA0051800391
B1952024750205N11958918WA0051800391
B1952034750205N11958918WA0051800391
B1952044750205N11958918WA0051800391
B1952054750205N11958918WA0051800391
B1952064750205N11958918WA0051800391
B1952074750205N11958918WA0051800391
B1952084750205N11958918WA0051800391
B1952094750205N11958918WA0051700391
B1952104750205N11958918WA0051700391
B1952114750205N11958918WA0051700391
B1952124750205N11958918WA0051700391
B1952134750206N11958918WA0051700391
B1952144750206N11958918WA0051700391
B1952154750206N11958918WA0051700391
B1952164750206N11958918WA0051700391
B1952174750205N11958918WA0051700391
B1952184750205N11958918WA0051700390
B1952194750205N11958918WA0051700391
B1952204750205N11958918WA0051700391
B1952214750205N11958918WA0051600390
B1952224750205N11958918WA0051600390
B1952234750205N11958918WA0051600390
B1952244750205N11958918WA0051600390
B1952254750205N11958918WA0051600390
B1952264750205N11958918WA0051600390
B1952274750205N11958918WA0051600390
B1952284750205N11958918WA0051600390
B1952294750205N11958918WA0051600390
B1952304750205N11958918WA0051600390
B1952314750205N11958918WA0051600390
B1952324750205N11958918WA0051600389
B1952334750205N11958918WA0051500389
B1952344750205N11958918WA0051500389
B1952354750205N11958918WA0051500389
B1952364750205N11958918WA0051500389
B1952374750205N11958918WA0051500389
B1952384750205N11958918WA0051500389
B1952394750205N11958918WA0051500389
B1952404750205N11958918WA0051500389
B1952414750205N11958918WA0051500389
B1952424750205N11958918WA0051500389
B1952434750205N11958918WA0051500388
B1952444750205N11958918WA0051500389
B1952454750205N11958918WA0051400389
B1952464750205N11958918WA0051400389
B1952474750205N11958918WA0051400389
B1952484750205N11958918WA0051400389
B1952494750205N11958918WA0051400389
B1952504750205N11958918WA0051400389
B1952514750205N11958918WA0051400389
B1952524750205N11958918WA0051400389
B1952534750205N11958918WA0051400389
B1952544750205N11958918WA0051400389
B1952554750205N11958918WA0051400389
B1952564750205N11958918WA0051400389
B1952574750205N11958918WA0051300388
B1952584750205N11958918WA0051300388
B1952594750205N11958918WA0051300388
B1953004750205N11958918WA0051300388
B1953014750205N11958918WA0051300388
B1953024750205N11958918WA0051300388
B1953034750205N11958918WA0051300388
B1953044750205N11958918WA0051300388
B1953054750205N11958918WA0051300388
B1953064750205N11958918WA0051300388
B1953074750205N11958918WA0051300388
B1953084750205N11958918WA0051200388
B1953094750205N11958918WA0051200388
B1953104750205N11958918WA0051200388
B1953114750205N11958918WA0051200388
B1953124750205N11958918WA0051200388
B1953134750205N11958918WA0051200388
B1953144750205N11958918WA0051200388
B1953154750205N11958918WA0051200388
B1953164750205N11958918WA0051200388
B1953174750205N11958918WA0051200388
B1953184750205N11958918WA0051200388
B1953194750205N11958918WA0051200388
B1953204750205N11958918WA0051200388
B1953214750205N11958918WA0051100388
B1953224750205N11958918WA0051100388
B1953234750205N11958918WA0051100388
B1953244750205N11958918WA0051100388
B1953254750205N11958918WA0051100388
B1953264750205N11958918WA0051100388
B1953274750205N11958918WA0051100388
B1953284750205N11958918WA0051100388
B1953294750205N11958918WA0051100388
B1953304750205N11958918WA0051100388
B1953314750205N11958918WA0051100388
B1953324750205N11958918WA0051100388
B1953334750205N11958918WA0051000388
B1953344750205N11958918WA0051000388
B1953354750205N11958918WA0051000388
B1953364750205N11958918WA0051000388
B1953374750205N11958918WA0051000388
B1953384750205N11958918WA0051000388
B1953394750205N11958918WA0051000389
B1953404750205N11958918WA0050900389
B1953414750205N11958918WA0050900388
B1953424750205N11958918WA0050900388
B1953434750205N11958918WA0050900388
B1953444750205N11958918WA0050900388
B1953454750205N11958918WA0050900388
B1953464750205N11958918WA0050900389
B1953474750205N11958918WA0050800389
B1953484750206N11958918WA0050800389
B1953494750206N11958918WA0050800389
B1953504750206N11958918WA0050800390
B1953514750206N11958918WA0050800390
B1953524750206N11958919WA0050700390
B1953534750206N11958919WA0050700390
B1953544750206N11958919WA0050700390
B1953554750205N11958920WA0050700390
B1953564750205N11958920WA0050700390
B1953574750205N11958919WA0050700390
B1953584750204N11958919WA0050700390
B1953594750204N11958919WA0050700389
B1954004750204N11958919WA0050800389
B1954014750204N11958919WA0050800389
B1954024750204N11958919WA0050800389
B1954034750204N11958920WA0050800389
B1954044750204N11958920WA0050800389
B1954054750204N11958920WA0050800389
B1954064750204N11958920WA0050800389
B1954074750204N11958920WA0050700389
B1954084750204N11958920WA0050700389
B1954094750204N11958920WA0050700389
B1954104750204N11958920WA0050700388
B1954114750204N11958920WA0050700388
B1954124750204N11958920WA0050700388
B1954134750204N11958920WA0050700388
B1954144750204N11958920WA0050700388
B1954154750204N11958920WA0050600388
B1954164750204N11958920WA0050600388
B1954174750204N11958920WA0050600388
B1954184750204N11958920WA0050600388
B1954194750204N11958920WA0050600388
B1954204750204N11958920WA0050600387
B1954214750204N11958920WA0050600387
B1954224750204N11958920WA0050600387
B1954234750204N11958920WA0050700387
B1954244750204N11958920WA0050700387
B1954254750204N11958920WA0050700387
B1954264750204N11958920WA0050700387
B1954274750204N11958920WA0050700387
B1954284750204N11958920WA0050700387
B1954294750204N11958920WA0050700387
B1954304750204N11958920WA0050700387
B1954314750204N11958920WA0050700387
B1954324750204N11958920WA0050700387
B1954334750204N11958920WA0050700387
B1954344750204N11958920WA0050700387
B1954354750204N11958920WA0050700387
B1954364750204N11958920WA0050700387
B1954374750204N11958921WA0050600387
B1954384750204N11958921WA0050600387
B1954394750204N11958921WA0050600387
B1954404750204N11958921WA0050600387
B1954414750204N11958921WA0050600387
B1954424750204N11958921WA0050600387
B1954434750204N11958921WA0050500387
B1954444750204N11958921WA0050500387
B1954454750204N11958921WA0050500387
B1954464750204N11958921WA0050500387
B1954474750204N11958921WA0050400387
B1954484750204N11958921WA0050300387
B1954494750204N11958921WA0050200387
B1954504750203N11958921WA0050100388
B1954514750202N11958921WA0050100388
B1954524750202N11958921WA0050000388
B1954534750201N11958920WA0049900388
B1954544750201N11958920WA0049900387
B1954554750200N11958919WA0049800388
B1954564750199N11958919WA0049800387
B1954574750199N11958919WA0049700387
B1954584750198N11958919WA0049700387
B1954594750198N11958918WA0049600387
B1955004750197N11958918WA0049600387
B1955014750197N11958918WA0049600387
B1955024750196N11958918WA0049600388
B1955034750195N11958918WA0049500388
B1955044750194N11958918WA0049500388
B1955054750194N11958917WA0049500388
B1955064750193N11958917WA0049400388
B1955074750193N11958917WA0049400388
B1955084750192N11958917WA0049400388
B1955094750192N11958917WA0049400388
B1955104750191N11958916WA0049400388
B1955114750191N11958915WA0049300388
B1955124750190N11958915WA0049300388
B1955134750190N11958915WA0049300388
B1955144750189N11958914WA0049300388
B1955154750188N11958914WA0049300387
B1955164750188N11958914WA0049200387
B1955174750187N11958914WA0049200387
B1955184750186N11958914WA0049200387
B1955194750186N11958914WA0049200387
B1955204750185N11958914WA0049200387
B1955214750185N11958914WA0049200387
B1955224750185N11958914WA0049200387
B1955234750185N11958913WA0049200387
B1955244750185N11958913WA0049200387
B1955254750185N11958913WA0049000387
B1955264750185N11958913WA0049000386
B1955274750185N11958913WA0049100387
B1955284750185N11958913WA0049200387
B1955294750185N11958913WA0049200387
B1955304750185N11958913WA0049300387
B1955314750185N11958913WA0049400387
B1955324750185N11958913WA0049400386
B1955334750185N11958913WA0049400387
B1955344750185N11958913WA0049400387
B1955354750185N11958913WA0049500387
B1955364750185N11958913WA0049500387
B1955374750185N11958913WA0049500387
B1955384750185N11958913WA0049400387
B1955394750185N11958913WA0048600387
B1955404750185N11958913WA0047800387
B1955414750185N11958913WA0046800387
B1955424750185N11958913WA0046200387
B1955434750185N11958913WA0045400387
B1955444750185N11958913WA0044900387
B1955454750185N11958913WA0044300387
B1955464750185N11958913WA0044000387
B1955474750185N11958913WA0043500387
B1955484750185N11958913WA0043200387
B1955494750185N11958913WA0042800387
B1955504750185N11958913WA0042600387
B1955514750185N11958913WA0042300387
B1955524750185N11958913WA0042200387
B1955534750185N11958913WA0042000386
B1955544750185N11958913WA0041800386
B1955554750184N11958913WA0041700386
B1955564750184N11958913WA0041600386
B1955574750184N11958913WA0041400386
B1955584750184N11958913WA0041300386
B1955594750184N11958913WA0041200386
B1956004750184N11958913WA0041200386
B1956014750184N11958913WA0041100386
B1956024750184N11958913WA0041100386
B1956034750184N11958913WA0041000386
B1956044750184N11958913WA0041000386
B1956054750184N11958913WA0040900386
B1956064750184N11958913WA0040900386
B1956074750184N11958913WA0040900386
B1956084750184N11958913WA0040800386
B1956094750184N11958913WA0040800386
B1956104750184N11958913WA0040800387
B1956114750184N11958913WA0040800387
B1956124750184N11958913WA0040800386
B1956134750184N11958913WA0040700386
B1956144750184N11958913WA0040700386
B1956154750184N11958912WA0040700386
B1956164750184N11958912WA0040700386
B1956174750184N11958912WA0040700386
B1956184750183N11958912WA0040700386
B1956194750183N11958913WA0040700386
B1956204750183N11958913WA0040700386
B1956214750183N11958913WA0040700386
B1956224750183N11958913WA0040700386
B1956234750183N11958913WA0040700386
B1956244750183N11958913WA0040700386
B1956254750183N11958913WA0040700386
B1956264750183N11958913WA0040700386
B1956274750183N11958913WA0040700386
B1956284750183N11958913WA0040700386
B1956294750183N11958913WA0040700386
B1956304750183N11958913WA0040700386
B1956314750183N11958913WA0040700386
B1956324750183N11958913WA0040700386
B1956334750183N11958913WA0040600386
B1956344750183N11958913WA0040600386
B1956354750183N11958913WA0040600386
B1956364750183N11958913WA0040600386
B1956374750183N11958913WA0040600386
B1956384750183N11958913WA0040600386
B1956394750183N11958913WA0040600386
B1956404750183N11958913WA0040600386
B1956414750183N11958913WA0040600387
B1956424750183N11958913WA0040600387
B1956434750183N11958913WA0040600387
B1956444750183N11958913WA0040600387
B1956454750183N11958913WA0040600387
B1956464750183N11958913WA0040600387
B1956474750183N11958913WA0040600387
B1956484750183N11958913WA0040600387
B1956494750183N11958913WA0040600387
B1956504750183N11958913WA0040600387
B1956514750183N11958913WA0040600387
B1956524750183N11958913WA0040600387
B1956534750183N11958913WA0040600387
B1956544750183N11958913WA0040600387
B1956554750183N11958913WA0040600387
B1956564750183N11958913WA0040600387
B1956574750183N11958913WA0040600387
B1956584750183N11958913WA0040600388
B1956594750183N11958913WA0040600388
B1957004750183N11958913WA0040600388
B1957014750183N11958913WA0040600388
B1957024750183N11958913WA0040600388
B1957034750183N11958913WA0040600388
B1957044750183N11958913WA0040600388
B1957054750183N11958913WA0040600388
B1957064750183N11958913WA0040600388
B1957074750183N11958913WA0040600388
B1957084750183N11958913WA0040600388
B1957094750183N11958913WA0040600388
B1957104750183N11958913WA0040600388
B1957114750183N11958913WA0040600388
LXFM live.flymaster.net version 1.01
LXFM Created 2025-06-26 23:39:45
LXFM flight id 1616575
GDF6C108EF65F974426657EB979A1C641
