AXFMSFP Flymaster Live, V1.0, S/N 239025
HFFXA010
HFPLTPILOT:Ben Pedersen-Wedlock
HFGTYGLIDERTYPE: 
HFGIDGLIDERID:
HFDTM100GPSDATUM:WGS-1984
HFCIDCOMPETITIONID:562
HFCCLCOMPETITIONCLASS:
HOSITSITE:Chelan Butte-US
HFGPS:UBLOXNEO6
HFPRSPRESSALTSENSOR:NA
HFRFWFIRMWAREVERSION:203f
HFRHWHARDWAREVERSION:1.0R2
HFFTYFRTYPE:FLYMASTER,LIVE
HFDTE260625
B1910164748298N12002295WA0111201131
B1910174748300N12002293WA0111101130
B1910184748301N12002290WA0111101130
B1910194748303N12002288WA0111101129
B1910204748306N12002285WA0111101129
B1910214748308N12002282WA0111101128
B1910224748310N12002279WA0111101128
B1910234748312N12002277WA0111101128
B1910244748314N12002274WA0111101128
B1910254748317N12002272WA0111101127
B1910264748319N12002269WA0111001127
B1910274748321N12002267WA0111001127
B1910284748322N12002265WA0111001127
B1910294748324N12002263WA0111001127
B1910304748326N12002261WA0111001127
B1910314748327N12002259WA0111001127
B1910324748328N12002258WA0111001126
B1910334748329N12002257WA0111001125
B1910344748330N12002256WA0111001125
B1910354748331N12002255WA0111001125
B1910364748332N12002255WA0111001125
B1910374748334N12002255WA0111001125
B1910384748335N12002256WA0111001125
B1910394748336N12002257WA0111001125
B1910404748337N12002259WA0111001125
B1910414748337N12002260WA0111001124
B1910424748338N12002262WA0110901123
B1910434748339N12002264WA0110901122
B1910444748339N12002266WA0110901121
B1910454748340N12002269WA0110901120
B1910464748340N12002271WA0110901120
B1910474748341N12002274WA0110901119
B1910484748341N12002276WA0110801119
B1910494748341N12002279WA0110801118
B1910504748342N12002281WA0110801118
B1910514748342N12002284WA0110701117
B1910524748342N12002287WA0110701117
B1910534748343N12002291WA0110601116
B1910544748343N12002295WA0110601115
B1910554748343N12002298WA0110501115
B1910564748343N12002302WA0110501114
B1910574748343N12002306WA0110401114
B1910584748343N12002309WA0110301113
B1910594748344N12002313WA0110301112
B1911004748344N12002317WA0110201112
B1911014748344N12002320WA0110201111
B1911024748343N12002324WA0110101110
B1911034748343N12002327WA0110101109
B1911044748343N12002330WA0110001109
B1911054748342N12002333WA0109901108
B1911064748342N12002336WA0109901107
B1911074748341N12002339WA0109801107
B1911084748340N12002341WA0109801106
B1911094748339N12002344WA0109701106
B1911104748339N12002347WA0109601105
B1911114748338N12002349WA0109601104
B1911124748337N12002352WA0109501104
B1911134748335N12002354WA0109501103
B1911144748334N12002357WA0109401102
B1911154748333N12002360WA0109401102
B1911164748332N12002363WA0109301101
B1911174748330N12002366WA0109201101
B1911184748329N12002369WA0109201100
B1911194748328N12002372WA0109101100
B1911204748326N12002376WA0109101099
B1911214748325N12002380WA0109001098
B1911224748323N12002383WA0108901097
B1911234748322N12002387WA0108901095
B1911244748320N12002392WA0108801094
B1911254748318N12002396WA0108701092
B1911264748317N12002401WA0108701091
B1911274748315N12002406WA0108601090
B1911284748314N12002411WA0108501089
B1911294748312N12002416WA0108401088
B1911304748312N12002421WA0108301087
B1911314748311N12002426WA0108301086
B1911324748311N12002430WA0108201085
B1911334748311N12002435WA0108101084
B1911344748311N12002439WA0108001083
B1911354748311N12002444WA0107901082
B1911364748311N12002448WA0107801081
B1911374748311N12002453WA0107701080
B1911384748311N12002457WA0107601080
B1911394748310N12002462WA0107601079
B1911404748309N12002466WA0107501078
B1911414748308N12002470WA0107401077
B1911424748307N12002474WA0107301076
B1911434748306N12002478WA0107201075
B1911444748305N12002482WA0107101075
B1911454748303N12002486WA0107101074
B1911464748302N12002490WA0107001073
B1911474748301N12002494WA0106901072
B1911484748301N12002498WA0106801071
B1911494748301N12002502WA0106701070
B1911504748301N12002506WA0106601070
B1911514748301N12002510WA0106501069
B1911524748302N12002514WA0106401069
B1911534748303N12002518WA0106401068
B1911544748304N12002521WA0106301068
B1911554748305N12002524WA0106201067
B1911564748306N12002528WA0106101067
B1911574748307N12002531WA0106001066
B1911584748309N12002535WA0105901066
B1911594748309N12002539WA0105901065
B1912004748310N12002541WA0105801064
B1912014748310N12002544WA0105701064
B1912024748310N12002547WA0105601064
B1912034748310N12002550WA0105601063
B1912044748309N12002554WA0105501062
B1912054748308N12002557WA0105401061
B1912064748307N12002561WA0105401059
B1912074748306N12002564WA0105301059
B1912084748305N12002567WA0105201058
B1912094748303N12002571WA0105201057
B1912104748302N12002574WA0105101056
B1912114748301N12002578WA0105001055
B1912124748300N12002582WA0104901054
B1912134748299N12002585WA0104901053
B1912144748298N12002589WA0104801052
B1912154748298N12002593WA0104701051
B1912164748298N12002598WA0104701050
B1912174748298N12002602WA0104601050
B1912184748298N12002606WA0104501048
B1912194748299N12002610WA0104501047
B1912204748300N12002614WA0104401047
B1912214748301N12002618WA0104301046
B1912224748302N12002621WA0104201045
B1912234748303N12002625WA0104201044
B1912244748302N12002630WA0104101043
B1912254748302N12002634WA0104001043
B1912264748301N12002638WA0103901043
B1912274748300N12002641WA0103901042
B1912284748299N12002645WA0103801041
B1912294748298N12002648WA0103701041
B1912304748297N12002651WA0103601040
B1912314748295N12002655WA0103501039
B1912324748294N12002659WA0103401038
B1912334748292N12002662WA0103401038
B1912344748291N12002666WA0103301036
B1912354748289N12002669WA0103201035
B1912364748288N12002674WA0103101034
B1912374748287N12002678WA0103101033
B1912384748287N12002682WA0103001032
B1912394748287N12002686WA0102901031
B1912404748287N12002691WA0102801030
B1912414748286N12002695WA0102701029
B1912424748286N12002699WA0102601028
B1912434748287N12002704WA0102501027
B1912444748287N12002708WA0102401027
B1912454748287N12002712WA0102401026
B1912464748286N12002716WA0102301025
B1912474748285N12002720WA0102201025
B1912484748283N12002724WA0102201023
B1912494748281N12002728WA0102101022
B1912504748280N12002731WA0102001022
B1912514748278N12002735WA0102001021
B1912524748276N12002738WA0101901020
B1912534748274N12002742WA0101801019
B1912544748272N12002746WA0101801019
B1912554748270N12002750WA0101701019
B1912564748269N12002754WA0101601018
B1912574748267N12002758WA0101601018
B1912584748266N12002762WA0101501017
B1912594748265N12002766WA0101501016
B1913004748264N12002769WA0101401017
B1913014748263N12002773WA0101401017
B1913024748261N12002776WA0101301016
B1913034748260N12002779WA0101301017
B1913044748259N12002781WA0101301016
B1913054748257N12002783WA0101201016
B1913064748255N12002784WA0101201016
B1913074748253N12002785WA0101201016
B1913084748252N12002785WA0101101016
B1913094748251N12002786WA0101101016
B1913104748250N12002787WA0101101016
B1913114748249N12002789WA0101101016
B1913124748249N12002791WA0101001015
B1913134748248N12002794WA0101001015
B1913144748249N12002796WA0101001015
B1913154748249N12002798WA0101001014
B1913164748250N12002800WA0100901015
B1913174748252N12002801WA0100901015
B1913184748253N12002802WA0100901015
B1913194748254N12002802WA0100801015
B1913204748256N12002802WA0100801014
B1913214748257N12002802WA0100801014
B1913224748258N12002802WA0100801013
B1913234748259N12002802WA0100701013
B1913244748260N12002802WA0100701013
B1913254748262N12002801WA0100701012
B1913264748263N12002801WA0100601012
B1913274748264N12002801WA0100601012
B1913284748265N12002800WA0100501012
B1913294748266N12002799WA0100501012
B1913304748268N12002797WA0100501011
B1913314748269N12002795WA0100401010
B1913324748270N12002793WA0100401010
B1913334748271N12002791WA0100401010
B1913344748272N12002789WA0100301009
B1913354748274N12002786WA0100301009
B1913364748275N12002784WA0100201009
B1913374748276N12002781WA0100201008
B1913384748277N12002779WA0100101008
B1913394748278N12002776WA0100101008
B1913404748280N12002774WA0100001007
B1913414748281N12002771WA0100001007
B1913424748283N12002768WA0099901005
B1913434748285N12002766WA0099801005
B1913444748288N12002764WA0099801004
B1913454748291N12002762WA0099701003
B1913464748295N12002760WA0099601003
B1913474748298N12002759WA0099601002
B1913484748301N12002758WA0099501001
B1913494748304N12002756WA0099401000
B1913504748307N12002755WA0099301000
B1913514748309N12002754WA0099301000
B1913524748311N12002752WA0099200999
B1913534748313N12002750WA0099100999
B1913544748315N12002747WA0099100998
B1913554748317N12002744WA0099000997
B1913564748319N12002740WA0098900996
B1913574748321N12002737WA0098900995
B1913584748322N12002733WA0098800994
B1913594748324N12002729WA0098700993
B1914004748325N12002726WA0098600992
B1914014748327N12002723WA0098500991
B1914024748329N12002720WA0098400991
B1914034748331N12002718WA0098400990
B1914044748333N12002716WA0098300989
B1914054748337N12002715WA0098200989
B1914064748340N12002714WA0098100988
B1914074748343N12002713WA0098100988
B1914084748346N12002713WA0098000986
B1914094748350N12002712WA0097900986
B1914104748352N12002712WA0097800985
B1914114748355N12002711WA0097700984
B1914124748357N12002710WA0097700983
B1914134748359N12002709WA0097600983
B1914144748362N12002707WA0097500982
B1914154748364N12002706WA0097400981
B1914164748366N12002703WA0097400980
B1914174748368N12002701WA0097300979
B1914184748370N12002699WA0097200978
B1914194748372N12002696WA0097200977
B1914204748374N12002694WA0097100976
B1914214748376N12002691WA0097000975
B1914224748379N12002688WA0096900975
B1914234748381N12002685WA0096800974
B1914244748383N12002682WA0096700973
B1914254748384N12002679WA0096700972
B1914264748385N12002677WA0096600971
B1914274748387N12002675WA0096500970
B1914284748389N12002674WA0096400969
B1914294748391N12002673WA0096400969
B1914304748394N12002673WA0096300969
B1914314748397N12002674WA0096200968
B1914324748400N12002674WA0096200968
B1914334748403N12002675WA0096100967
B1914344748405N12002676WA0096000966
B1914354748408N12002677WA0096000966
B1914364748411N12002678WA0095900966
B1914374748413N12002679WA0095900967
B1914384748416N12002679WA0095800967
B1914394748418N12002679WA0095800966
B1914404748420N12002678WA0095700966
B1914414748421N12002677WA0095700965
B1914424748423N12002678WA0095700965
B1914434748425N12002679WA0095600965
B1914444748427N12002680WA0095600964
B1914454748428N12002682WA0095500964
B1914464748430N12002685WA0095500964
B1914474748430N12002688WA0095400963
B1914484748430N12002691WA0095400962
B1914494748429N12002694WA0095300962
B1914504748428N12002697WA0095300961
B1914514748426N12002698WA0095300961
B1914524748424N12002699WA0095200960
B1914534748422N12002700WA0095200959
B1914544748420N12002700WA0095100959
B1914554748417N12002699WA0095100958
B1914564748415N12002699WA0095100958
B1914574748413N12002698WA0095000957
B1914584748411N12002697WA0095000956
B1914594748408N12002696WA0095000955
B1915004748406N12002695WA0094900955
B1915014748404N12002695WA0094900954
B1915024748402N12002696WA0094800954
B1915034748401N12002696WA0094800953
B1915044748400N12002698WA0094700953
B1915054748399N12002701WA0094700952
B1915064748398N12002704WA0094600952
B1915074748397N12002708WA0094600951
B1915084748396N12002712WA0094600950
B1915094748395N12002716WA0094500949
B1915104748394N12002721WA0094500949
B1915114748393N12002726WA0094400948
B1915124748393N12002731WA0094300947
B1915134748392N12002736WA0094300946
B1915144748391N12002741WA0094200945
B1915154748390N12002746WA0094200944
B1915164748388N12002750WA0094100943
B1915174748386N12002754WA0094100943
B1915184748383N12002757WA0094000941
B1915194748381N12002759WA0093900940
B1915204748379N12002761WA0093800940
B1915214748377N12002763WA0093800939
B1915224748375N12002765WA0093700938
B1915234748374N12002767WA0093600937
B1915244748373N12002770WA0093600938
B1915254748372N12002773WA0093500937
B1915264748371N12002777WA0093400936
B1915274748371N12002781WA0093400936
B1915284748371N12002785WA0093300935
B1915294748371N12002788WA0093300934
B1915304748370N12002792WA0093200933
B1915314748368N12002796WA0093100932
B1915324748367N12002799WA0093100932
B1915334748365N12002802WA0093000932
B1915344748364N12002806WA0093000931
B1915354748364N12002810WA0092900931
B1915364748364N12002813WA0092800931
B1915374748364N12002816WA0092800930
B1915384748364N12002819WA0092700930
B1915394748364N12002822WA0092700930
B1915404748364N12002825WA0092600930
B1915414748364N12002828WA0092600929
B1915424748364N12002831WA0092500929
B1915434748364N12002834WA0092500928
B1915444748365N12002838WA0092400928
B1915454748365N12002842WA0092400928
B1915464748366N12002845WA0092300927
B1915474748367N12002849WA0092300927
B1915484748369N12002853WA0092200926
B1915494748371N12002857WA0092200925
B1915504748372N12002861WA0092100924
B1915514748373N12002865WA0092100923
B1915524748375N12002869WA0092000923
B1915534748376N12002873WA0092000922
B1915544748377N12002877WA0091900922
B1915554748379N12002881WA0091800921
B1915564748380N12002885WA0091800921
B1915574748382N12002889WA0091700920
B1915584748383N12002893WA0091700919
B1915594748385N12002896WA0091600919
B1916004748387N12002900WA0091500918
B1916014748388N12002903WA0091500917
B1916024748390N12002906WA0091400917
B1916034748391N12002909WA0091400916
B1916044748393N12002912WA0091300915
B1916054748394N12002916WA0091200914
B1916064748396N12002919WA0091100914
B1916074748397N12002922WA0091100913
B1916084748398N12002925WA0091000912
B1916094748400N12002929WA0090900912
B1916104748401N12002933WA0090900911
B1916114748402N12002937WA0090800910
B1916124748403N12002941WA0090700909
B1916134748404N12002945WA0090700908
B1916144748405N12002950WA0090600907
B1916154748407N12002954WA0090500906
B1916164748408N12002958WA0090400905
B1916174748410N12002963WA0090400904
B1916184748411N12002967WA0090300903
B1916194748412N12002971WA0090200902
B1916204748413N12002975WA0090100901
B1916214748414N12002979WA0090000900
B1916224748414N12002984WA0089900899
B1916234748414N12002988WA0089900898
B1916244748414N12002993WA0089800897
B1916254748414N12002997WA0089700895
B1916264748414N12003002WA0089600894
B1916274748414N12003007WA0089600893
B1916284748415N12003011WA0089500892
B1916294748416N12003015WA0089400891
B1916304748417N12003018WA0089300889
B1916314748419N12003022WA0089200888
B1916324748422N12003025WA0089100887
B1916334748424N12003028WA0089100887
B1916344748427N12003031WA0089000886
B1916354748430N12003034WA0088900885
B1916364748432N12003038WA0088800883
B1916374748435N12003042WA0088700883
B1916384748437N12003045WA0088600881
B1916394748440N12003049WA0088500880
B1916404748443N12003052WA0088400880
B1916414748445N12003055WA0088400879
B1916424748448N12003057WA0088300878
B1916434748452N12003058WA0088200877
B1916444748455N12003060WA0088100876
B1916454748458N12003061WA0088000876
B1916464748462N12003063WA0087900875
B1916474748465N12003064WA0087900874
B1916484748469N12003066WA0087800874
B1916494748472N12003068WA0087700873
B1916504748475N12003069WA0087600873
B1916514748478N12003072WA0087600872
B1916524748482N12003074WA0087500871
B1916534748485N12003078WA0087400871
B1916544748489N12003081WA0087400870
B1916554748492N12003084WA0087300870
B1916564748495N12003088WA0087200869
B1916574748498N12003091WA0087200869
B1916584748501N12003095WA0087100869
B1916594748503N12003098WA0087000868
B1917004748505N12003101WA0086900868
B1917014748507N12003104WA0086900868
B1917024748509N12003107WA0086800867
B1917034748511N12003110WA0086800866
B1917044748513N12003113WA0086700866
B1917054748515N12003116WA0086600865
B1917064748517N12003120WA0086600865
B1917074748520N12003123WA0086500864
B1917084748522N12003128WA0086400862
B1917094748525N12003132WA0086400861
B1917104748527N12003136WA0086300860
B1917114748529N12003141WA0086200859
B1917124748531N12003146WA0086100858
B1917134748534N12003152WA0086000857
B1917144748537N12003157WA0085900856
B1917154748539N12003162WA0085900855
B1917164748543N12003167WA0085800854
B1917174748546N12003171WA0085700853
B1917184748550N12003174WA0085600852
B1917194748554N12003176WA0085500852
B1917204748558N12003177WA0085400851
B1917214748561N12003177WA0085400851
B1917224748565N12003177WA0085300851
B1917234748569N12003177WA0085200851
B1917244748572N12003177WA0085200851
B1917254748576N12003178WA0085100851
B1917264748579N12003178WA0085100851
B1917274748583N12003179WA0085000851
B1917284748586N12003180WA0085000851
B1917294748589N12003182WA0085000851
B1917304748592N12003184WA0084900851
B1917314748595N12003186WA0084900851
B1917324748598N12003188WA0084800850
B1917334748600N12003191WA0084800851
B1917344748603N12003194WA0084800850
B1917354748605N12003196WA0084800849
B1917364748607N12003197WA0084700850
B1917374748610N12003199WA0084700849
B1917384748612N12003200WA0084700849
B1917394748614N12003201WA0084600848
B1917404748617N12003201WA0084600848
B1917414748619N12003202WA0084600849
B1917424748622N12003202WA0084600849
B1917434748625N12003202WA0084500848
B1917444748628N12003203WA0084500848
B1917454748632N12003203WA0084500847
B1917464748635N12003204WA0084500846
B1917474748639N12003205WA0084400846
B1917484748642N12003206WA0084400845
B1917494748645N12003207WA0084400845
B1917504748648N12003208WA0084400846
B1917514748652N12003210WA0084300845
B1917524748655N12003212WA0084300845
B1917534748658N12003215WA0084300844
B1917544748661N12003218WA0084200843
B1917554748665N12003220WA0084200842
B1917564748668N12003222WA0084100841
B1917574748671N12003224WA0084100841
B1917584748674N12003226WA0084100841
B1917594748677N12003227WA0084000840
B1918004748680N12003229WA0084000839
B1918014748683N12003230WA0083900839
B1918024748686N12003231WA0083900839
B1918034748690N12003232WA0083800838
B1918044748693N12003232WA0083800837
B1918054748696N12003233WA0083700837
B1918064748700N12003233WA0083700836
B1918074748703N12003233WA0083600835
B1918084748707N12003233WA0083500835
B1918094748711N12003233WA0083500835
B1918104748714N12003233WA0083400834
B1918114748718N12003233WA0083400834
B1918124748722N12003233WA0083300834
B1918134748725N12003233WA0083300833
B1918144748729N12003233WA0083200832
B1918154748733N12003233WA0083100831
B1918164748736N12003233WA0083100831
B1918174748740N12003233WA0083000830
B1918184748743N12003232WA0082900829
B1918194748747N12003232WA0082900828
B1918204748751N12003232WA0082800827
B1918214748755N12003231WA0082700827
B1918224748758N12003231WA0082600826
B1918234748762N12003231WA0082600825
B1918244748766N12003230WA0082500823
B1918254748771N12003230WA0082400822
B1918264748775N12003231WA0082400821
B1918274748779N12003231WA0082300820
B1918284748784N12003231WA0082200819
B1918294748788N12003231WA0082100818
B1918304748793N12003232WA0082000818
B1918314748796N12003232WA0082000817
B1918324748800N12003232WA0081900816
B1918334748803N12003230WA0081800816
B1918344748806N12003228WA0081800816
B1918354748808N12003226WA0081700816
B1918364748810N12003223WA0081700815
B1918374748811N12003220WA0081600815
B1918384748812N12003216WA0081600815
B1918394748813N12003213WA0081500814
B1918404748814N12003209WA0081500813
B1918414748814N12003205WA0081400812
B1918424748815N12003201WA0081400811
B1918434748814N12003197WA0081300810
B1918444748813N12003193WA0081300810
B1918454748811N12003189WA0081200809
B1918464748810N12003185WA0081200809
B1918474748807N12003182WA0081100808
B1918484748805N12003179WA0081100808
B1918494748803N12003176WA0081000807
B1918504748800N12003173WA0081000806
B1918514748798N12003171WA0080900805
B1918524748795N12003169WA0080900805
B1918534748792N12003168WA0080800804
B1918544748789N12003166WA0080800804
B1918554748786N12003163WA0080800803
B1918564748784N12003161WA0080700803
B1918574748781N12003157WA0080700802
B1918584748779N12003154WA0080600802
B1918594748777N12003150WA0080600801
B1919004748775N12003146WA0080500801
B1919014748773N12003142WA0080500800
B1919024748772N12003138WA0080400800
B1919034748772N12003133WA0080400800
B1919044748772N12003128WA0080300799
B1919054748773N12003124WA0080300800
B1919064748773N12003120WA0080200799
B1919074748774N12003116WA0080200799
B1919084748774N12003112WA0080100799
B1919094748774N12003108WA0080100798
B1919104748773N12003103WA0080000798
B1919114748772N12003099WA0080000797
B1919124748769N12003095WA0079900797
B1919134748766N12003093WA0079900797
B1919144748763N12003090WA0079800795
B1919154748760N12003089WA0079800793
B1919164748756N12003087WA0079700792
B1919174748753N12003085WA0079700792
B1919184748749N12003085WA0079600791
B1919194748746N12003084WA0079600790
B1919204748742N12003084WA0079500790
B1919214748739N12003084WA0079400789
B1919224748735N12003084WA0079400789
B1919234748732N12003084WA0079300788
B1919244748728N12003084WA0079300788
B1919254748725N12003083WA0079200788
B1919264748722N12003082WA0079200788
B1919274748720N12003082WA0079100788
B1919284748717N12003082WA0079100788
B1919294748715N12003081WA0079000788
B1919304748712N12003081WA0079000788
B1919314748709N12003082WA0079000787
B1919324748705N12003083WA0078900787
B1919334748701N12003083WA0078900786
B1919344748697N12003083WA0078800786
B1919354748694N12003083WA0078800785
B1919364748690N12003082WA0078700785
B1919374748687N12003082WA0078700784
B1919384748684N12003082WA0078700784
B1919394748681N12003082WA0078600783
B1919404748678N12003083WA0078600783
B1919414748675N12003084WA0078500781
B1919424748672N12003083WA0078500781
B1919434748669N12003083WA0078400780
B1919444748666N12003083WA0078400780
B1919454748664N12003083WA0078300779
B1919464748661N12003084WA0078300778
B1919474748658N12003084WA0078200777
B1919484748655N12003084WA0078100776
B1919494748652N12003084WA0078100775
B1919504748649N12003083WA0078000774
B1919514748646N12003082WA0077900773
B1919524748643N12003080WA0077800772
B1919534748640N12003077WA0077700771
B1919544748637N12003074WA0077700771
B1919554748636N12003069WA0077600770
B1919564748634N12003064WA0077500769
B1919574748634N12003059WA0077400768
B1919584748633N12003054WA0077300767
B1919594748633N12003050WA0077200766
B1920004748632N12003045WA0077100766
B1920014748631N12003041WA0077000765
B1920024748630N12003036WA0076900763
B1920034748628N12003032WA0076800762
B1920044748627N12003028WA0076700760
B1920054748625N12003024WA0076600759
B1920064748624N12003021WA0076500757
B1920074748623N12003017WA0076400756
B1920084748621N12003014WA0076200755
B1920094748621N12003011WA0076200754
B1920104748620N12003007WA0076000754
B1920114748620N12003003WA0076000753
B1920124748622N12003001WA0075900751
B1920134748625N12003000WA0075800750
B1920144748627N12003000WA0075700749
B1920154748630N12003002WA0075600747
B1920164748632N12003004WA0075500747
B1920174748635N12003006WA0075500746
B1920184748638N12003008WA0075400746
B1920194748641N12003009WA0075300745
B1920204748644N12003010WA0075200744
B1920214748648N12003009WA0075200746
B1920224748651N12003008WA0075100746
B1920234748655N12003006WA0075000745
B1920244748658N12003004WA0074900745
B1920254748662N12003002WA0074900744
B1920264748666N12003000WA0074800744
B1920274748670N12002998WA0074700743
B1920284748673N12002995WA0074600741
B1920294748677N12002993WA0074500740
B1920304748680N12002990WA0074400739
B1920314748683N12002987WA0074300736
B1920324748686N12002984WA0074200735
B1920334748689N12002981WA0074100733
B1920344748693N12002977WA0074000731
B1920354748696N12002974WA0073900730
B1920364748700N12002971WA0073700728
B1920374748703N12002968WA0073600727
B1920384748707N12002965WA0073500726
B1920394748711N12002962WA0073400725
B1920404748715N12002959WA0073200723
B1920414748718N12002957WA0073100722
B1920424748722N12002955WA0073000721
B1920434748725N12002953WA0072900719
B1920444748728N12002952WA0072700718
B1920454748732N12002950WA0072600717
B1920464748735N12002949WA0072500716
B1920474748739N12002947WA0072400715
B1920484748743N12002946WA0072300714
B1920494748747N12002945WA0072200713
B1920504748751N12002944WA0072000712
B1920514748755N12002943WA0071900712
B1920524748759N12002942WA0071800712
B1920534748763N12002941WA0071700711
B1920544748766N12002940WA0071500710
B1920554748770N12002939WA0071400709
B1920564748773N12002937WA0071300709
B1920574748776N12002935WA0071200708
B1920584748779N12002934WA0071100707
B1920594748783N12002933WA0071000706
B1921004748786N12002933WA0070800704
B1921014748789N12002934WA0070800703
B1921024748792N12002936WA0070600702
B1921034748794N12002939WA0070500699
B1921044748797N12002942WA0070400698
B1921054748799N12002944WA0070300697
B1921064748802N12002946WA0070200695
B1921074748805N12002946WA0070100694
B1921084748809N12002947WA0070000693
B1921094748812N12002947WA0069900692
B1921104748815N12002946WA0069800691
B1921114748818N12002946WA0069700690
B1921124748822N12002945WA0069600689
B1921134748825N12002944WA0069600687
B1921144748829N12002943WA0069400685
B1921154748834N12002942WA0069400684
B1921164748838N12002941WA0069200683
B1921174748843N12002940WA0069100681
B1921184748848N12002939WA0069000681
B1921194748852N12002939WA0068900680
B1921204748857N12002938WA0068800678
B1921214748861N12002937WA0068700677
B1921224748865N12002936WA0068500676
B1921234748869N12002934WA0068400675
B1921244748873N12002933WA0068300674
B1921254748877N12002931WA0068200672
B1921264748881N12002930WA0068100671
B1921274748886N12002929WA0068000669
B1921284748891N12002928WA0067800668
B1921294748895N12002927WA0067700666
B1921304748900N12002927WA0067600666
B1921314748904N12002927WA0067500665
B1921324748908N12002928WA0067400665
B1921334748912N12002929WA0067300664
B1921344748915N12002930WA0067200664
B1921354748918N12002931WA0067100663
B1921364748920N12002932WA0067000663
B1921374748922N12002935WA0067000662
B1921384748924N12002937WA0066900661
B1921394748926N12002940WA0066800661
B1921404748929N12002943WA0066700661
B1921414748931N12002946WA0066600659
B1921424748934N12002949WA0066500658
B1921434748936N12002951WA0066500657
B1921444748939N12002953WA0066400657
B1921454748942N12002954WA0066300656
B1921464748945N12002955WA0066200656
B1921474748948N12002956WA0066100656
B1921484748951N12002956WA0066000656
B1921494748953N12002958WA0066000657
B1921504748956N12002960WA0065900656
B1921514748958N12002962WA0065800655
B1921524748960N12002965WA0065700653
B1921534748963N12002967WA0065600652
B1921544748965N12002969WA0065500650
B1921554748968N12002971WA0065500649
B1921564748970N12002973WA0065400647
B1921574748973N12002974WA0065300647
B1921584748975N12002975WA0065200647
B1921594748978N12002974WA0065100647
B1922004748981N12002974WA0065100646
B1922014748984N12002974WA0065000645
B1922024748987N12002975WA0064900644
B1922034748990N12002977WA0064900643
B1922044748993N12002979WA0064800643
B1922054748996N12002980WA0064700642
B1922064748999N12002982WA0064600641
B1922074749003N12002984WA0064600639
B1922084749006N12002986WA0064500638
B1922094749009N12002989WA0064400637
B1922104749012N12002991WA0064300636
B1922114749015N12002994WA0064300635
B1922124749018N12002995WA0064200634
B1922134749021N12002997WA0064100634
B1922144749024N12002998WA0064000632
B1922154749027N12002999WA0064000632
B1922164749030N12002999WA0063900632
B1922174749032N12003000WA0063800632
B1922184749035N12003000WA0063800632
B1922194749038N12003000WA0063700630
B1922204749041N12003001WA0063600630
B1922214749044N12003002WA0063600629
B1922224749048N12003004WA0063500628
B1922234749051N12003006WA0063400627
B1922244749055N12003008WA0063300626
B1922254749058N12003009WA0063300624
B1922264749062N12003011WA0063200623
B1922274749066N12003011WA0063100621
B1922284749069N12003012WA0063000619
B1922294749073N12003013WA0062900618
B1922304749077N12003015WA0062800617
B1922314749081N12003016WA0062700616
B1922324749084N12003018WA0062600615
B1922334749088N12003020WA0062500614
B1922344749092N12003022WA0062300613
B1922354749095N12003025WA0062300612
B1922364749099N12003027WA0062100611
B1922374749103N12003029WA0062000610
B1922384749107N12003030WA0061900610
B1922394749110N12003030WA0061900609
B1922404749114N12003029WA0061800608
B1922414749118N12003028WA0061700608
B1922424749122N12003028WA0061600608
B1922434749125N12003027WA0061500608
B1922444749129N12003027WA0061400608
B1922454749132N12003027WA0061400607
B1922464749136N12003028WA0061300606
B1922474749140N12003029WA0061200605
B1922484749144N12003030WA0061100604
B1922494749148N12003032WA0061100603
B1922504749152N12003033WA0061000601
B1922514749156N12003034WA0060900600
B1922524749161N12003034WA0060800599
B1922534749165N12003034WA0060700598
B1922544749169N12003033WA0060600596
B1922554749173N12003032WA0060500594
B1922564749177N12003031WA0060400593
B1922574749181N12003031WA0060300593
B1922584749185N12003031WA0060200592
B1922594749189N12003032WA0060200591
B1923004749193N12003033WA0060100590
B1923014749197N12003034WA0060000590
B1923024749200N12003034WA0060000589
B1923034749203N12003035WA0059900588
B1923044749207N12003035WA0059800588
B1923054749209N12003035WA0059800587
B1923064749212N12003035WA0059700587
B1923074749215N12003034WA0059700586
B1923084749217N12003034WA0059600586
B1923094749220N12003034WA0059600586
B1923104749222N12003034WA0059600586
B1923114749225N12003034WA0059600586
B1923124749227N12003035WA0059500586
B1923134749230N12003036WA0059500586
B1923144749233N12003038WA0059500586
B1923154749235N12003040WA0059500585
B1923164749239N12003041WA0059500585
B1923174749242N12003042WA0059500585
B1923184749246N12003043WA0059500584
B1923194749250N12003044WA0059500585
B1923204749254N12003045WA0059400585
B1923214749258N12003046WA0059400585
B1923224749262N12003047WA0059400585
B1923234749267N12003048WA0059400584
B1923244749273N12003050WA0059300584
B1923254749278N12003051WA0059300583
B1923264749283N12003052WA0059200582
B1923274749288N12003054WA0059200582
B1923284749293N12003055WA0059100582
B1923294749297N12003057WA0059000582
B1923304749301N12003058WA0059000582
B1923314749305N12003060WA0058900582
B1923324749308N12003061WA0058900581
B1923334749312N12003062WA0058800581
B1923344749316N12003063WA0058800580
B1923354749321N12003065WA0058700578
B1923364749325N12003066WA0058700577
B1923374749330N12003068WA0058600577
B1923384749335N12003069WA0058500576
B1923394749339N12003070WA0058500575
B1923404749344N12003070WA0058400574
B1923414749349N12003070WA0058400574
B1923424749354N12003069WA0058300573
B1923434749359N12003068WA0058300572
B1923444749363N12003068WA0058200572
B1923454749368N12003067WA0058100571
B1923464749372N12003066WA0058100570
B1923474749377N12003065WA0058000570
B1923484749382N12003063WA0058000569
B1923494749386N12003062WA0057900569
B1923504749390N12003061WA0057900568
B1923514749395N12003060WA0057800568
B1923524749399N12003059WA0057800568
B1923534749403N12003058WA0057700567
B1923544749407N12003057WA0057700567
B1923554749411N12003057WA0057700566
B1923564749415N12003057WA0057600566
B1923574749420N12003057WA0057600566
B1923584749424N12003056WA0057500565
B1923594749429N12003056WA0057500564
B1924004749434N12003056WA0057400563
B1924014749439N12003055WA0057400562
B1924024749444N12003054WA0057300561
B1924034749450N12003053WA0057200560
B1924044749456N12003053WA0057200559
B1924054749462N12003052WA0057100558
B1924064749468N12003051WA0057000557
B1924074749474N12003050WA0057000556
B1924084749480N12003049WA0056900555
B1924094749486N12003047WA0056800554
B1924104749492N12003046WA0056700553
B1924114749498N12003046WA0056600553
B1924124749503N12003046WA0056600552
B1924134749508N12003048WA0056500551
B1924144749513N12003050WA0056400551
B1924154749518N12003052WA0056300550
B1924164749523N12003054WA0056300549
B1924174749527N12003056WA0056200549
B1924184749532N12003057WA0056100548
B1924194749537N12003059WA0056000547
B1924204749542N12003060WA0055900547
B1924214749547N12003062WA0055800545
B1924224749553N12003064WA0055700544
B1924234749558N12003066WA0055600542
B1924244749563N12003068WA0055500542
B1924254749568N12003068WA0055400542
B1924264749573N12003069WA0055300541
B1924274749578N12003070WA0055300541
B1924284749582N12003071WA0055200541
B1924294749586N12003073WA0055100542
B1924304749590N12003076WA0055100542
B1924314749593N12003079WA0055000542
B1924324749597N12003083WA0055000541
B1924334749600N12003086WA0054900541
B1924344749603N12003090WA0054900541
B1924354749606N12003093WA0054800541
B1924364749609N12003097WA0054800540
B1924374749611N12003102WA0054800539
B1924384749613N12003107WA0054800539
B1924394749614N12003112WA0054700539
B1924404749615N12003117WA0054700538
B1924414749616N12003123WA0054700538
B1924424749617N12003128WA0054700539
B1924434749618N12003134WA0054700539
B1924444749618N12003139WA0054700539
B1924454749619N12003145WA0054700539
B1924464749619N12003151WA0054700539
B1924474749620N12003157WA0054800539
B1924484749621N12003163WA0054800539
B1924494749622N12003169WA0054800539
B1924504749622N12003175WA0054800539
B1924514749623N12003180WA0054800539
B1924524749623N12003186WA0054800539
B1924534749624N12003192WA0054800539
B1924544749625N12003197WA0054800539
B1924554749626N12003203WA0054800539
B1924564749627N12003210WA0054800538
B1924574749628N12003217WA0054800538
B1924584749630N12003223WA0054800537
B1924594749631N12003231WA0054700537
B1925004749633N12003238WA0054700537
B1925014749633N12003245WA0054700537
B1925024749633N12003252WA0054700537
B1925034749631N12003259WA0054700537
B1925044749630N12003264WA0054700537
B1925054749630N12003270WA0054600536
B1925064749630N12003275WA0054600536
B1925074749631N12003279WA0054600536
B1925084749633N12003283WA0054600536
B1925094749636N12003286WA0054600536
B1925104749638N12003289WA0054600536
B1925114749641N12003291WA0054600536
B1925124749644N12003293WA0054600536
B1925134749648N12003294WA0054600536
B1925144749651N12003295WA0054500536
B1925154749656N12003296WA0054500537
B1925164749660N12003295WA0054500537
B1925174749664N12003294WA0054500536
B1925184749669N12003292WA0054400537
B1925194749673N12003290WA0054400537
B1925204749678N12003289WA0054400537
B1925214749682N12003289WA0054400537
B1925224749687N12003290WA0054300537
B1925234749691N12003292WA0054300537
B1925244749695N12003294WA0054300536
B1925254749698N12003297WA0054200535
B1925264749702N12003301WA0054200534
B1925274749705N12003306WA0054100533
B1925284749708N12003310WA0054100533
B1925294749710N12003315WA0054000532
B1925304749712N12003321WA0054000531
B1925314749715N12003326WA0053900531
B1925324749717N12003331WA0053900530
B1925334749720N12003336WA0053800529
B1925344749723N12003340WA0053800529
B1925354749726N12003344WA0053700528
B1925364749730N12003347WA0053700527
B1925374749735N12003350WA0053600525
B1925384749740N12003353WA0053500524
B1925394749746N12003355WA0053500522
B1925404749751N12003358WA0053400520
B1925414749757N12003360WA0053300519
B1925424749763N12003363WA0053200518
B1925434749770N12003366WA0053100517
B1925444749776N12003369WA0053000515
B1925454749783N12003372WA0052900514
B1925464749789N12003375WA0052800512
B1925474749796N12003377WA0052700511
B1925484749802N12003381WA0052600510
B1925494749807N12003385WA0052500509
B1925504749811N12003390WA0052300507
B1925514749815N12003396WA0052200507
B1925524749818N12003402WA0052100506
B1925534749821N12003409WA0052000504
B1925544749824N12003416WA0051900504
B1925554749827N12003423WA0051800502
B1925564749829N12003430WA0051600502
B1925574749831N12003438WA0051600500
B1925584749832N12003445WA0051400499
B1925594749833N12003453WA0051300498
B1926004749835N12003460WA0051200497
B1926014749836N12003467WA0051100496
B1926024749838N12003473WA0051000495
B1926034749840N12003480WA0050900494
B1926044749843N12003487WA0050800493
B1926054749845N12003494WA0050700492
B1926064749848N12003500WA0050600491
B1926074749850N12003506WA0050500489
B1926084749852N12003512WA0050300488
B1926094749854N12003518WA0050300488
B1926104749856N12003523WA0050100487
B1926114749859N12003527WA0050100486
B1926124749861N12003529WA0049900485
B1926134749864N12003530WA0049900485
B1926144749866N12003528WA0049800484
B1926154749868N12003525WA0049700483
B1926164749869N12003521WA0049600483
B1926174749871N12003517WA0049500483
B1926184749872N12003512WA0049400481
B1926194749873N12003507WA0049400481
B1926204749874N12003501WA0049300479
B1926214749875N12003496WA0049200478
B1926224749876N12003490WA0049100477
B1926234749877N12003485WA0049100477
B1926244749878N12003479WA0049000476
B1926254749879N12003474WA0048900475
B1926264749880N12003469WA0048800474
B1926274749881N12003463WA0048800473
B1926284749882N12003457WA0048700471
B1926294749882N12003452WA0048600471
B1926304749883N12003446WA0048500470
B1926314749884N12003440WA0048500469
B1926324749885N12003435WA0048400468
B1926334749886N12003429WA0048300467
B1926344749887N12003423WA0048200466
B1926354749888N12003417WA0048100465
B1926364749890N12003411WA0048000464
B1926374749892N12003405WA0048000462
B1926384749894N12003399WA0047900461
B1926394749896N12003393WA0047800460
B1926404749899N12003387WA0047700459
B1926414749901N12003380WA0047600458
B1926424749903N12003373WA0047500456
B1926434749904N12003366WA0047400455
B1926444749905N12003359WA0047300453
B1926454749906N12003352WA0047200452
B1926464749905N12003344WA0047100451
B1926474749905N12003337WA0047000450
B1926484749904N12003329WA0046900448
B1926494749903N12003322WA0046800447
B1926504749902N12003314WA0046700446
B1926514749901N12003307WA0046600445
B1926524749899N12003299WA0046500443
B1926534749897N12003293WA0046400442
B1926544749894N12003287WA0046300441
B1926554749891N12003281WA0046200440
B1926564749887N12003276WA0046100440
B1926574749884N12003270WA0046100439
B1926584749881N12003265WA0045900438
B1926594749878N12003259WA0045900437
B1927004749875N12003253WA0045800436
B1927014749872N12003247WA0045700435
B1927024749869N12003240WA0045600433
B1927034749867N12003233WA0045500432
B1927044749864N12003226WA0045300430
B1927054749862N12003220WA0045300429
B1927064749860N12003213WA0045100428
B1927074749858N12003207WA0045000427
B1927084749856N12003201WA0044900426
B1927094749853N12003195WA0044800424
B1927104749850N12003191WA0044700423
B1927114749846N12003187WA0044600422
B1927124749842N12003185WA0044500420
B1927134749838N12003183WA0044400419
B1927144749833N12003182WA0044200418
B1927154749829N12003181WA0044200417
B1927164749825N12003181WA0044000415
B1927174749820N12003180WA0043900415
B1927184749817N12003177WA0043800414
B1927194749815N12003174WA0043800413
B1927204749814N12003170WA0043600412
B1927214749814N12003166WA0043600411
B1927224749816N12003163WA0043500411
B1927234749819N12003160WA0043400410
B1927244749822N12003158WA0043300410
B1927254749825N12003158WA0043200409
B1927264749828N12003157WA0043200408
B1927274749833N12003157WA0043100407
B1927284749837N12003157WA0043000408
B1927294749842N12003158WA0043000408
B1927304749847N12003159WA0042900409
B1927314749851N12003160WA0042800410
B1927324749856N12003162WA0042700411
B1927334749860N12003165WA0042700411
B1927344749865N12003167WA0042600411
B1927354749869N12003170WA0042500410
B1927364749874N12003174WA0042400410
B1927374749878N12003178WA0042400408
B1927384749882N12003182WA0042300408
B1927394749886N12003186WA0042200406
B1927404749891N12003190WA0042100405
B1927414749895N12003194WA0042000407
B1927424749900N12003197WA0041900407
B1927434749904N12003201WA0041800406
B1927444749909N12003204WA0041700406
B1927454749913N12003207WA0041600406
B1927464749917N12003210WA0041500405
B1927474749922N12003213WA0041400404
B1927484749926N12003215WA0041300404
B1927494749930N12003217WA0041200404
B1927504749935N12003218WA0041100403
B1927514749940N12003219WA0041000402
B1927524749945N12003220WA0040900402
B1927534749950N12003221WA0040800402
B1927544749955N12003222WA0040700402
B1927554749960N12003223WA0040600401
B1927564749965N12003224WA0040400401
B1927574749970N12003226WA0040400401
B1927584749975N12003227WA0040200400
B1927594749980N12003230WA0040100399
B1928004749985N12003232WA0040000398
B1928014749990N12003234WA0039900398
B1928024749995N12003236WA0039800400
B1928034750000N12003238WA0039800400
B1928044750005N12003240WA0039700399
B1928054750010N12003243WA0039600398
B1928064750016N12003247WA0039500398
B1928074750021N12003251WA0039400396
B1928084750027N12003254WA0039300395
B1928094750032N12003258WA0039200394
B1928104750038N12003261WA0039100392
B1928114750043N12003264WA0039000390
B1928124750048N12003265WA0038800386
B1928134750054N12003266WA0038800385
B1928144750059N12003267WA0038600383
B1928154750064N12003267WA0038500382
B1928164750069N12003266WA0038400381
B1928174750074N12003266WA0038400379
B1928184750078N12003265WA0038200377
B1928194750082N12003265WA0038200376
B1928204750086N12003264WA0038100376
B1928214750090N12003263WA0038000374
B1928224750095N12003261WA0037900373
B1928234750099N12003260WA0037800371
B1928244750104N12003259WA0037700370
B1928254750108N12003258WA0037700368
B1928264750112N12003257WA0037600367
B1928274750117N12003256WA0037500365
B1928284750121N12003255WA0037400364
B1928294750125N12003255WA0037300363
B1928304750129N12003254WA0037300362
B1928314750133N12003252WA0037200361
B1928324750137N12003251WA0037100360
B1928334750140N12003250WA0037000358
B1928344750143N12003249WA0037000357
B1928354750146N12003248WA0036900355
B1928364750148N12003247WA0036800355
B1928374750150N12003246WA0036800354
B1928384750152N12003246WA0036700353
B1928394750153N12003245WA0036700353
B1928404750153N12003244WA0036600353
B1928414750154N12003243WA0036600353
B1928424750154N12003240WA0036500353
B1928434750155N12003237WA0036500354
B1928444750154N12003232WA0036500353
B1928454750154N12003226WA0036400353
B1928464750153N12003220WA0036400352
B1928474750152N12003212WA0036400353
B1928484750152N12003204WA0036400353
B1928494750151N12003196WA0036400353
B1928504750150N12003187WA0036400352
B1928514750149N12003178WA0036400351
B1928524750148N12003169WA0036400351
B1928534750147N12003160WA0036400351
B1928544750146N12003151WA0036400351
B1928554750145N12003142WA0036400350
B1928564750144N12003132WA0036400350
B1928574750143N12003123WA0036400349
B1928584750142N12003113WA0036400348
B1928594750141N12003102WA0036400347
B1929004750140N12003092WA0036400346
B1929014750139N12003081WA0036400346
B1929024750137N12003071WA0036400345
B1929034750136N12003061WA0036400345
B1929044750135N12003051WA0036400344
B1929054750134N12003041WA0036400343
B1929064750133N12003032WA0036300343
B1929074750133N12003022WA0036300342
B1929084750132N12003012WA0036300341
B1929094750131N12003003WA0036300340
B1929104750130N12002993WA0036200339
B1929114750129N12002984WA0036200338
B1929124750128N12002974WA0036200338
B1929134750126N12002964WA0036100337
B1929144750125N12002953WA0036100336
B1929154750124N12002943WA0036100335
B1929164750123N12002933WA0036000334
B1929174750122N12002923WA0036000334
B1929184750121N12002913WA0035900333
B1929194750120N12002903WA0035900332
B1929204750119N12002893WA0035900331
B1929214750118N12002883WA0035800330
B1929224750117N12002872WA0035800329
B1929234750116N12002862WA0035700328
B1929244750115N12002851WA0035700328
B1929254750114N12002840WA0035600327
B1929264750113N12002829WA0035600327
B1929274750112N12002818WA0035500326
B1929284750110N12002806WA0035500326
B1929294750109N12002795WA0035500326
B1929304750107N12002783WA0035400326
B1929314750105N12002772WA0035400326
B1929324750103N12002761WA0035400326
B1929334750101N12002749WA0035400327
B1929344750098N12002738WA0035300327
B1929354750096N12002726WA0035300327
B1929364750094N12002714WA0035300327
B1929374750091N12002702WA0035300326
B1929384750089N12002690WA0035300327
B1929394750086N12002677WA0035300327
B1929404750084N12002665WA0035300326
B1929414750082N12002652WA0035300326
B1929424750079N12002640WA0035300327
B1929434750078N12002627WA0035300327
B1929444750076N12002614WA0035300328
B1929454750074N12002601WA0035300328
B1929464750073N12002588WA0035300328
B1929474750071N12002575WA0035300328
B1929484750070N12002562WA0035300328
B1929494750068N12002550WA0035300329
B1929504750067N12002537WA0035300329
B1929514750065N12002524WA0035300329
B1929524750064N12002511WA0035300329
B1929534750062N12002499WA0035300329
B1929544750061N12002486WA0035300329
B1929554750059N12002473WA0035300329
B1929564750058N12002460WA0035300329
B1929574750057N12002447WA0035300330
B1929584750056N12002435WA0035300330
B1929594750055N12002422WA0035300330
B1930004750054N12002411WA0035300331
B1930014750053N12002399WA0035300331
B1930024750053N12002388WA0035300331
B1930034750053N12002377WA0035300331
B1930044750054N12002366WA0035300331
B1930054750057N12002356WA0035300331
B1930064750059N12002346WA0035300332
B1930074750063N12002337WA0035300331
B1930084750067N12002328WA0035300331
B1930094750072N12002321WA0035300331
B1930104750077N12002315WA0035300332
B1930114750083N12002309WA0035300332
B1930124750089N12002304WA0035300333
B1930134750095N12002300WA0035300333
B1930144750101N12002296WA0035300333
B1930154750107N12002293WA0035300333
B1930164750114N12002289WA0035300333
B1930174750119N12002285WA0035300332
B1930184750125N12002280WA0035300332
B1930194750131N12002275WA0035300332
B1930204750136N12002269WA0035200332
B1930214750141N12002262WA0035200332
B1930224750145N12002255WA0035200332
B1930234750149N12002247WA0035200332
B1930244750152N12002238WA0035200332
B1930254750154N12002229WA0035200332
B1930264750156N12002219WA0035200332
B1930274750158N12002210WA0035200332
B1930284750158N12002199WA0035200332
B1930294750158N12002189WA0035200332
B1930304750157N12002179WA0035200332
B1930314750156N12002169WA0035200333
B1930324750156N12002159WA0035200333
B1930334750155N12002149WA0035200333
B1930344750154N12002139WA0035200334
B1930354750153N12002128WA0035200334
B1930364750152N12002118WA0035200334
B1930374750151N12002107WA0035200334
B1930384750150N12002096WA0035200334
B1930394750149N12002086WA0035200334
B1930404750148N12002075WA0035200334
B1930414750148N12002065WA0035200335
B1930424750148N12002054WA0035200335
B1930434750149N12002043WA0035200335
B1930444750150N12002033WA0035200335
B1930454750152N12002022WA0035200336
B1930464750155N12002011WA0035200336
B1930474750157N12002001WA0035300336
B1930484750160N12001991WA0035300336
B1930494750163N12001981WA0035300336
B1930504750167N12001971WA0035300336
B1930514750170N12001961WA0035300336
B1930524750174N12001951WA0035300336
B1930534750177N12001940WA0035400337
B1930544750180N12001929WA0035400336
B1930554750183N12001917WA0035400336
B1930564750185N12001905WA0035400336
B1930574750186N12001892WA0035400336
B1930584750186N12001880WA0035500336
B1930594750186N12001867WA0035500336
B1931004750186N12001855WA0035500337
B1931014750185N12001843WA0035500337
B1931024750184N12001830WA0035500337
B1931034750184N12001818WA0035600337
B1931044750183N12001806WA0035600338
B1931054750183N12001794WA0035600338
B1931064750182N12001781WA0035600338
B1931074750181N12001770WA0035600338
B1931084750181N12001758WA0035700338
B1931094750180N12001746WA0035700338
B1931104750179N12001734WA0035700338
B1931114750178N12001723WA0035700338
B1931124750177N12001711WA0035700338
B1931134750177N12001700WA0035700338
B1931144750176N12001689WA0035700338
B1931154750175N12001678WA0035700337
B1931164750174N12001666WA0035700337
B1931174750174N12001655WA0035700337
B1931184750173N12001644WA0035700336
B1931194750172N12001633WA0035700335
B1931204750172N12001622WA0035700335
B1931214750171N12001611WA0035700335
B1931224750171N12001600WA0035700335
B1931234750170N12001589WA0035600334
B1931244750170N12001578WA0035600334
B1931254750169N12001567WA0035600333
B1931264750168N12001556WA0035600334
B1931274750168N12001545WA0035600334
B1931284750167N12001534WA0035600334
B1931294750167N12001522WA0035500334
B1931304750166N12001511WA0035500334
B1931314750166N12001501WA0035500334
B1931324750166N12001490WA0035500335
B1931334750166N12001480WA0035500335
B1931344750165N12001469WA0035600336
B1931354750165N12001460WA0035600336
B1931364750165N12001450WA0035600337
B1931374750164N12001440WA0035600337
B1931384750164N12001431WA0035600338
B1931394750163N12001422WA0035600338
B1931404750163N12001413WA0035700339
B1931414750162N12001403WA0035700340
B1931424750162N12001394WA0035700340
B1931434750161N12001384WA0035800340
B1931444750161N12001375WA0035800340
B1931454750160N12001365WA0035800340
B1931464750160N12001356WA0035900341
B1931474750159N12001346WA0035900341
B1931484750158N12001336WA0035900341
B1931494750158N12001326WA0035900342
B1931504750157N12001316WA0036000342
B1931514750156N12001306WA0036000342
B1931524750156N12001296WA0036000343
B1931534750155N12001286WA0036000343
B1931544750155N12001275WA0036100343
B1931554750154N12001265WA0036100343
B1931564750154N12001255WA0036100343
B1931574750153N12001245WA0036100343
B1931584750153N12001234WA0036100343
B1931594750152N12001224WA0036100344
B1932004750151N12001214WA0036200344
B1932014750151N12001203WA0036200344
B1932024750150N12001193WA0036200344
B1932034750150N12001183WA0036200344
B1932044750149N12001173WA0036200344
B1932054750148N12001164WA0036200344
B1932064750148N12001154WA0036200344
B1932074750147N12001145WA0036200344
B1932084750147N12001135WA0036200344
B1932094750146N12001126WA0036200345
B1932104750146N12001117WA0036200345
B1932114750145N12001107WA0036200345
B1932124750144N12001098WA0036200345
B1932134750144N12001090WA0036100345
B1932144750144N12001081WA0036100345
B1932154750144N12001071WA0036100344
B1932164750145N12001062WA0036100345
B1932174750147N12001053WA0036100345
B1932184750150N12001044WA0036100344
B1932194750153N12001035WA0036100344
B1932204750157N12001025WA0036100344
B1932214750160N12001016WA0036100345
B1932224750163N12001006WA0036100344
B1932234750166N12000996WA0036100344
B1932244750170N12000987WA0036000343
B1932254750173N12000978WA0036000343
B1932264750176N12000969WA0036000342
B1932274750179N12000960WA0036000342
B1932284750183N12000950WA0036000342
B1932294750186N12000941WA0035900342
B1932304750189N12000932WA0035900342
B1932314750193N12000923WA0035900342
B1932324750196N12000915WA0035900342
B1932334750201N12000908WA0035900342
B1932344750207N12000904WA0035800342
B1932354750213N12000900WA0035800342
B1932364750220N12000898WA0035800341
B1932374750227N12000897WA0035800341
B1932384750234N12000896WA0035800341
B1932394750242N12000895WA0035800342
B1932404750249N12000895WA0035800342
B1932414750257N12000894WA0035800342
B1932424750264N12000894WA0035800342
B1932434750271N12000893WA0035800343
B1932444750278N12000893WA0035800343
B1932454750285N12000892WA0035800343
B1932464750293N12000892WA0035800343
B1932474750300N12000891WA0035800343
B1932484750308N12000891WA0035800343
B1932494750315N12000890WA0035800343
B1932504750322N12000890WA0035800343
B1932514750328N12000890WA0035700343
B1932524750335N12000890WA0035700343
B1932534750342N12000889WA0035700342
B1932544750348N12000889WA0035700342
B1932554750354N12000888WA0035700342
B1932564750361N12000888WA0035700342
B1932574750367N12000887WA0035700342
B1932584750372N12000887WA0035700343
B1932594750377N12000886WA0035700343
B1933004750380N12000886WA0035700343
B1933014750382N12000885WA0035700343
B1933024750383N12000885WA0035700343
B1933034750383N12000885WA0035700343
B1933044750383N12000885WA0035700343
B1933054750384N12000885WA0035700343
B1933064750385N12000884WA0035700342
B1933074750387N12000883WA0035700342
B1933084750388N12000880WA0035700343
B1933094750389N12000877WA0035700343
B1933104750390N12000872WA0035700344
B1933114750390N12000866WA0035700343
B1933124750390N12000858WA0035700344
B1933134750390N12000850WA0035700343
B1933144750390N12000841WA0035700343
B1933154750389N12000831WA0035700343
B1933164750389N12000821WA0035700342
B1933174750390N12000811WA0035800342
B1933184750390N12000800WA0035800342
B1933194750390N12000789WA0035800341
B1933204750389N12000777WA0035800341
B1933214750389N12000766WA0035800341
B1933224750389N12000753WA0035800341
B1933234750389N12000741WA0035800341
B1933244750388N12000728WA0035900342
B1933254750388N12000716WA0035900343
B1933264750388N12000703WA0035900344
B1933274750388N12000690WA0035900344
B1933284750387N12000676WA0036000345
B1933294750387N12000663WA0036000345
B1933304750387N12000650WA0036000346
B1933314750387N12000636WA0036100347
B1933324750386N12000623WA0036100347
B1933334750386N12000610WA0036100348
B1933344750386N12000596WA0036200349
B1933354750385N12000583WA0036200349
B1933364750385N12000570WA0036300350
B1933374750385N12000557WA0036300351
B1933384750384N12000543WA0036400352
B1933394750384N12000530WA0036400352
B1933404750384N12000517WA0036500353
B1933414750383N12000503WA0036600354
B1933424750383N12000490WA0036600354
B1933434750383N12000476WA0036700356
B1933444750383N12000463WA0036700356
B1933454750382N12000449WA0036800357
B1933464750382N12000435WA0036900358
B1933474750382N12000421WA0036900358
B1933484750381N12000407WA0037000359
B1933494750381N12000393WA0037000359
B1933504750381N12000379WA0037100360
B1933514750381N12000365WA0037100360
B1933524750380N12000352WA0037200361
B1933534750380N12000338WA0037300362
B1933544750379N12000324WA0037300363
B1933554750379N12000310WA0037400363
B1933564750379N12000297WA0037400364
B1933574750379N12000283WA0037400364
B1933584750378N12000270WA0037500364
B1933594750378N12000256WA0037500364
B1934004750378N12000243WA0037600364
B1934014750377N12000229WA0037600364
B1934024750377N12000215WA0037600364
B1934034750377N12000201WA0037600364
B1934044750376N12000187WA0037700364
B1934054750376N12000173WA0037700363
B1934064750376N12000159WA0037700363
B1934074750375N12000144WA0037700363
B1934084750375N12000130WA0037700363
B1934094750375N12000115WA0037700363
B1934104750374N12000100WA0037800363
B1934114750374N12000085WA0037800364
B1934124750373N12000070WA0037800364
B1934134750373N12000055WA0037800364
B1934144750372N12000041WA0037800364
B1934154750372N12000026WA0037800364
B1934164750372N12000012WA0037900364
B1934174750371N11959998WA0037900364
B1934184750371N11959984WA0037900364
B1934194750370N11959970WA0037900365
B1934204750369N11959957WA0037900365
B1934214750368N11959943WA0037900366
B1934224750367N11959930WA0037900366
B1934234750365N11959916WA0038000367
B1934244750363N11959902WA0038000368
B1934254750362N11959889WA0038000368
B1934264750360N11959875WA0038000368
B1934274750359N11959861WA0038100369
B1934284750358N11959847WA0038100369
B1934294750357N11959833WA0038100369
B1934304750356N11959819WA0038200370
B1934314750354N11959804WA0038200370
B1934324750353N11959790WA0038300371
B1934334750352N11959776WA0038300372
B1934344750351N11959761WA0038400372
B1934354750350N11959746WA0038400372
B1934364750349N11959731WA0038500372
B1934374750348N11959717WA0038500373
B1934384750348N11959702WA0038600374
B1934394750347N11959687WA0038700375
B1934404750346N11959673WA0038700375
B1934414750344N11959659WA0038800376
B1934424750343N11959645WA0038900377
B1934434750342N11959631WA0038900378
B1934444750342N11959617WA0039000379
B1934454750341N11959604WA0039100380
B1934464750341N11959591WA0039200380
B1934474750342N11959577WA0039200381
B1934484750343N11959564WA0039300381
B1934494750344N11959551WA0039400382
B1934504750346N11959538WA0039500382
B1934514750348N11959526WA0039500383
B1934524750351N11959514WA0039600384
B1934534750354N11959502WA0039700385
B1934544750357N11959491WA0039800385
B1934554750361N11959480WA0039800385
B1934564750365N11959469WA0039900386
B1934574750369N11959459WA0039900386
B1934584750373N11959449WA0040000386
B1934594750378N11959439WA0040000386
B1935004750383N11959429WA0040100387
B1935014750389N11959419WA0040100386
B1935024750395N11959409WA0040100387
B1935034750401N11959400WA0040200387
B1935044750408N11959391WA0040200388
B1935054750414N11959382WA0040200388
B1935064750420N11959372WA0040300388
B1935074750426N11959363WA0040300389
B1935084750431N11959353WA0040300389
B1935094750437N11959342WA0040400390
B1935104750441N11959331WA0040400391
B1935114750446N11959319WA0040400391
B1935124750450N11959307WA0040500390
B1935134750454N11959295WA0040500391
B1935144750458N11959283WA0040500391
B1935154750461N11959270WA0040500391
B1935164750465N11959258WA0040600391
B1935174750468N11959247WA0040600391
B1935184750472N11959235WA0040600390
B1935194750475N11959224WA0040600390
B1935204750478N11959213WA0040600390
B1935214750480N11959203WA0040600390
B1935224750483N11959194WA0040600390
B1935234750484N11959186WA0040600389
B1935244750484N11959179WA0040600389
B1935254750483N11959173WA0040600388
B1935264750480N11959169WA0040600388
B1935274750476N11959166WA0040600387
B1935284750472N11959165WA0040600386
B1935294750467N11959165WA0040600386
B1935304750462N11959165WA0040600386
B1935314750456N11959164WA0040600386
B1935324750451N11959162WA0040600386
B1935334750446N11959159WA0040600387
B1935344750441N11959155WA0040600387
B1935354750437N11959149WA0040600388
B1935364750435N11959142WA0040600388
B1935374750434N11959134WA0040600388
B1935384750433N11959126WA0040600389
B1935394750432N11959118WA0040600390
B1935404750431N11959110WA0040600390
B1935414750429N11959103WA0040600391
B1935424750427N11959096WA0040700391
B1935434750424N11959089WA0040700391
B1935444750420N11959083WA0040700392
B1935454750416N11959077WA0040700392
B1935464750411N11959073WA0040800392
B1935474750405N11959069WA0040800391
B1935484750399N11959065WA0040900391
B1935494750394N11959062WA0040900391
B1935504750388N11959059WA0040900391
B1935514750382N11959056WA0040900392
B1935524750376N11959053WA0041000392
B1935534750371N11959049WA0041000391
B1935544750365N11959045WA0041000391
B1935554750359N11959040WA0041000391
B1935564750354N11959036WA0041000391
B1935574750349N11959031WA0041000391
B1935584750343N11959027WA0041000390
B1935594750338N11959022WA0041000390
B1936004750332N11959016WA0041000389
B1936014750327N11959010WA0041000389
B1936024750322N11959004WA0041000390
B1936034750317N11958999WA0041000391
B1936044750313N11958993WA0041000392
B1936054750308N11958987WA0041000393
B1936064750304N11958981WA0041000393
B1936074750300N11958975WA0041000394
B1936084750297N11958969WA0041000394
B1936094750293N11958963WA0041000395
B1936104750290N11958957WA0041000395
B1936114750286N11958952WA0041000396
B1936124750282N11958948WA0041000396
B1936134750278N11958945WA0041000397
B1936144750273N11958944WA0041000397
B1936154750268N11958945WA0041000398
B1936164750264N11958947WA0041000398
B1936174750260N11958950WA0041000398
B1936184750256N11958954WA0041000398
B1936194750252N11958958WA0041000397
B1936204750248N11958962WA0041000397
B1936214750244N11958965WA0041000396
B1936224750240N11958968WA0041000395
B1936234750236N11958970WA0041000394
B1936244750232N11958972WA0040900394
B1936254750229N11958972WA0040900393
B1936264750226N11958971WA0040800393
B1936274750223N11958968WA0040800392
B1936284750221N11958964WA0040700391
B1936294750220N11958959WA0040700391
B1936304750220N11958954WA0040600392
B1936314750220N11958949WA0040600392
B1936324750220N11958943WA0040600392
B1936334750220N11958939WA0040500392
B1936344750220N11958935WA0040500392
B1936354750219N11958932WA0040500392
B1936364750218N11958929WA0040400391
B1936374750216N11958928WA0040400391
B1936384750215N11958927WA0040400390
B1936394750213N11958926WA0040400389
B1936404750211N11958925WA0040400389
B1936414750210N11958924WA0040300388
B1936424750208N11958923WA0040300389
B1936434750207N11958922WA0040300388
B1936444750206N11958921WA0040300388
B1936454750205N11958919WA0040300389
B1936464750205N11958917WA0040300389
B1936474750206N11958916WA0040300390
B1936484750206N11958915WA0040300390
B1936494750207N11958914WA0040300390
B1936504750207N11958913WA0040200390
B1936514750207N11958912WA0040200390
B1936524750207N11958912WA0040200389
B1936534750207N11958912WA0040200389
B1936544750207N11958912WA0040200389
B1936554750207N11958913WA0040200389
B1936564750207N11958913WA0040200389
B1936574750207N11958914WA0040200389
B1936584750207N11958914WA0040200389
B1936594750207N11958914WA0040200389
B1937004750207N11958913WA0040200389
B1937014750207N11958913WA0040200390
B1937024750207N11958914WA0040200388
B1937034750207N11958914WA0040200388
B1937044750207N11958914WA0040200388
B1937054750207N11958914WA0040200388
B1937064750206N11958914WA0040200388
B1937074750206N11958914WA0040200388
B1937084750206N11958913WA0040200388
B1937094750206N11958913WA0040200388
B1937104750206N11958914WA0040200388
B1937114750206N11958914WA0040200388
B1937124750205N11958914WA0040200388
B1937134750205N11958915WA0040200387
B1937144750204N11958915WA0040200387
B1937154750204N11958916WA0040200387
B1937164750203N11958917WA0040200386
B1937174750202N11958917WA0040200386
B1937184750202N11958918WA0040200387
B1937194750201N11958919WA0040200386
B1937204750200N11958920WA0040200387
B1937214750199N11958920WA0040200387
B1937224750199N11958920WA0040200387
B1937234750198N11958920WA0040200387
B1937244750198N11958921WA0040200388
B1937254750198N11958921WA0040200388
B1937264750197N11958921WA0040200388
B1937274750197N11958921WA0040200388
B1937284750197N11958920WA0040200388
B1937294750197N11958920WA0040200389
B1937304750196N11958919WA0040200390
B1937314750196N11958918WA0040200390
B1937324750196N11958917WA0040200390
B1937334750196N11958917WA0040200390
B1937344750195N11958916WA0040200391
B1937354750194N11958915WA0040200390
B1937364750194N11958915WA0040200390
B1937374750193N11958914WA0040200391
B1937384750193N11958914WA0040200391
B1937394750192N11958913WA0040200391
B1937404750192N11958913WA0040200391
B1937414750192N11958912WA0040100391
B1937424750191N11958912WA0040100392
B1937434750191N11958911WA0040100392
B1937444750191N11958911WA0040100393
B1937454750190N11958911WA0040100393
B1937464750189N11958911WA0040100394
B1937474750189N11958911WA0040100393
B1937484750189N11958911WA0040100393
B1937494750188N11958911WA0040100393
B1937504750188N11958910WA0040100393
B1937514750188N11958910WA0040100393
B1937524750188N11958910WA0040100393
B1937534750188N11958910WA0040100393
B1937544750187N11958910WA0040100392
B1937554750187N11958910WA0040100392
B1937564750187N11958910WA0040100392
B1937574750187N11958910WA0040100392
B1937584750187N11958910WA0040100392
B1937594750187N11958910WA0040100392
B1938004750187N11958910WA0040100392
B1938014750187N11958909WA0040100391
B1938024750187N11958910WA0040100391
B1938034750187N11958910WA0040100391
B1938044750187N11958910WA0040100390
B1938054750187N11958910WA0040100390
B1938064750187N11958910WA0040100390
B1938074750187N11958910WA0040100390
B1938084750187N11958910WA0040100390
B1938094750187N11958910WA0040100389
B1938104750187N11958910WA0040000389
B1938114750187N11958910WA0040000389
B1938124750187N11958910WA0040000389
B1938134750187N11958909WA0040000389
B1938144750187N11958909WA0040000389
B1938154750187N11958909WA0040000389
B1938164750187N11958909WA0040000389
B1938174750187N11958909WA0040000389
B1938184750186N11958909WA0040000388
B1938194750186N11958909WA0040000388
B1938204750186N11958909WA0040000388
B1938214750186N11958909WA0040000388
B1938224750186N11958909WA0040000388
B1938234750186N11958909WA0040000388
B1938244750186N11958909WA0040000388
B1938254750186N11958909WA0040000388
B1938264750186N11958910WA0040000388
B1938274750186N11958910WA0040000388
B1938284750186N11958910WA0040000388
B1938294750186N11958910WA0040000388
B1938304750186N11958910WA0040000388
B1938314750186N11958910WA0040000388
B1938324750186N11958910WA0040000388
B1938334750186N11958910WA0040000388
B1938344750186N11958910WA0040000388
B1938354750186N11958910WA0040000388
B1938364750186N11958910WA0040000388
B1938374750186N11958910WA0040000388
B1938384750186N11958910WA0040000388
B1938394750186N11958910WA0040000388
B1938404750186N11958910WA0040000388
B1938414750186N11958910WA0040000388
B1938424750186N11958910WA0040000388
B1938434750186N11958910WA0040000387
B1938444750186N11958910WA0040000387
B1938454750186N11958910WA0040000387
B1938464750186N11958910WA0040000387
B1938474750186N11958910WA0040000387
B1938484750186N11958910WA0040000387
B1938494750186N11958910WA0040000387
B1938504750186N11958910WA0040000387
B1938514750186N11958910WA0040000387
B1938524750186N11958910WA0040000388
B1938534750186N11958910WA0040000388
B1938544750186N11958910WA0040000388
B1938554750186N11958910WA0040000388
B1938564750187N11958910WA0040000388
B1938574750187N11958910WA0040000388
B1938584750187N11958910WA0040000388
B1938594750187N11958910WA0040000388
B1939004750187N11958910WA0040000388
B1939014750187N11958910WA0040000388
B1939024750186N11958910WA0040000388
B1939034750186N11958910WA0040000388
B1939044750186N11958910WA0040100388
B1939054750186N11958910WA0040100388
B1939064750186N11958910WA0040100388
B1939074750186N11958910WA0040100388
B1939084750186N11958910WA0040100388
B1939094750186N11958910WA0040100388
B1939104750186N11958910WA0040000388
B1939114750186N11958910WA0040000388
B1939124750186N11958910WA0040000388
B1939134750186N11958910WA0040000388
B1939144750186N11958910WA0040000388
B1939154750186N11958910WA0040000388
B1939164750186N11958910WA0040000388
B1939174750186N11958910WA0040000388
B1939184750186N11958910WA0040000388
B1939194750186N11958910WA0040000389
B1939204750186N11958910WA0040000389
B1939214750186N11958910WA0040000389
B1939224750186N11958910WA0040000389
B1939234750186N11958910WA0040000389
B1939244750186N11958910WA0040000389
B1939254750186N11958910WA0040100389
B1939264750186N11958910WA0040100389
B1939274750186N11958910WA0040100389
B1939284750186N11958910WA0040100389
B1939294750186N11958910WA0040100389
B1939304750186N11958910WA0040100389
B1939314750186N11958910WA0040100390
B1939324750186N11958910WA0040100390
B1939334750186N11958910WA0040100390
B1939344750186N11958910WA0040100390
B1939354750186N11958910WA0040100389
B1939364750186N11958910WA0040100389
B1939374750186N11958910WA0040100389
B1939384750186N11958910WA0040100389
B1939394750186N11958910WA0040100389
B1939404750186N11958910WA0040100389
B1939414750186N11958910WA0040100389
B1939424750186N11958910WA0040100389
B1939434750186N11958910WA0040100389
B1939444750186N11958910WA0040100389
B1939454750186N11958910WA0040100389
B1939464750186N11958910WA0040100389
B1939474750186N11958910WA0040100389
B1939484750186N11958910WA0040100389
B1939494750186N11958910WA0040100389
B1939504750186N11958910WA0040100389
B1939514750186N11958910WA0040100389
B1939524750186N11958910WA0040100388
B1939534750186N11958910WA0040100388
B1939544750186N11958910WA0040100388
LXFM live.flymaster.net version 1.01
LXFM Created 2025-06-26 23:39:27
LXFM flight id 1616574
GFAF71A95099FD1B7BF0A8D6996364B6B
