AXFMSFP Flymaster Live, V1.0, S/N 216612
HFFXA010
HFPLTPILOT:Andria Lea Monteleone
HFGTYGLIDERTYPE: 
HFGIDGLIDERID:
HFDTM100GPSDATUM:WGS-1984
HFCIDCOMPETITIONID:7771
HFCCLCOMPETITIONCLASS:
HOSITSITE:-YY
HFGPS:UBLOXNEO6
HFPRSPRESSALTSENSOR:NA
HFRFWFIRMWAREVERSION:203f
HFRHWHARDWAREVERSION:1.0R2
HFFTYFRTYPE:FLYMASTER,LIVE
HFDTE260625
B1857374748243N12002354WA0111201124
B1857384748241N12002354WA0111201124
B1857394748240N12002355WA0111201124
B1857404748240N12002355WA0111201127
B1857414748240N12002355WA0111201125
B1857424748240N12002355WA0111201125
B1857434748240N12002355WA0111201125
B1857444748240N12002355WA0111201125
B1857454748240N12002355WA0111101125
B1857464748240N12002355WA0111101126
B1857474748240N12002355WA0111101125
B1857484748239N12002356WA0111101125
B1857494748239N12002356WA0111101125
B1857504748239N12002356WA0111101125
B1857514748240N12002356WA0111101125
B1857524748240N12002356WA0111101125
B1857534748240N12002356WA0111101125
B1857544748240N12002356WA0111101125
B1857554748240N12002356WA0111101125
B1857564748240N12002356WA0111101125
B1857574748240N12002356WA0111101125
B1857584748240N12002356WA0111101125
B1857594748240N12002356WA0111101124
B1858004748240N12002356WA0111101124
B1858014748240N12002356WA0111101124
B1858024748240N12002356WA0111101124
B1858034748239N12002356WA0111101124
B1858044748239N12002356WA0111101124
B1858054748240N12002355WA0111101124
B1858064748240N12002354WA0111101124
B1858074748240N12002353WA0111101124
B1858084748240N12002353WA0111101124
B1858094748240N12002353WA0111101124
B1858104748239N12002353WA0111101125
B1858114748239N12002353WA0111101125
B1858124748239N12002353WA0111101125
B1858134748239N12002353WA0111101124
B1858144748239N12002353WA0111101124
B1858154748239N12002353WA0111101124
B1858164748239N12002353WA0111101124
B1858174748239N12002352WA0111101124
B1858184748239N12002352WA0111101124
B1858194748239N12002352WA0111101124
B1858204748240N12002352WA0111101124
B1858214748239N12002352WA0111201124
B1858224748239N12002352WA0111201124
B1858234748239N12002352WA0111201124
B1858244748239N12002352WA0111201124
B1858254748239N12002352WA0111201124
B1858264748239N12002352WA0111101124
B1858274748239N12002352WA0111101124
B1858284748239N12002352WA0111101124
B1858294748239N12002352WA0111101124
B1858304748240N12002352WA0111101124
B1858314748240N12002352WA0111201124
B1858324748240N12002352WA0111201124
B1858334748240N12002353WA0111201124
B1858344748239N12002353WA0111101124
B1858354748239N12002353WA0111101124
B1858364748239N12002353WA0111101124
B1858374748239N12002353WA0111101124
B1858384748239N12002353WA0111101124
B1858394748239N12002353WA0111101124
B1858404748239N12002353WA0111101124
B1858414748239N12002353WA0111101124
B1858424748239N12002353WA0111101124
B1858434748239N12002353WA0111101123
B1858444748240N12002353WA0111101123
B1858454748240N12002354WA0111101123
B1858464748240N12002354WA0111101124
B1858474748240N12002355WA0111101124
B1858484748240N12002355WA0111101125
B1858494748240N12002354WA0111101124
B1858504748240N12002354WA0111101124
B1858514748240N12002354WA0111101123
B1858524748240N12002354WA0111101123
B1858534748240N12002354WA0111101123
B1858544748239N12002354WA0111101123
B1858554748239N12002354WA0111101123
B1858564748239N12002354WA0111101123
B1858574748239N12002354WA0111101123
B1858584748239N12002354WA0111101123
B1858594748239N12002354WA0111101123
B1859004748239N12002354WA0111101123
B1859014748239N12002354WA0111101123
B1859024748239N12002354WA0111101123
B1859034748239N12002354WA0111101123
B1859044748239N12002354WA0111101123
B1859054748239N12002354WA0111101123
B1859064748239N12002354WA0111101123
B1859074748239N12002354WA0111101123
B1859084748239N12002354WA0111101123
B1859094748239N12002354WA0111101123
B1859104748239N12002354WA0111101123
B1859114748239N12002354WA0111101123
B1859124748239N12002354WA0111201123
B1859134748239N12002354WA0111201123
B1859144748239N12002354WA0111201123
B1859154748239N12002354WA0111201123
B1859164748239N12002354WA0111201124
B1859174748239N12002354WA0111201124
B1859184748239N12002354WA0111201124
B1859194748239N12002354WA0111201124
B1859204748240N12002354WA0111201123
B1859214748240N12002354WA0111201123
B1859224748240N12002353WA0111201123
B1859234748240N12002353WA0111201123
B1859244748240N12002353WA0111201122
B1859254748241N12002352WA0111201123
B1859264748241N12002352WA0111201123
B1859274748241N12002351WA0111201123
B1859284748241N12002349WA0111201123
B1859294748242N12002348WA0111201123
B1859304748243N12002348WA0111201123
B1859314748244N12002348WA0111201123
B1859324748245N12002347WA0111201122
B1859334748246N12002346WA0111201122
B1859344748247N12002346WA0111301122
B1859354748248N12002346WA0111301123
B1859364748248N12002346WA0111301124
B1859374748248N12002346WA0111301125
B1859384748248N12002345WA0111301126
B1859394748248N12002345WA0111301125
B1859404748249N12002343WA0111401126
B1859414748249N12002342WA0111401127
B1859424748250N12002341WA0111401128
B1859434748250N12002341WA0111401127
B1859444748250N12002340WA0111401127
B1859454748251N12002339WA0111501127
B1859464748252N12002339WA0111501126
B1859474748252N12002338WA0111501127
B1859484748252N12002338WA0111501128
B1859494748252N12002338WA0111501128
B1859504748252N12002338WA0111501128
B1859514748252N12002338WA0111601128
B1859524748252N12002338WA0111601128
B1859534748252N12002338WA0111601128
B1859544748252N12002338WA0111601128
B1859554748252N12002338WA0111601128
B1859564748252N12002338WA0111601128
B1859574748252N12002338WA0111601128
B1859584748252N12002338WA0111601128
B1859594748253N12002338WA0111601128
B1900004748253N12002338WA0111601128
B1900014748253N12002338WA0111601128
B1900024748253N12002338WA0111601128
B1900034748253N12002337WA0111601128
B1900044748253N12002337WA0111601128
B1900054748253N12002337WA0111601128
B1900064748253N12002337WA0111601128
B1900074748253N12002337WA0111601128
B1900084748253N12002337WA0111601128
B1900094748253N12002337WA0111601128
B1900104748253N12002337WA0111601128
B1900114748253N12002337WA0111601128
B1900124748253N12002337WA0111601128
B1900134748253N12002337WA0111601128
B1900144748253N12002337WA0111601129
B1900154748253N12002337WA0111601128
B1900164748253N12002337WA0111601128
B1900174748254N12002337WA0111601128
B1900184748255N12002336WA0111601129
B1900194748256N12002335WA0111601129
B1900204748257N12002334WA0111601129
B1900214748258N12002333WA0111601130
B1900224748258N12002332WA0111701130
B1900234748258N12002332WA0111701129
B1900244748259N12002332WA0111701129
B1900254748259N12002332WA0111701129
B1900264748259N12002332WA0111701129
B1900274748259N12002332WA0111701130
B1900284748259N12002332WA0111701130
B1900294748259N12002332WA0111701130
B1900304748259N12002332WA0111701130
B1900314748259N12002332WA0111701130
B1900324748259N12002332WA0111601130
B1900334748259N12002332WA0111601130
B1900344748259N12002332WA0111601130
B1900354748259N12002332WA0111601129
B1900364748259N12002332WA0111601129
B1900374748259N12002332WA0111601129
B1900384748259N12002332WA0111601129
B1900394748259N12002332WA0111601128
B1900404748259N12002332WA0111601128
B1900414748259N12002332WA0111601128
B1900424748259N12002332WA0111601128
B1900434748259N12002332WA0111601128
B1900444748259N12002332WA0111601128
B1900454748259N12002332WA0111601128
B1900464748259N12002332WA0111601128
B1900474748259N12002332WA0111601127
B1900484748259N12002332WA0111601127
B1900494748259N12002332WA0111601127
B1900504748259N12002332WA0111601127
B1900514748259N12002332WA0111601127
B1900524748259N12002332WA0111601127
B1900534748259N12002332WA0111601127
B1900544748259N12002332WA0111601127
B1900554748259N12002332WA0111601127
B1900564748259N12002332WA0111601127
B1900574748259N12002332WA0111601127
B1900584748259N12002332WA0111601127
B1900594748259N12002332WA0111701127
B1901004748259N12002332WA0111701127
B1901014748259N12002332WA0111701127
B1901024748259N12002332WA0111701127
B1901034748259N12002332WA0111701127
B1901044748259N12002332WA0111701127
B1901054748259N12002332WA0111701127
B1901064748259N12002332WA0111601127
B1901074748259N12002332WA0111701127
B1901084748259N12002332WA0111701127
B1901094748259N12002332WA0111701127
B1901104748259N12002332WA0111601127
B1901114748259N12002332WA0111601127
B1901124748259N12002332WA0111601127
B1901134748259N12002332WA0111601127
B1901144748259N12002332WA0111601127
B1901154748259N12002332WA0111601127
B1901164748259N12002332WA0111601127
B1901174748260N12002332WA0111601127
B1901184748260N12002332WA0111601127
B1901194748260N12002332WA0111601127
B1901204748260N12002332WA0111601127
B1901214748260N12002332WA0111601127
B1901224748260N12002332WA0111601127
B1901234748260N12002332WA0111601127
B1901244748260N12002332WA0111601127
B1901254748260N12002332WA0111601127
B1901264748260N12002332WA0111601127
B1901274748260N12002332WA0111601127
B1901284748260N12002332WA0111601127
B1901294748259N12002332WA0111601127
B1901304748259N12002332WA0111601127
B1901314748259N12002332WA0111601127
B1901324748259N12002332WA0111601127
B1901334748259N12002332WA0111601127
B1901344748259N12002332WA0111601127
B1901354748259N12002332WA0111601127
B1901364748259N12002332WA0111601127
B1901374748259N12002332WA0111601127
B1901384748259N12002332WA0111601127
B1901394748259N12002332WA0111601127
B1901404748259N12002332WA0111601127
B1901414748259N12002332WA0111601127
B1901424748259N12002332WA0111601127
B1901434748259N12002332WA0111601127
B1901444748259N12002332WA0111601127
B1901454748259N12002332WA0111601127
B1901464748259N12002332WA0111601127
B1901474748259N12002332WA0111601127
B1901484748259N12002332WA0111601127
B1901494748259N12002332WA0111601127
B1901504748259N12002332WA0111601127
B1901514748259N12002332WA0111601127
B1901524748259N12002332WA0111601127
B1901534748259N12002332WA0111601127
B1901544748259N12002332WA0111601127
B1901554748259N12002332WA0111601127
B1901564748259N12002332WA0111601127
B1901574748259N12002332WA0111601127
B1901584748259N12002332WA0111601127
B1901594748259N12002332WA0111601127
B1902004748259N12002332WA0111601127
B1902014748259N12002332WA0111601127
B1902024748259N12002332WA0111601127
B1902034748260N12002332WA0111601127
B1902044748260N12002332WA0111601127
B1902054748260N12002332WA0111601127
B1902064748260N12002332WA0111601127
B1902074748260N12002332WA0111601127
B1902084748260N12002332WA0111601127
B1902094748260N12002332WA0111601127
B1902104748260N12002332WA0111601127
B1902114748259N12002332WA0111601127
B1902124748259N12002332WA0111601127
B1902134748259N12002332WA0111601127
B1902144748259N12002332WA0111601127
B1902154748259N12002332WA0111601127
B1902164748259N12002332WA0111601127
B1902174748259N12002332WA0111601127
B1902184748259N12002332WA0111601127
B1902194748259N12002332WA0111601127
B1902204748259N12002332WA0111601127
B1902214748259N12002332WA0111601127
B1902224748259N12002332WA0111601127
B1902234748259N12002332WA0111601127
B1902244748259N12002332WA0111601127
B1902254748259N12002332WA0111601127
B1902264748259N12002332WA0111601127
B1902274748259N12002332WA0111601127
B1902284748259N12002332WA0111601127
B1902294748259N12002332WA0111601127
B1902304748259N12002332WA0111601127
B1902314748259N12002332WA0111601127
B1902324748259N12002332WA0111601127
B1902334748259N12002332WA0111601127
B1902344748259N12002332WA0111601127
B1902354748259N12002332WA0111601127
B1902364748259N12002332WA0111601127
B1902374748259N12002332WA0111601127
B1902384748259N12002332WA0111601127
B1902394748259N12002332WA0111601128
B1902404748259N12002332WA0111601128
B1902414748259N12002332WA0111601128
B1902424748259N12002332WA0111601128
B1902434748259N12002332WA0111601128
B1902444748259N12002332WA0111601128
B1902454748259N12002332WA0111601128
B1902464748260N12002332WA0111601128
B1902474748260N12002332WA0111601128
B1902484748260N12002332WA0111601128
B1902494748260N12002332WA0111601128
B1902504748260N12002332WA0111601128
B1902514748260N12002332WA0111601128
B1902524748260N12002332WA0111601128
B1902534748260N12002332WA0111601128
B1902544748260N12002332WA0111601128
B1902554748260N12002332WA0111601128
B1902564748260N12002331WA0111601128
B1902574748260N12002331WA0111601128
B1902584748260N12002331WA0111601128
B1902594748260N12002331WA0111601128
B1903004748260N12002331WA0111601128
B1903014748260N12002331WA0111601128
B1903024748260N12002331WA0111601128
B1903034748260N12002331WA0111601128
B1903044748260N12002331WA0111601127
B1903054748260N12002331WA0111601128
B1903064748260N12002331WA0111601127
B1903074748260N12002331WA0111601127
B1903084748260N12002331WA0111601127
B1903094748260N12002331WA0111601127
B1903104748260N12002331WA0111601127
B1903114748260N12002331WA0111601128
B1903124748260N12002331WA0111601128
B1903134748260N12002331WA0111601128
B1903144748260N12002331WA0111601128
B1903154748260N12002331WA0111601128
B1903164748260N12002331WA0111601128
B1903174748260N12002331WA0111601128
B1903184748260N12002331WA0111601128
B1903194748260N12002331WA0111601128
B1903204748260N12002331WA0111601128
B1903214748260N12002331WA0111601128
B1903224748260N12002331WA0111601128
B1903234748260N12002331WA0111601128
B1903244748260N12002331WA0111601128
B1903254748260N12002331WA0111601128
B1903264748260N12002331WA0111601128
B1903274748260N12002331WA0111601128
B1903284748260N12002331WA0111601128
B1903294748260N12002331WA0111601128
B1903304748260N12002331WA0111601128
B1903314748260N12002331WA0111601128
B1903324748260N12002331WA0111601128
B1903334748260N12002331WA0111601128
B1903344748260N12002331WA0111601128
B1903354748260N12002331WA0111601128
B1903364748260N12002331WA0111601128
B1903374748260N12002331WA0111601128
B1903384748260N12002331WA0111601128
B1903394748260N12002331WA0111601128
B1903404748260N12002331WA0111601128
B1903414748260N12002331WA0111601128
B1903424748260N12002331WA0111601128
B1903434748260N12002331WA0111601128
B1903444748260N12002331WA0111601128
B1903454748260N12002331WA0111601128
B1903464748260N12002331WA0111601128
B1903474748260N12002331WA0111601128
B1903484748260N12002331WA0111601128
B1903494748260N12002331WA0111601128
B1903504748260N12002331WA0111601128
B1903514748260N12002331WA0111601128
B1903524748260N12002331WA0111601128
B1903534748260N12002332WA0111601128
B1903544748260N12002332WA0111601128
B1903554748260N12002332WA0111601128
B1903564748260N12002331WA0111601128
B1903574748260N12002331WA0111601128
B1903584748260N12002331WA0111601128
B1903594748260N12002331WA0111601128
B1904004748260N12002331WA0111601128
B1904014748260N12002331WA0111601128
B1904024748260N12002331WA0111601128
B1904034748260N12002331WA0111601128
B1904044748260N12002331WA0111601128
B1904054748260N12002331WA0111601128
B1904064748260N12002331WA0111601128
B1904074748260N12002331WA0111601128
B1904084748260N12002331WA0111601128
B1904094748260N12002331WA0111601128
B1904104748260N12002331WA0111601128
B1904114748260N12002331WA0111601128
B1904124748260N12002331WA0111601128
B1904134748260N12002331WA0111601128
B1904144748260N12002331WA0111601128
B1904154748260N12002331WA0111601128
B1904164748260N12002331WA0111601128
B1904174748260N12002331WA0111601128
B1904184748260N12002331WA0111601128
B1904194748260N12002331WA0111601128
B1904204748260N12002331WA0111601128
B1904214748260N12002331WA0111601128
B1904224748260N12002331WA0111601128
B1904234748260N12002331WA0111601129
B1904244748260N12002331WA0111601129
B1904254748260N12002331WA0111601129
B1904264748260N12002331WA0111601129
B1904274748260N12002332WA0111601130
B1904284748259N12002332WA0111701129
B1904294748259N12002332WA0111701129
B1904304748258N12002333WA0111701128
B1904314748257N12002333WA0111701128
B1904324748257N12002334WA0111701128
B1904334748256N12002334WA0111701128
B1904344748256N12002335WA0111701128
B1904354748255N12002336WA0111701128
B1904364748254N12002337WA0111701128
B1904374748254N12002338WA0111701129
B1904384748253N12002338WA0111701129
B1904394748253N12002338WA0111701129
B1904404748253N12002338WA0111701128
B1904414748253N12002339WA0111701127
B1904424748253N12002339WA0111701127
B1904434748253N12002339WA0111701127
B1904444748253N12002339WA0111701127
B1904454748253N12002339WA0111601127
B1904464748253N12002339WA0111601128
B1904474748253N12002339WA0111601128
B1904484748253N12002339WA0111601127
B1904494748253N12002339WA0111701128
B1904504748253N12002339WA0111701128
B1904514748253N12002339WA0111701127
B1904524748253N12002339WA0111701128
B1904534748253N12002339WA0111701127
B1904544748253N12002339WA0111701127
B1904554748253N12002339WA0111701127
B1904564748253N12002339WA0111701127
B1904574748253N12002339WA0111701127
B1904584748253N12002339WA0111701128
B1904594748253N12002339WA0111701128
B1905004748253N12002338WA0111701128
B1905014748253N12002338WA0111701129
B1905024748253N12002338WA0111701129
B1905034748253N12002339WA0111701129
B1905044748253N12002338WA0111701129
B1905054748253N12002338WA0111701129
B1905064748253N12002338WA0111701129
B1905074748253N12002338WA0111701129
B1905084748254N12002338WA0111701129
B1905094748254N12002337WA0111701129
B1905104748254N12002337WA0111701129
B1905114748255N12002336WA0111701130
B1905124748255N12002336WA0111701130
B1905134748256N12002336WA0111701130
B1905144748257N12002335WA0111701130
B1905154748258N12002334WA0111701130
B1905164748258N12002334WA0111701130
B1905174748259N12002333WA0111701130
B1905184748259N12002333WA0111701130
B1905194748260N12002332WA0111701130
B1905204748260N12002331WA0111701130
B1905214748260N12002331WA0111701130
B1905224748260N12002330WA0111801130
B1905234748261N12002330WA0111801130
B1905244748261N12002330WA0111801130
B1905254748261N12002330WA0111801130
B1905264748262N12002331WA0111801130
B1905274748262N12002332WA0111801131
B1905284748263N12002333WA0111801131
B1905294748263N12002334WA0111801131
B1905304748264N12002335WA0111801130
B1905314748264N12002336WA0111801130
B1905324748264N12002336WA0111801130
B1905334748264N12002337WA0111801130
B1905344748264N12002337WA0111801129
B1905354748265N12002338WA0111801129
B1905364748265N12002339WA0111701128
B1905374748265N12002339WA0111701128
B1905384748265N12002340WA0111701128
B1905394748265N12002340WA0111701127
B1905404748265N12002340WA0111701128
B1905414748265N12002340WA0111701128
B1905424748265N12002340WA0111701128
B1905434748265N12002340WA0111701128
B1905444748265N12002340WA0111701128
B1905454748264N12002340WA0111701129
B1905464748264N12002340WA0111701128
B1905474748265N12002340WA0111701128
B1905484748266N12002340WA0111701128
B1905494748266N12002339WA0111701128
B1905504748267N12002338WA0111701128
B1905514748267N12002338WA0111701128
B1905524748268N12002337WA0111701129
B1905534748268N12002336WA0111701129
B1905544748269N12002336WA0111701129
B1905554748270N12002335WA0111701129
B1905564748270N12002335WA0111701130
B1905574748271N12002334WA0111701130
B1905584748271N12002333WA0111701129
B1905594748272N12002332WA0111801129
B1906004748272N12002332WA0111801129
B1906014748272N12002332WA0111801128
B1906024748272N12002332WA0111801128
B1906034748272N12002332WA0111801128
B1906044748272N12002332WA0111801128
B1906054748272N12002332WA0111801128
B1906064748272N12002331WA0111801128
B1906074748272N12002331WA0111801129
B1906084748272N12002331WA0111801129
B1906094748272N12002331WA0111801129
B1906104748272N12002331WA0111801129
B1906114748272N12002331WA0111801129
B1906124748272N12002331WA0111801129
B1906134748273N12002331WA0111801129
B1906144748273N12002331WA0111801129
B1906154748273N12002331WA0111801129
B1906164748273N12002331WA0111801129
B1906174748273N12002331WA0111801129
B1906184748273N12002331WA0111801129
B1906194748273N12002331WA0111801129
B1906204748273N12002331WA0111801129
B1906214748273N12002331WA0111801129
B1906224748273N12002331WA0111801130
B1906234748273N12002331WA0111801130
B1906244748273N12002331WA0111801130
B1906254748273N12002331WA0111801130
B1906264748273N12002331WA0111801130
B1906274748273N12002331WA0111801130
B1906284748273N12002331WA0111801130
B1906294748273N12002331WA0111801130
B1906304748273N12002331WA0111801131
B1906314748273N12002331WA0111801131
B1906324748273N12002331WA0111801131
B1906334748273N12002331WA0111801131
B1906344748273N12002331WA0111801131
B1906354748273N12002331WA0111801131
B1906364748273N12002331WA0111801131
B1906374748273N12002331WA0111801131
B1906384748273N12002331WA0111801131
B1906394748273N12002331WA0111801131
B1906404748273N12002331WA0111801131
B1906414748273N12002331WA0111801131
B1906424748273N12002331WA0111801131
B1906434748273N12002331WA0111801131
B1906444748273N12002331WA0111801131
B1906454748273N12002331WA0111801130
B1906464748273N12002331WA0111801130
B1906474748273N12002331WA0111801130
B1906484748272N12002331WA0111801130
B1906494748272N12002331WA0111801130
B1906504748272N12002331WA0111801130
B1906514748272N12002331WA0111801130
B1906524748272N12002331WA0111801130
B1906534748272N12002331WA0111801130
B1906544748272N12002331WA0111801130
B1906554748272N12002331WA0111801130
B1906564748272N12002331WA0111801130
B1906574748272N12002331WA0111801130
B1906584748271N12002331WA0111801130
B1906594748271N12002332WA0111801130
B1907004748270N12002331WA0111801130
B1907014748271N12002331WA0111801130
B1907024748271N12002331WA0111801130
B1907034748272N12002330WA0111801130
B1907044748272N12002330WA0111801130
B1907054748272N12002330WA0111801130
B1907064748273N12002330WA0111801130
B1907074748273N12002330WA0111801130
B1907084748273N12002330WA0111801130
B1907094748273N12002330WA0111801130
B1907104748272N12002330WA0111801130
B1907114748272N12002330WA0111801130
B1907124748273N12002330WA0111801130
B1907134748273N12002330WA0111801130
B1907144748273N12002330WA0111801130
B1907154748272N12002331WA0111801130
B1907164748272N12002331WA0111801130
B1907174748272N12002331WA0111801130
B1907184748272N12002330WA0111801130
B1907194748272N12002330WA0111801130
B1907204748272N12002330WA0111801130
B1907214748272N12002329WA0111801129
B1907224748273N12002330WA0111801129
B1907234748273N12002330WA0111801130
B1907244748273N12002331WA0111801129
B1907254748273N12002331WA0111801129
B1907264748272N12002331WA0111801129
B1907274748272N12002331WA0111801129
B1907284748272N12002331WA0111801129
B1907294748271N12002332WA0111801129
B1907304748271N12002332WA0111801129
B1907314748270N12002332WA0111801129
B1907324748270N12002332WA0111801129
B1907334748269N12002332WA0111801129
B1907344748269N12002332WA0111801129
B1907354748269N12002332WA0111801130
B1907364748269N12002332WA0111801129
B1907374748269N12002332WA0111801130
B1907384748269N12002332WA0111801130
B1907394748269N12002332WA0111801130
B1907404748269N12002332WA0111801130
B1907414748269N12002333WA0111801130
B1907424748269N12002333WA0111801130
B1907434748269N12002333WA0111801130
B1907444748269N12002333WA0111801130
B1907454748269N12002333WA0111801130
B1907464748269N12002333WA0111801130
B1907474748269N12002333WA0111801130
B1907484748269N12002333WA0111801130
B1907494748269N12002333WA0111801130
B1907504748269N12002333WA0111801130
B1907514748269N12002333WA0111801130
B1907524748269N12002333WA0111801130
B1907534748269N12002332WA0111801130
B1907544748269N12002332WA0111801130
B1907554748269N12002331WA0111801130
B1907564748269N12002331WA0111801130
B1907574748269N12002330WA0111801130
B1907584748269N12002330WA0111801130
B1907594748269N12002330WA0111901130
B1908004748269N12002330WA0111901130
B1908014748269N12002330WA0111901130
B1908024748269N12002330WA0111901130
B1908034748269N12002330WA0111901130
B1908044748270N12002329WA0111901129
B1908054748271N12002329WA0111901129
B1908064748271N12002329WA0111901129
B1908074748272N12002329WA0111901130
B1908084748272N12002328WA0111901130
B1908094748273N12002328WA0111901130
B1908104748273N12002328WA0111901129
B1908114748274N12002327WA0111901129
B1908124748274N12002327WA0111901129
B1908134748275N12002326WA0111901129
B1908144748276N12002326WA0111901129
B1908154748276N12002326WA0111901129
B1908164748276N12002325WA0111901129
B1908174748277N12002325WA0111901129
B1908184748277N12002325WA0111901128
B1908194748278N12002325WA0111901128
B1908204748279N12002325WA0111901129
B1908214748279N12002325WA0111901129
B1908224748280N12002325WA0111901129
B1908234748280N12002325WA0111901129
B1908244748281N12002325WA0111901128
B1908254748281N12002324WA0111901128
B1908264748282N12002324WA0111901128
B1908274748282N12002323WA0111901128
B1908284748283N12002323WA0111901128
B1908294748283N12002322WA0111901128
B1908304748283N12002321WA0111901127
B1908314748283N12002320WA0111901127
B1908324748284N12002320WA0111901128
B1908334748284N12002319WA0111901128
B1908344748285N12002319WA0111801128
B1908354748285N12002318WA0111801129
B1908364748286N12002318WA0111801129
B1908374748286N12002317WA0111801129
B1908384748287N12002317WA0111801128
B1908394748287N12002317WA0111801128
B1908404748288N12002316WA0111801128
B1908414748288N12002315WA0111801128
B1908424748289N12002315WA0111801128
B1908434748289N12002314WA0111801128
B1908444748290N12002313WA0111801128
B1908454748290N12002312WA0111701128
B1908464748290N12002311WA0111701127
B1908474748291N12002310WA0111701127
B1908484748291N12002309WA0111701127
B1908494748291N12002308WA0111701127
B1908504748291N12002307WA0111701127
B1908514748291N12002306WA0111701127
B1908524748291N12002305WA0111601127
B1908534748291N12002304WA0111601127
B1908544748291N12002303WA0111601127
B1908554748291N12002303WA0111601127
B1908564748291N12002302WA0111601128
B1908574748291N12002302WA0111601128
B1908584748292N12002302WA0111601128
B1908594748292N12002302WA0111601127
B1909004748292N12002301WA0111501127
B1909014748292N12002301WA0111501127
B1909024748292N12002300WA0111501127
B1909034748292N12002299WA0111501128
B1909044748292N12002299WA0111501128
B1909054748292N12002299WA0111501128
B1909064748292N12002298WA0111501128
B1909074748292N12002298WA0111501128
B1909084748292N12002298WA0111501127
B1909094748292N12002298WA0111501127
B1909104748292N12002298WA0111501127
B1909114748292N12002299WA0111501129
B1909124748292N12002299WA0111401129
B1909134748292N12002298WA0111401129
B1909144748292N12002298WA0111401129
B1909154748292N12002298WA0111401129
B1909164748292N12002298WA0111401130
B1909174748292N12002298WA0111401130
B1909184748292N12002298WA0111401130
B1909194748292N12002298WA0111401130
B1909204748292N12002298WA0111401130
B1909214748292N12002298WA0111401130
B1909224748292N12002298WA0111401130
B1909234748292N12002298WA0111401130
B1909244748292N12002298WA0111401130
B1909254748292N12002298WA0111401131
B1909264748292N12002298WA0111401131
B1909274748292N12002298WA0111401131
B1909284748292N12002298WA0111401131
B1909294748292N12002297WA0111401131
B1909304748293N12002297WA0111401131
B1909314748293N12002297WA0111401131
B1909324748293N12002297WA0111401130
B1909334748293N12002297WA0111401130
B1909344748293N12002297WA0111401130
B1909354748293N12002297WA0111401130
B1909364748293N12002297WA0111401129
B1909374748293N12002297WA0111401129
B1909384748293N12002297WA0111401129
B1909394748293N12002297WA0111401129
B1909404748294N12002297WA0111301129
B1909414748294N12002297WA0111301130
B1909424748294N12002297WA0111301130
B1909434748294N12002297WA0111301130
B1909444748294N12002297WA0111301130
B1909454748294N12002297WA0111301130
B1909464748294N12002297WA0111301130
B1909474748293N12002297WA0111301131
B1909484748294N12002297WA0111301131
B1909494748294N12002297WA0111301131
B1909504748294N12002297WA0111301131
B1909514748294N12002297WA0111301131
B1909524748294N12002297WA0111401131
B1909534748294N12002296WA0111401131
B1909544748294N12002296WA0111401131
B1909554748294N12002296WA0111401131
B1909564748293N12002297WA0111401131
B1909574748293N12002297WA0111401131
B1909584748293N12002297WA0111401132
B1909594748293N12002297WA0111401132
B1910004748293N12002297WA0111401132
B1910014748293N12002297WA0111401132
B1910024748293N12002297WA0111401133
B1910034748293N12002297WA0111401133
B1910044748293N12002297WA0111401133
B1910054748293N12002298WA0111401133
B1910064748293N12002298WA0111401133
B1910074748293N12002298WA0111401134
B1910084748293N12002298WA0111401134
B1910094748294N12002299WA0111401133
B1910104748294N12002299WA0111401134
B1910114748295N12002299WA0111401133
B1910124748295N12002298WA0111401133
B1910134748296N12002298WA0111401133
B1910144748297N12002297WA0111401133
B1910154748298N12002296WA0111401132
B1910164748299N12002294WA0111401132
B1910174748301N12002292WA0111301132
B1910184748302N12002290WA0111301132
B1910194748304N12002287WA0111301133
B1910204748306N12002285WA0111301133
B1910214748308N12002282WA0111301132
B1910224748310N12002279WA0111301132
B1910234748312N12002276WA0111301131
B1910244748315N12002274WA0111301131
B1910254748317N12002272WA0111201131
B1910264748319N12002269WA0111201131
B1910274748321N12002267WA0111201131
B1910284748323N12002264WA0111201130
B1910294748325N12002262WA0111201130
B1910304748326N12002260WA0111201130
B1910314748327N12002258WA0111201130
B1910324748329N12002257WA0111201130
B1910334748330N12002256WA0111201129
B1910344748331N12002255WA0111201129
B1910354748332N12002254WA0111201129
B1910364748333N12002254WA0111201129
B1910374748335N12002254WA0111201128
B1910384748336N12002255WA0111201128
B1910394748337N12002256WA0111201128
B1910404748338N12002258WA0111201128
B1910414748338N12002260WA0111201128
B1910424748339N12002262WA0111101127
B1910434748339N12002265WA0111101126
B1910444748340N12002268WA0111101125
B1910454748340N12002270WA0111101124
B1910464748341N12002273WA0111101123
B1910474748341N12002275WA0111101123
B1910484748341N12002278WA0111001122
B1910494748342N12002280WA0111001121
B1910504748342N12002283WA0111001121
B1910514748342N12002286WA0110901120
B1910524748343N12002289WA0110901119
B1910534748343N12002292WA0110801118
B1910544748343N12002296WA0110801118
B1910554748343N12002300WA0110701117
B1910564748343N12002303WA0110701116
B1910574748343N12002307WA0110601115
B1910584748344N12002311WA0110501115
B1910594748344N12002314WA0110501114
B1911004748344N12002318WA0110401114
B1911014748344N12002321WA0110401114
B1911024748344N12002324WA0110301113
B1911034748343N12002327WA0110301113
B1911044748343N12002330WA0110201112
B1911054748342N12002333WA0110101111
B1911064748342N12002336WA0110101110
B1911074748341N12002339WA0110001109
B1911084748340N12002342WA0110001108
B1911094748340N12002344WA0109901107
B1911104748338N12002347WA0109801107
B1911114748337N12002350WA0109801107
B1911124748336N12002352WA0109701107
B1911134748335N12002355WA0109701107
B1911144748334N12002358WA0109601106
B1911154748333N12002360WA0109601106
B1911164748331N12002363WA0109501105
B1911174748330N12002366WA0109401104
B1911184748329N12002369WA0109401102
B1911194748327N12002372WA0109301101
B1911204748326N12002375WA0109201099
B1911214748324N12002379WA0109201097
B1911224748323N12002383WA0109101095
B1911234748321N12002387WA0109101095
B1911244748319N12002392WA0109001093
B1911254748317N12002397WA0108901093
B1911264748316N12002401WA0108901092
B1911274748314N12002407WA0108801091
B1911284748312N12002412WA0108701090
B1911294748311N12002417WA0108601089
B1911304748310N12002421WA0108501088
B1911314748310N12002426WA0108501086
B1911324748309N12002430WA0108401085
B1911334748309N12002435WA0108301083
B1911344748310N12002439WA0108201082
B1911354748310N12002444WA0108101081
B1911364748310N12002448WA0108001079
B1911374748310N12002452WA0107901079
B1911384748310N12002457WA0107801077
B1911394748309N12002461WA0107801076
B1911404748308N12002465WA0107701075
B1911414748307N12002469WA0107601075
B1911424748306N12002473WA0107501073
B1911434748304N12002477WA0107401073
B1911444748304N12002481WA0107301073
B1911454748302N12002485WA0107301072
B1911464748301N12002489WA0107201071
B1911474748301N12002494WA0107101071
B1911484748300N12002498WA0107001070
B1911494748300N12002501WA0106901069
B1911504748299N12002505WA0106801068
B1911514748300N12002508WA0106701067
B1911524748301N12002512WA0106701066
B1911534748302N12002515WA0106601064
B1911544748303N12002518WA0106501063
B1911554748304N12002521WA0106401062
B1911564748306N12002525WA0106301060
B1911574748307N12002528WA0106201059
B1911584748308N12002532WA0106101058
B1911594748309N12002535WA0106101057
B1912004748310N12002538WA0106001057
B1912014748310N12002540WA0105901055
B1912024748310N12002544WA0105801054
B1912034748310N12002547WA0105801054
B1912044748309N12002550WA0105701052
B1912054748309N12002554WA0105601051
B1912064748308N12002558WA0105501051
B1912074748306N12002561WA0105501051
B1912084748305N12002565WA0105401050
B1912094748304N12002568WA0105401048
B1912104748303N12002572WA0105301048
B1912114748302N12002576WA0105201047
B1912124748300N12002579WA0105101046
B1912134748299N12002583WA0105101044
B1912144748298N12002588WA0105001043
B1912154748298N12002592WA0104901043
B1912164748298N12002596WA0104901043
B1912174748298N12002601WA0104801042
B1912184748298N12002605WA0104701041
B1912194748299N12002610WA0104701040
B1912204748300N12002614WA0104601039
B1912214748302N12002618WA0104501039
B1912224748303N12002622WA0104401038
B1912234748303N12002626WA0104401037
B1912244748303N12002630WA0104301036
B1912254748303N12002634WA0104201036
B1912264748302N12002637WA0104101034
B1912274748301N12002641WA0104101034
B1912284748300N12002645WA0104001033
B1912294748298N12002648WA0103901032
B1912304748297N12002652WA0103801032
B1912314748295N12002655WA0103701032
B1912324748294N12002659WA0103601032
B1912334748293N12002662WA0103601030
B1912344748291N12002666WA0103501029
B1912354748290N12002669WA0103401029
B1912364748289N12002673WA0103301028
B1912374748288N12002677WA0103301028
B1912384748288N12002681WA0103201027
B1912394748287N12002685WA0103101025
B1912404748287N12002689WA0103001024
B1912414748286N12002693WA0102901023
B1912424748287N12002698WA0102801022
B1912434748287N12002702WA0102701021
B1912444748287N12002706WA0102601020
B1912454748286N12002710WA0102601020
B1912464748285N12002714WA0102501020
B1912474748284N12002718WA0102401019
B1912484748283N12002722WA0102401019
B1912494748281N12002726WA0102301018
B1912504748279N12002730WA0102201018
B1912514748277N12002734WA0102201018
B1912524748275N12002738WA0102101018
B1912534748273N12002741WA0102001018
B1912544748271N12002745WA0102001017
B1912554748269N12002750WA0101901017
B1912564748268N12002753WA0101801017
B1912574748266N12002757WA0101801017
B1912584748265N12002761WA0101701016
B1912594748263N12002765WA0101701016
B1913004748262N12002769WA0101601016
B1913014748261N12002773WA0101601016
B1913024748260N12002776WA0101501015
B1913034748258N12002780WA0101501015
B1913044748257N12002783WA0101501015
B1913054748255N12002785WA0101401016
B1913064748254N12002786WA0101401016
B1913074748252N12002786WA0101401014
B1913084748251N12002787WA0101301015
B1913094748250N12002788WA0101301015
B1913104748249N12002789WA0101301015
B1913114748248N12002790WA0101301015
B1913124748248N12002792WA0101201014
B1913134748247N12002794WA0101201014
B1913144748248N12002797WA0101201013
B1913154748249N12002799WA0101201012
B1913164748250N12002801WA0101101013
B1913174748251N12002802WA0101101012
B1913184748253N12002803WA0101101012
B1913194748254N12002803WA0101001013
B1913204748255N12002804WA0101001012
B1913214748256N12002803WA0101001012
B1913224748257N12002803WA0101001011
B1913234748259N12002803WA0100901011
B1913244748260N12002803WA0100901011
B1913254748261N12002803WA0100901012
B1913264748263N12002802WA0100801011
B1913274748264N12002802WA0100801011
B1913284748265N12002801WA0100701011
B1913294748266N12002799WA0100701010
B1913304748268N12002798WA0100701010
B1913314748269N12002796WA0100601009
B1913324748270N12002794WA0100601009
B1913334748271N12002792WA0100501007
B1913344748273N12002790WA0100501006
B1913354748274N12002787WA0100501005
B1913364748275N12002785WA0100401004
B1913374748277N12002782WA0100401003
B1913384748278N12002780WA0100301002
B1913394748279N12002777WA0100301002
B1913404748281N12002774WA0100201001
B1913414748283N12002771WA0100201000
B1913424748285N12002769WA0100100999
B1913434748287N12002766WA0100000999
B1913444748290N12002764WA0100000997
B1913454748293N12002762WA0099900997
B1913464748296N12002760WA0099800997
B1913474748299N12002759WA0099800996
B1913484748302N12002757WA0099700995
B1913494748305N12002756WA0099600995
B1913504748307N12002755WA0099500995
B1913514748310N12002753WA0099500994
B1913524748312N12002752WA0099400994
B1913534748314N12002750WA0099300993
B1913544748317N12002747WA0099300993
B1913554748319N12002744WA0099200992
B1913564748320N12002740WA0099100992
B1913574748322N12002736WA0099100990
B1913584748323N12002733WA0099000990
B1913594748325N12002729WA0098900989
B1914004748327N12002725WA0098800988
B1914014748328N12002723WA0098700988
B1914024748330N12002720WA0098600987
B1914034748333N12002718WA0098600986
B1914044748335N12002716WA0098500985
B1914054748338N12002715WA0098400986
B1914064748341N12002714WA0098300985
B1914074748344N12002714WA0098300984
B1914084748348N12002713WA0098200983
B1914094748351N12002713WA0098100981
B1914104748353N12002712WA0098000980
B1914114748356N12002711WA0097900979
B1914124748358N12002711WA0097800978
B1914134748361N12002709WA0097800977
B1914144748363N12002708WA0097700976
B1914154748365N12002706WA0097600975
B1914164748367N12002704WA0097600976
B1914174748369N12002702WA0097500975
B1914184748371N12002700WA0097400975
B1914194748373N12002697WA0097300974
B1914204748376N12002694WA0097300974
B1914214748378N12002691WA0097200973
B1914224748380N12002689WA0097100972
B1914234748382N12002686WA0097000971
B1914244748384N12002683WA0096900971
B1914254748385N12002680WA0096900971
B1914264748386N12002678WA0096800970
B1914274748388N12002676WA0096700969
B1914284748390N12002674WA0096600968
B1914294748393N12002674WA0096600967
B1914304748396N12002674WA0096500967
B1914314748399N12002674WA0096400968
B1914324748402N12002675WA0096400968
B1914334748405N12002675WA0096300968
B1914344748408N12002676WA0096200968
B1914354748410N12002677WA0096200967
B1914364748413N12002677WA0096100967
B1914374748415N12002678WA0096100967
B1914384748418N12002678WA0096000967
B1914394748420N12002679WA0096000966
B1914404748421N12002678WA0095900967
B1914414748423N12002678WA0095900966
B1914424748425N12002677WA0095900966
B1914434748427N12002678WA0095800965
B1914444748428N12002680WA0095800964
B1914454748430N12002682WA0095700964
B1914464748430N12002684WA0095700962
B1914474748431N12002687WA0095600962
B1914484748431N12002690WA0095600961
B1914494748430N12002693WA0095500961
B1914504748429N12002695WA0095500960
B1914514748427N12002696WA0095500959
B1914524748424N12002697WA0095400959
B1914534748422N12002698WA0095400958
B1914544748420N12002698WA0095300958
B1914554748417N12002697WA0095300957
B1914564748415N12002696WA0095300956
B1914574748412N12002695WA0095200955
B1914584748410N12002694WA0095200954
B1914594748408N12002693WA0095100953
B1915004748406N12002693WA0095100952
B1915014748404N12002693WA0095100951
B1915024748402N12002693WA0095000951
B1915034748400N12002694WA0095000950
B1915044748399N12002696WA0094900950
B1915054748398N12002699WA0094900950
B1915064748397N12002702WA0094800949
B1915074748396N12002706WA0094800949
B1915084748395N12002710WA0094800948
B1915094748394N12002714WA0094700947
B1915104748393N12002719WA0094700947
B1915114748392N12002723WA0094600946
B1915124748391N12002728WA0094500944
B1915134748390N12002733WA0094500943
B1915144748389N12002738WA0094400943
B1915154748388N12002743WA0094400942
B1915164748386N12002748WA0094300941
B1915174748384N12002751WA0094200939
B1915184748382N12002754WA0094200938
B1915194748380N12002756WA0094100938
B1915204748377N12002758WA0094000938
B1915214748376N12002760WA0094000936
B1915224748374N12002762WA0093900936
B1915234748373N12002764WA0093800935
B1915244748372N12002767WA0093800933
B1915254748371N12002770WA0093700932
B1915264748370N12002774WA0093600931
B1915274748370N12002778WA0093600931
B1915284748370N12002782WA0093500930
B1915294748369N12002786WA0093500929
B1915304748368N12002789WA0093400928
B1915314748367N12002792WA0093300927
B1915324748365N12002796WA0093300927
B1915334748363N12002799WA0093200927
B1915344748362N12002803WA0093200927
B1915354748362N12002807WA0093100927
B1915364748362N12002811WA0093000927
B1915374748362N12002814WA0093000927
B1915384748362N12002817WA0092900925
B1915394748362N12002820WA0092900924
B1915404748362N12002823WA0092800923
B1915414748362N12002826WA0092800924
B1915424748362N12002829WA0092700923
B1915434748362N12002832WA0092700923
B1915444748362N12002836WA0092600922
B1915454748363N12002840WA0092600922
B1915464748364N12002844WA0092500922
B1915474748366N12002848WA0092500921
B1915484748367N12002851WA0092400920
B1915494748369N12002855WA0092400920
B1915504748370N12002859WA0092300919
B1915514748371N12002862WA0092300917
B1915524748372N12002866WA0092200916
B1915534748374N12002870WA0092200915
B1915544748375N12002874WA0092100914
B1915554748377N12002878WA0092000913
B1915564748378N12002882WA0092000913
B1915574748379N12002886WA0091900913
B1915584748381N12002889WA0091800912
B1915594748383N12002892WA0091800911
B1916004748385N12002896WA0091700911
B1916014748386N12002899WA0091700910
B1916024748389N12002902WA0091600910
B1916034748390N12002905WA0091500910
B1916044748392N12002909WA0091500909
B1916054748394N12002912WA0091400908
B1916064748395N12002915WA0091300908
B1916074748397N12002918WA0091300907
B1916084748398N12002921WA0091200906
B1916094748399N12002925WA0091200906
B1916104748401N12002929WA0091100905
B1916114748402N12002933WA0091000904
B1916124748404N12002937WA0090900903
B1916134748405N12002941WA0090900902
B1916144748406N12002945WA0090800901
B1916154748407N12002950WA0090700900
B1916164748408N12002954WA0090600899
B1916174748409N12002958WA0090600898
B1916184748411N12002963WA0090500897
B1916194748412N12002966WA0090400896
B1916204748414N12002971WA0090300894
B1916214748414N12002975WA0090200894
B1916224748415N12002980WA0090100893
B1916234748415N12002984WA0090100892
B1916244748415N12002989WA0090000890
B1916254748415N12002993WA0089900888
B1916264748415N12002997WA0089800886
B1916274748415N12003001WA0089800885
B1916284748416N12003006WA0089700883
B1916294748417N12003010WA0089600882
B1916304748419N12003014WA0089500881
B1916314748421N12003017WA0089400881
B1916324748423N12003020WA0089300881
B1916334748426N12003023WA0089300881
B1916344748429N12003026WA0089100879
B1916354748432N12003029WA0089100877
B1916364748434N12003033WA0089000876
B1916374748437N12003037WA0088900876
B1916384748439N12003041WA0088800875
B1916394748442N12003044WA0088700874
B1916404748444N12003048WA0088600873
B1916414748447N12003050WA0088600873
B1916424748450N12003053WA0088500872
B1916434748452N12003054WA0088400872
B1916444748455N12003056WA0088300871
B1916454748459N12003058WA0088200870
B1916464748462N12003059WA0088100870
B1916474748466N12003061WA0088100869
B1916484748469N12003063WA0088000868
B1916494748472N12003065WA0087900868
B1916504748475N12003067WA0087800868
B1916514748479N12003070WA0087800867
B1916524748482N12003072WA0087700868
B1916534748485N12003076WA0087600867
B1916544748489N12003079WA0087500867
B1916554748492N12003083WA0087500867
B1916564748495N12003086WA0087400867
B1916574748498N12003090WA0087300867
B1916584748501N12003093WA0087300867
B1916594748504N12003097WA0087200866
B1917004748506N12003100WA0087100866
B1917014748508N12003103WA0087100866
B1917024748509N12003106WA0087000866
B1917034748511N12003108WA0087000865
B1917044748513N12003112WA0086900865
B1917054748515N12003115WA0086800865
B1917064748517N12003119WA0086800864
B1917074748520N12003122WA0086700863
B1917084748522N12003127WA0086600863
B1917094748524N12003131WA0086600863
B1917104748527N12003136WA0086500862
B1917114748529N12003141WA0086400861
B1917124748532N12003146WA0086300860
B1917134748534N12003151WA0086200858
B1917144748536N12003157WA0086100857
B1917154748539N12003162WA0086100856
B1917164748542N12003167WA0085900855
B1917174748546N12003171WA0085900854
B1917184748550N12003173WA0085800854
B1917194748553N12003175WA0085700853
B1917204748557N12003176WA0085600852
B1917214748561N12003177WA0085600852
B1917224748564N12003177WA0085500851
B1917234748568N12003177WA0085400852
B1917244748572N12003177WA0085400852
B1917254748576N12003178WA0085300852
B1917264748579N12003178WA0085300852
B1917274748583N12003179WA0085200851
B1917284748586N12003180WA0085200850
B1917294748589N12003181WA0085100849
B1917304748592N12003183WA0085100847
B1917314748594N12003185WA0085100847
B1917324748597N12003187WA0085000847
B1917334748599N12003190WA0085000847
B1917344748601N12003193WA0085000848
B1917354748604N12003195WA0085000847
B1917364748606N12003196WA0084900847
B1917374748609N12003198WA0084900848
B1917384748611N12003199WA0084900848
B1917394748613N12003200WA0084800847
B1917404748616N12003201WA0084800847
B1917414748618N12003201WA0084800847
B1917424748621N12003201WA0084700847
B1917434748624N12003201WA0084700847
B1917444748627N12003202WA0084700847
B1917454748630N12003202WA0084700847
B1917464748633N12003203WA0084700847
B1917474748637N12003204WA0084600846
B1917484748640N12003205WA0084600846
B1917494748643N12003207WA0084600845
B1917504748646N12003208WA0084600844
B1917514748650N12003210WA0084500843
B1917524748653N12003212WA0084500843
B1917534748656N12003215WA0084500843
B1917544748659N12003217WA0084400843
B1917554748662N12003220WA0084400842
B1917564748665N12003222WA0084300842
B1917574748668N12003224WA0084300842
B1917584748671N12003226WA0084300841
B1917594748674N12003228WA0084200841
B1918004748677N12003229WA0084200840
B1918014748680N12003231WA0084100840
B1918024748684N12003232WA0084100839
B1918034748687N12003233WA0084000839
B1918044748690N12003234WA0084000838
B1918054748693N12003234WA0083900837
B1918064748697N12003235WA0083900836
B1918074748701N12003235WA0083800836
B1918084748704N12003235WA0083700835
B1918094748708N12003235WA0083700834
B1918104748712N12003235WA0083600833
B1918114748716N12003236WA0083600833
B1918124748720N12003236WA0083500832
B1918134748724N12003235WA0083500831
B1918144748727N12003235WA0083400831
B1918154748731N12003235WA0083300830
B1918164748735N12003234WA0083200829
B1918174748738N12003234WA0083200828
B1918184748742N12003234WA0083100828
B1918194748746N12003233WA0083100826
B1918204748749N12003233WA0083000825
B1918214748753N12003232WA0082900823
B1918224748757N12003232WA0082800823
B1918234748761N12003232WA0082800822
B1918244748765N12003231WA0082700820
B1918254748769N12003231WA0082600818
B1918264748773N12003231WA0082600817
B1918274748778N12003231WA0082500816
B1918284748782N12003232WA0082400815
B1918294748786N12003232WA0082300815
B1918304748791N12003233WA0082200814
B1918314748795N12003233WA0082200813
B1918324748798N12003233WA0082100813
B1918334748801N12003232WA0082000812
B1918344748804N12003230WA0082000812
B1918354748806N12003228WA0081900812
B1918364748807N12003225WA0081900811
B1918374748808N12003222WA0081800811
B1918384748809N12003219WA0081800812
B1918394748810N12003215WA0081700811
B1918404748811N12003211WA0081700810
B1918414748812N12003207WA0081600809
B1918424748812N12003203WA0081600808
B1918434748812N12003199WA0081500808
B1918444748811N12003195WA0081500808
B1918454748809N12003191WA0081400806
B1918464748808N12003187WA0081400806
B1918474748805N12003184WA0081300806
B1918484748803N12003181WA0081300805
B1918494748800N12003178WA0081200805
B1918504748798N12003175WA0081200804
B1918514748795N12003173WA0081100803
B1918524748793N12003171WA0081100803
B1918534748790N12003170WA0081000802
B1918544748787N12003168WA0081000801
B1918554748784N12003166WA0080900801
B1918564748782N12003162WA0080900801
B1918574748780N12003159WA0080900800
B1918584748777N12003156WA0080800800
B1918594748775N12003152WA0080800800
B1919004748773N12003148WA0080700800
B1919014748771N12003144WA0080700799
B1919024748770N12003140WA0080600798
B1919034748769N12003136WA0080500798
B1919044748770N12003132WA0080500799
B1919054748771N12003128WA0080500799
B1919064748771N12003124WA0080400799
B1919074748772N12003119WA0080400799
B1919084748772N12003115WA0080300799
B1919094748772N12003110WA0080300799
B1919104748772N12003106WA0080200799
B1919114748770N12003101WA0080200799
B1919124748768N12003098WA0080100799
B1919134748765N12003094WA0080100798
B1919144748762N12003092WA0080000797
B1919154748758N12003090WA0080000796
B1919164748755N12003089WA0079900795
B1919174748752N12003088WA0079900794
B1919184748748N12003087WA0079800792
B1919194748745N12003087WA0079800791
B1919204748742N12003087WA0079700790
B1919214748738N12003087WA0079600789
B1919224748734N12003087WA0079600790
B1919234748730N12003087WA0079500790
B1919244748727N12003087WA0079500789
B1919254748724N12003086WA0079400790
B1919264748721N12003085WA0079300789
B1919274748718N12003085WA0079300789
B1919284748716N12003084WA0079300788
B1919294748714N12003084WA0079200788
B1919304748711N12003084WA0079200787
B1919314748708N12003084WA0079200787
B1919324748705N12003085WA0079100786
B1919334748701N12003085WA0079100786
B1919344748697N12003085WA0079000785
B1919354748693N12003084WA0079000785
B1919364748690N12003084WA0078900785
B1919374748687N12003083WA0078900785
B1919384748684N12003083WA0078800784
B1919394748681N12003083WA0078800783
B1919404748678N12003083WA0078800783
B1919414748675N12003084WA0078700781
B1919424748672N12003083WA0078700780
B1919434748669N12003082WA0078600779
B1919444748667N12003082WA0078600779
B1919454748664N12003082WA0078500778
B1919464748662N12003082WA0078500777
B1919474748659N12003082WA0078400775
B1919484748656N12003082WA0078300773
B1919494748653N12003082WA0078300773
B1919504748650N12003081WA0078200772
B1919514748647N12003080WA0078100772
B1919524748643N12003078WA0078000771
B1919534748641N12003075WA0077900771
B1919544748638N12003071WA0077800770
B1919554748636N12003067WA0077800769
B1919564748635N12003063WA0077700767
B1919574748634N12003058WA0077600766
B1919584748633N12003053WA0077500765
B1919594748633N12003049WA0077400764
B1920004748633N12003044WA0077300763
B1920014748632N12003040WA0077200761
B1920024748631N12003036WA0077100759
B1920034748630N12003032WA0077000757
B1920044748628N12003028WA0076900755
B1920054748627N12003024WA0076800754
B1920064748625N12003021WA0076700752
B1920074748623N12003017WA0076600751
B1920084748622N12003014WA0076400749
B1920094748621N12003010WA0076300749
B1920104748620N12003007WA0076200748
B1920114748620N12003003WA0076200747
B1920124748623N12003000WA0076000745
B1920134748625N12002999WA0076000746
B1920144748627N12003000WA0075900746
B1920154748630N12003001WA0075800744
B1920164748632N12003003WA0075700743
B1920174748636N12003005WA0075700743
B1920184748639N12003008WA0075600742
B1920194748643N12003010WA0075500742
B1920204748646N12003010WA0075400742
B1920214748650N12003010WA0075400741
B1920224748653N12003009WA0075300740
B1920234748657N12003006WA0075200740
B1920244748661N12003004WA0075100739
B1920254748664N12003003WA0075100740
B1920264748668N12003001WA0075000739
B1920274748672N12002999WA0074900738
B1920284748675N12002997WA0074800737
B1920294748679N12002994WA0074700736
B1920304748682N12002991WA0074600734
B1920314748686N12002988WA0074500734
B1920324748689N12002984WA0074400733
B1920334748692N12002981WA0074300730
B1920344748696N12002977WA0074100728
B1920354748699N12002974WA0074000727
B1920364748703N12002971WA0073900726
B1920374748706N12002968WA0073800725
B1920384748709N12002965WA0073700723
B1920394748713N12002963WA0073600722
B1920404748717N12002960WA0073400722
B1920414748720N12002957WA0073300720
B1920424748724N12002955WA0073200719
B1920434748727N12002953WA0073100717
B1920444748730N12002951WA0072900716
B1920454748733N12002950WA0072800715
B1920464748737N12002949WA0072700713
B1920474748741N12002947WA0072600712
B1920484748745N12002946WA0072400711
B1920494748749N12002945WA0072300710
B1920504748753N12002943WA0072200709
B1920514748757N12002942WA0072100707
B1920524748761N12002941WA0071900705
B1920534748764N12002940WA0071800705
B1920544748768N12002939WA0071700704
B1920554748771N12002937WA0071600703
B1920564748774N12002935WA0071500702
B1920574748777N12002933WA0071400701
B1920584748780N12002932WA0071200699
B1920594748783N12002931WA0071100699
B1921004748786N12002931WA0071000698
B1921014748789N12002932WA0070900698
B1921024748791N12002935WA0070800697
B1921034748794N12002938WA0070700696
B1921044748796N12002940WA0070600695
B1921054748799N12002942WA0070500693
B1921064748801N12002945WA0070400692
B1921074748804N12002946WA0070300692
B1921084748807N12002947WA0070200690
B1921094748810N12002947WA0070100691
B1921104748814N12002947WA0070000689
B1921114748817N12002946WA0069900688
B1921124748820N12002946WA0069800688
B1921134748824N12002945WA0069700687
B1921144748828N12002944WA0069600685
B1921154748832N12002943WA0069500684
B1921164748837N12002942WA0069400682
B1921174748841N12002942WA0069300681
B1921184748846N12002941WA0069200679
B1921194748851N12002940WA0069100678
B1921204748855N12002940WA0069000677
B1921214748859N12002939WA0068900676
B1921224748863N12002938WA0068700674
B1921234748868N12002937WA0068600674
B1921244748872N12002935WA0068500672
B1921254748876N12002934WA0068400671
B1921264748880N12002933WA0068300670
B1921274748885N12002932WA0068200669
B1921284748890N12002931WA0068000669
B1921294748894N12002930WA0067900668
B1921304748899N12002930WA0067800668
B1921314748903N12002931WA0067700668
B1921324748907N12002931WA0067600668
B1921334748911N12002932WA0067500666
B1921344748914N12002933WA0067400665
B1921354748917N12002934WA0067300665
B1921364748919N12002936WA0067200664
B1921374748922N12002937WA0067200664
B1921384748924N12002939WA0067000663
B1921394748926N12002942WA0067000662
B1921404748928N12002945WA0066900662
B1921414748931N12002947WA0066800661
B1921424748933N12002950WA0066700661
B1921434748936N12002953WA0066600660
B1921444748939N12002955WA0066500659
B1921454748942N12002956WA0066500657
B1921464748945N12002956WA0066400656
B1921474748948N12002957WA0066300655
B1921484748951N12002958WA0066200652
B1921494748954N12002959WA0066200651
B1921504748956N12002961WA0066100650
B1921514748959N12002964WA0066000649
B1921524748961N12002966WA0065900647
B1921534748963N12002969WA0065800646
B1921544748965N12002972WA0065700645
B1921554748967N12002973WA0065700644
B1921564748970N12002975WA0065600643
B1921574748972N12002976WA0065500642
B1921584748975N12002977WA0065400641
B1921594748978N12002976WA0065300641
B1922004748981N12002976WA0065200641
B1922014748984N12002976WA0065200641
B1922024748986N12002977WA0065100640
B1922034748990N12002978WA0065000639
B1922044748993N12002980WA0065000637
B1922054748996N12002982WA0064900636
B1922064748999N12002984WA0064800635
B1922074749002N12002986WA0064800635
B1922084749005N12002988WA0064700634
B1922094749008N12002990WA0064600632
B1922104749011N12002992WA0064500630
B1922114749014N12002994WA0064500630
B1922124749017N12002996WA0064400630
B1922134749019N12002998WA0064300629
B1922144749021N12003000WA0064200628
B1922154749024N12003001WA0064200628
B1922164749027N12003001WA0064100628
B1922174749029N12003001WA0064000628
B1922184749032N12003001WA0063900627
B1922194749035N12003002WA0063900627
B1922204749038N12003002WA0063800626
B1922214749042N12003004WA0063800624
B1922224749045N12003005WA0063700622
B1922234749048N12003008WA0063600621
B1922244749052N12003009WA0063500620
B1922254749056N12003011WA0063500619
B1922264749060N12003012WA0063400618
B1922274749063N12003013WA0063300617
B1922284749067N12003013WA0063200615
B1922294749071N12003014WA0063100615
B1922304749075N12003015WA0063000613
B1922314749079N12003017WA0062900612
B1922324749083N12003019WA0062800610
B1922334749086N12003021WA0062700610
B1922344749090N12003023WA0062500608
B1922354749094N12003025WA0062400607
B1922364749098N12003027WA0062300607
B1922374749102N12003029WA0062200606
B1922384749106N12003030WA0062100605
B1922394749110N12003030WA0062000605
B1922404749113N12003029WA0061900605
B1922414749117N12003029WA0061900605
B1922424749120N12003028WA0061800605
B1922434749124N12003027WA0061700604
B1922444749127N12003026WA0061600603
B1922454749131N12003027WA0061600602
B1922464749135N12003027WA0061500599
B1922474749139N12003028WA0061400598
B1922484749143N12003030WA0061300597
B1922494749147N12003031WA0061200595
B1922504749151N12003032WA0061100593
B1922514749155N12003033WA0061100592
B1922524749159N12003033WA0061000590
B1922534749163N12003033WA0060900589
B1922544749168N12003032WA0060800588
B1922554749172N12003031WA0060700587
B1922564749176N12003030WA0060600586
B1922574749181N12003030WA0060500585
B1922584749185N12003031WA0060400585
B1922594749189N12003032WA0060400585
B1923004749192N12003033WA0060300585
B1923014749196N12003034WA0060200584
B1923024749199N12003034WA0060100583
B1923034749202N12003035WA0060100583
B1923044749205N12003035WA0060000583
B1923054749208N12003035WA0060000584
B1923064749211N12003034WA0059900583
B1923074749214N12003034WA0059900583
B1923084749216N12003034WA0059800583
B1923094749218N12003034WA0059800584
B1923104749221N12003034WA0059800583
B1923114749224N12003035WA0059700583
B1923124749226N12003035WA0059700584
B1923134749229N12003037WA0059700584
B1923144749232N12003039WA0059700584
B1923154749235N12003041WA0059700584
B1923164749238N12003042WA0059700584
B1923174749241N12003043WA0059700584
B1923184749244N12003044WA0059700583
B1923194749248N12003045WA0059600583
B1923204749251N12003046WA0059600582
B1923214749255N12003047WA0059600582
B1923224749260N12003048WA0059600581
B1923234749265N12003049WA0059500581
B1923244749270N12003050WA0059500580
B1923254749275N12003051WA0059400579
B1923264749280N12003052WA0059400579
B1923274749285N12003053WA0059300578
B1923284749290N12003054WA0059300577
B1923294749294N12003056WA0059200576
B1923304749298N12003057WA0059200575
B1923314749302N12003058WA0059100575
B1923324749305N12003060WA0059100575
B1923334749309N12003061WA0059000575
B1923344749313N12003062WA0059000574
B1923354749317N12003064WA0058900573
B1923364749322N12003065WA0058800572
B1923374749327N12003067WA0058800572
B1923384749332N12003068WA0058700571
B1923394749337N12003068WA0058700571
B1923404749342N12003068WA0058600570
B1923414749346N12003068WA0058500569
B1923424749351N12003068WA0058500568
B1923434749356N12003067WA0058400568
B1923444749360N12003066WA0058400567
B1923454749365N12003065WA0058300566
B1923464749369N12003065WA0058300564
B1923474749374N12003064WA0058200564
B1923484749379N12003063WA0058100563
B1923494749383N12003062WA0058100564
B1923504749388N12003061WA0058000563
B1923514749392N12003059WA0058000563
B1923524749396N12003058WA0058000563
B1923534749400N12003057WA0057900563
B1923544749404N12003056WA0057900563
B1923554749409N12003056WA0057800563
B1923564749413N12003055WA0057800563
B1923574749417N12003056WA0057800562
B1923584749422N12003055WA0057700562
B1923594749426N12003055WA0057700561
B1924004749431N12003055WA0057600562
B1924014749436N12003055WA0057500561
B1924024749441N12003054WA0057500559
B1924034749447N12003053WA0057400558
B1924044749453N12003053WA0057300557
B1924054749459N12003052WA0057300555
B1924064749465N12003051WA0057200554
B1924074749472N12003050WA0057100553
B1924084749478N12003049WA0057000552
B1924094749484N12003048WA0057000552
B1924104749490N12003047WA0056900551
B1924114749496N12003046WA0056800550
B1924124749501N12003046WA0056700548
B1924134749507N12003047WA0056700547
B1924144749512N12003049WA0056600545
B1924154749517N12003051WA0056500544
B1924164749522N12003054WA0056400544
B1924174749527N12003055WA0056400543
B1924184749532N12003057WA0056300542
B1924194749537N12003058WA0056200541
B1924204749542N12003060WA0056100539
B1924214749547N12003062WA0056000537
B1924224749552N12003064WA0055900535
B1924234749558N12003066WA0055800534
B1924244749563N12003067WA0055700533
B1924254749569N12003068WA0055600532
B1924264749574N12003068WA0055500531
B1924274749578N12003069WA0055500531
B1924284749583N12003070WA0055400531
B1924294749587N12003072WA0055300531
B1924304749591N12003074WA0055200531
B1924314749594N12003078WA0055200530
B1924324749597N12003081WA0055100529
B1924334749600N12003085WA0055100529
B1924344749603N12003088WA0055100529
B1924354749606N12003092WA0055000529
B1924364749608N12003096WA0055000529
B1924374749610N12003101WA0055000528
B1924384749612N12003105WA0055000527
B1924394749613N12003111WA0054900527
B1924404749614N12003116WA0054900527
B1924414749616N12003122WA0054900527
B1924424749616N12003127WA0054900528
B1924434749617N12003133WA0054900528
B1924444749617N12003139WA0054900528
B1924454749618N12003144WA0054900528
B1924464749618N12003150WA0054900528
B1924474749619N12003156WA0054900528
B1924484749620N12003162WA0055000529
B1924494749621N12003168WA0055000530
B1924504749622N12003173WA0055000530
B1924514749622N12003179WA0055000531
B1924524749622N12003185WA0055000531
B1924534749623N12003190WA0055000532
B1924544749624N12003196WA0055000532
B1924554749624N12003203WA0055000531
B1924564749626N12003209WA0055000531
B1924574749627N12003216WA0055000529
B1924584749629N12003223WA0054900528
B1924594749630N12003230WA0054900528
B1925004749632N12003238WA0054900528
B1925014749632N12003245WA0054900527
B1925024749632N12003252WA0054900527
B1925034749631N12003258WA0054900526
B1925044749630N12003263WA0054800526
B1925054749629N12003269WA0054800525
B1925064749629N12003274WA0054800525
B1925074749631N12003279WA0054800525
B1925084749633N12003282WA0054800526
B1925094749635N12003286WA0054800526
B1925104749638N12003288WA0054800526
B1925114749641N12003290WA0054800527
B1925124749645N12003292WA0054800527
B1925134749648N12003294WA0054700526
B1925144749652N12003295WA0054700526
B1925154749656N12003296WA0054700526
B1925164749661N12003295WA0054700526
B1925174749665N12003294WA0054700527
B1925184749670N12003292WA0054600527
B1925194749674N12003290WA0054600527
B1925204749679N12003289WA0054600527
B1925214749684N12003289WA0054600527
B1925224749688N12003290WA0054500526
B1925234749692N12003292WA0054500525
B1925244749696N12003294WA0054500524
B1925254749700N12003297WA0054400522
B1925264749703N12003301WA0054400522
B1925274749706N12003305WA0054300521
B1925284749709N12003309WA0054300520
B1925294749711N12003314WA0054200520
B1925304749713N12003320WA0054200520
B1925314749715N12003325WA0054100521
B1925324749717N12003330WA0054000521
B1925334749720N12003335WA0054000521
B1925344749723N12003339WA0053900520
B1925354749726N12003343WA0053900520
B1925364749730N12003346WA0053800518
B1925374749734N12003349WA0053800518
B1925384749739N12003352WA0053700516
B1925394749745N12003354WA0053700515
B1925404749750N12003357WA0053600514
B1925414749756N12003360WA0053500513
B1925424749762N12003362WA0053400512
B1925434749767N12003365WA0053300511
B1925444749774N12003368WA0053200511
B1925454749780N12003371WA0053100510
B1925464749787N12003374WA0053000509
B1925474749793N12003377WA0052900508
B1925484749799N12003380WA0052800507
B1925494749804N12003384WA0052700506
B1925504749808N12003389WA0052500505
B1925514749812N12003395WA0052400503
B1925524749816N12003400WA0052300502
B1925534749819N12003406WA0052200501
B1925544749822N12003413WA0052100501
B1925554749824N12003420WA0052000500
B1925564749827N12003427WA0051800499
B1925574749829N12003434WA0051700498
B1925584749830N12003442WA0051600497
B1925594749831N12003449WA0051500496
B1926004749833N12003456WA0051400495
B1926014749834N12003463WA0051300494
B1926024749836N12003470WA0051200494
B1926034749838N12003477WA0051100493
B1926044749841N12003483WA0050900493
B1926054749843N12003490WA0050900491
B1926064749845N12003496WA0050700490
B1926074749848N12003503WA0050700489
B1926084749850N12003509WA0050500489
B1926094749852N12003514WA0050400489
B1926104749855N12003520WA0050300487
B1926114749857N12003524WA0050200487
B1926124749860N12003527WA0050100486
B1926134749863N12003528WA0050100486
B1926144749865N12003526WA0049900486
B1926154749867N12003523WA0049900485
B1926164749869N12003520WA0049800484
B1926174749870N12003515WA0049700483
B1926184749871N12003511WA0049600482
B1926194749871N12003506WA0049600482
B1926204749872N12003500WA0049500481
B1926214749873N12003495WA0049400480
B1926224749874N12003489WA0049300479
B1926234749875N12003484WA0049300478
B1926244749876N12003478WA0049200478
B1926254749878N12003473WA0049100478
B1926264749879N12003467WA0049000477
B1926274749880N12003462WA0049000476
B1926284749881N12003456WA0048900475
B1926294749882N12003450WA0048800475
B1926304749883N12003444WA0048700474
B1926314749883N12003439WA0048600473
B1926324749884N12003433WA0048600473
B1926334749885N12003428WA0048500472
B1926344749886N12003422WA0048400471
B1926354749888N12003416WA0048300470
B1926364749889N12003410WA0048200469
B1926374749891N12003404WA0048200468
B1926384749894N12003398WA0048100466
B1926394749896N12003392WA0048000465
B1926404749898N12003385WA0047900463
B1926414749901N12003379WA0047800462
B1926424749903N12003372WA0047700460
B1926434749904N12003364WA0047600459
B1926444749905N12003357WA0047500457
B1926454749906N12003350WA0047400456
B1926464749906N12003342WA0047300455
B1926474749906N12003335WA0047200454
B1926484749905N12003328WA0047100452
B1926494749904N12003320WA0047000451
B1926504749903N12003313WA0046900449
B1926514749901N12003305WA0046800448
B1926524749900N12003298WA0046700447
B1926534749897N12003292WA0046600446
B1926544749894N12003286WA0046500445
B1926554749891N12003280WA0046400444
B1926564749888N12003274WA0046300443
B1926574749885N12003269WA0046200441
B1926584749882N12003264WA0046100441
B1926594749878N12003258WA0046000439
B1927004749876N12003252WA0045900438
B1927014749873N12003245WA0045900436
B1927024749870N12003239WA0045700435
B1927034749867N12003232WA0045700434
B1927044749865N12003225WA0045500433
B1927054749862N12003218WA0045400431
B1927064749860N12003212WA0045300430
B1927074749858N12003205WA0045200429
B1927084749856N12003199WA0045100429
B1927094749853N12003194WA0045000427
B1927104749850N12003189WA0044900427
B1927114749847N12003185WA0044800426
B1927124749843N12003183WA0044700426
B1927134749839N12003181WA0044600425
B1927144749834N12003179WA0044400425
B1927154749830N12003178WA0044300424
B1927164749826N12003177WA0044200423
B1927174749822N12003176WA0044100422
B1927184749819N12003173WA0044000423
B1927194749817N12003169WA0043900423
B1927204749816N12003165WA0043800423
B1927214749816N12003161WA0043700422
B1927224749817N12003157WA0043600421
B1927234749819N12003154WA0043600419
B1927244749822N12003153WA0043500418
B1927254749825N12003153WA0043400417
B1927264749828N12003153WA0043300417
B1927274749832N12003153WA0043300417
B1927284749837N12003154WA0043200415
B1927294749841N12003155WA0043100416
B1927304749845N12003157WA0043100416
B1927314749850N12003159WA0043000416
B1927324749854N12003160WA0042900415
B1927334749859N12003163WA0042900415
B1927344749864N12003165WA0042800414
B1927354749868N12003168WA0042700414
B1927364749872N12003172WA0042600413
B1927374749876N12003175WA0042500411
B1927384749880N12003179WA0042400411
B1927394749884N12003183WA0042400409
B1927404749888N12003187WA0042200408
B1927414749893N12003190WA0042200407
B1927424749897N12003194WA0042100405
B1927434749901N12003197WA0042000403
B1927444749906N12003200WA0041900402
B1927454749910N12003203WA0041800399
B1927464749915N12003206WA0041700397
B1927474749919N12003209WA0041600395
B1927484749924N12003211WA0041400392
B1927494749929N12003213WA0041400390
B1927504749934N12003215WA0041300389
B1927514749939N12003216WA0041200386
B1927524749944N12003218WA0041000384
B1927534749950N12003219WA0041000382
B1927544749955N12003221WA0040800380
B1927554749959N12003222WA0040700379
B1927564749963N12003223WA0040600379
B1927574749968N12003225WA0040500378
B1927584749972N12003227WA0040400376
B1927594749977N12003230WA0040300377
B1928004749981N12003232WA0040200377
B1928014749986N12003235WA0040100378
B1928024749990N12003238WA0040000378
B1928034749995N12003240WA0039900377
B1928044750000N12003243WA0039800377
B1928054750005N12003246WA0039800375
B1928064750010N12003250WA0039600374
B1928074750015N12003253WA0039600373
B1928084750020N12003257WA0039500373
B1928094750026N12003260WA0039400373
B1928104750031N12003262WA0039200371
B1928114750036N12003264WA0039200368
B1928124750041N12003266WA0039000366
B1928134750046N12003267WA0038900365
B1928144750052N12003267WA0038800364
B1928154750057N12003267WA0038700363
B1928164750062N12003267WA0038600362
B1928174750067N12003266WA0038500362
B1928184750071N12003266WA0038400362
B1928194750076N12003266WA0038300363
B1928204750081N12003265WA0038200364
B1928214750085N12003264WA0038200365
B1928224750090N12003263WA0038100366
B1928234750095N12003262WA0038000367
B1928244750099N12003261WA0037900367
B1928254750104N12003260WA0037800367
B1928264750108N12003259WA0037700366
B1928274750112N12003258WA0037700366
B1928284750116N12003257WA0037600365
B1928294750120N12003256WA0037500364
B1928304750125N12003254WA0037400363
B1928314750129N12003253WA0037400362
B1928324750133N12003251WA0037300361
B1928334750136N12003250WA0037200360
B1928344750140N12003249WA0037100359
B1928354750143N12003248WA0037100358
B1928364750145N12003247WA0037000357
B1928374750148N12003246WA0037000355
B1928384750149N12003245WA0036900354
B1928394750150N12003244WA0036800354
B1928404750151N12003244WA0036800353
B1928414750152N12003242WA0036700353
B1928424750152N12003240WA0036700351
B1928434750152N12003236WA0036700351
B1928444750153N12003232WA0036600350
B1928454750153N12003227WA0036600349
B1928464750152N12003220WA0036600349
B1928474750151N12003213WA0036600349
B1928484750150N12003206WA0036600349
B1928494750150N12003197WA0036600349
B1928504750149N12003189WA0036600348
B1928514750149N12003180WA0036600348
B1928524750148N12003172WA0036600348
B1928534750147N12003163WA0036600348
B1928544750146N12003154WA0036600348
B1928554750145N12003144WA0036600348
B1928564750144N12003135WA0036600348
B1928574750143N12003125WA0036600347
B1928584750143N12003115WA0036600346
B1928594750142N12003105WA0036600345
B1929004750140N12003094WA0036600344
B1929014750139N12003084WA0036600343
B1929024750138N12003073WA0036600342
B1929034750137N12003063WA0036600342
B1929044750136N12003052WA0036600341
B1929054750135N12003042WA0036500340
B1929064750134N12003031WA0036500339
B1929074750133N12003021WA0036500338
B1929084750132N12003012WA0036500338
B1929094750131N12003002WA0036400337
B1929104750130N12002992WA0036400336
B1929114750129N12002982WA0036400336
B1929124750128N12002973WA0036400336
B1929134750127N12002963WA0036300335
B1929144750126N12002952WA0036300335
B1929154750125N12002942WA0036300334
B1929164750123N12002932WA0036200334
B1929174750122N12002922WA0036200334
B1929184750121N12002912WA0036100333
B1929194750120N12002901WA0036100332
B1929204750119N12002891WA0036000332
B1929214750118N12002881WA0036000332
B1929224750117N12002871WA0035900332
B1929234750116N12002860WA0035900331
B1929244750115N12002850WA0035900331
B1929254750114N12002839WA0035800331
B1929264750114N12002828WA0035800330
B1929274750112N12002817WA0035700330
B1929284750111N12002806WA0035700330
B1929294750109N12002795WA0035700330
B1929304750108N12002784WA0035600331
B1929314750106N12002773WA0035600331
B1929324750103N12002761WA0035600331
B1929334750101N12002750WA0035500331
B1929344750099N12002738WA0035500330
B1929354750097N12002727WA0035500330
B1929364750094N12002715WA0035500331
B1929374750092N12002703WA0035500331
B1929384750089N12002691WA0035500331
B1929394750087N12002678WA0035500331
B1929404750084N12002666WA0035500330
B1929414750082N12002653WA0035500331
B1929424750080N12002640WA0035500331
B1929434750078N12002628WA0035500331
B1929444750076N12002615WA0035500331
B1929454750074N12002602WA0035500331
B1929464750072N12002589WA0035500331
B1929474750071N12002576WA0035500332
B1929484750069N12002563WA0035500332
B1929494750067N12002550WA0035500332
B1929504750066N12002538WA0035500332
B1929514750064N12002525WA0035500332
B1929524750062N12002512WA0035500332
B1929534750061N12002499WA0035500332
B1929544750059N12002487WA0035500332
B1929554750058N12002474WA0035500332
B1929564750056N12002461WA0035500332
B1929574750055N12002448WA0035500332
B1929584750053N12002436WA0035500332
B1929594750052N12002423WA0035500332
B1930004750051N12002411WA0035500331
B1930014750050N12002400WA0035500331
B1930024750050N12002389WA0035500331
B1930034750050N12002378WA0035500330
B1930044750051N12002367WA0035500330
B1930054750053N12002357WA0035500330
B1930064750056N12002346WA0035500329
B1930074750059N12002337WA0035500329
B1930084750063N12002328WA0035500329
B1930094750067N12002321WA0035500329
B1930104750072N12002315WA0035500330
B1930114750078N12002309WA0035500331
B1930124750084N12002304WA0035500332
B1930134750091N12002300WA0035500332
B1930144750097N12002296WA0035500332
B1930154750103N12002292WA0035500332
B1930164750109N12002288WA0035400333
B1930174750115N12002283WA0035400333
B1930184750121N12002279WA0035400334
B1930194750127N12002274WA0035400334
B1930204750132N12002268WA0035400334
B1930214750137N12002261WA0035400334
B1930224750142N12002254WA0035400335
B1930234750146N12002246WA0035400335
B1930244750149N12002237WA0035400336
B1930254750152N12002229WA0035400335
B1930264750154N12002219WA0035400335
B1930274750155N12002210WA0035400336
B1930284750156N12002200WA0035400337
B1930294750156N12002190WA0035400337
B1930304750156N12002180WA0035400337
B1930314750155N12002170WA0035400337
B1930324750155N12002160WA0035400337
B1930334750153N12002150WA0035400338
B1930344750153N12002140WA0035400338
B1930354750152N12002129WA0035400337
B1930364750151N12002119WA0035400337
B1930374750150N12002108WA0035400337
B1930384750149N12002098WA0035400336
B1930394750149N12002087WA0035400337
B1930404750148N12002077WA0035400336
B1930414750148N12002066WA0035400336
B1930424750148N12002056WA0035400336
B1930434750148N12002045WA0035400336
B1930444750150N12002035WA0035400336
B1930454750152N12002024WA0035400336
B1930464750154N12002013WA0035400335
B1930474750156N12002003WA0035400335
B1930484750159N12001993WA0035500335
B1930494750163N12001983WA0035500335
B1930504750166N12001973WA0035500334
B1930514750170N12001963WA0035500334
B1930524750173N12001952WA0035500334
B1930534750177N12001942WA0035500334
B1930544750180N12001930WA0035600335
B1930554750182N12001919WA0035600335
B1930564750184N12001907WA0035600336
B1930574750185N12001894WA0035600336
B1930584750186N12001882WA0035700337
B1930594750185N12001869WA0035700337
B1931004750185N12001857WA0035700337
B1931014750184N12001845WA0035700337
B1931024750183N12001833WA0035700337
B1931034750183N12001820WA0035700338
B1931044750182N12001808WA0035800339
B1931054750181N12001796WA0035800339
B1931064750181N12001784WA0035800339
B1931074750180N12001772WA0035800340
B1931084750179N12001760WA0035800340
B1931094750179N12001748WA0035900341
B1931104750178N12001736WA0035900341
B1931114750177N12001724WA0035900340
B1931124750176N12001713WA0035900340
B1931134750176N12001701WA0035900340
B1931144750175N12001690WA0035900340
B1931154750174N12001679WA0035900340
B1931164750173N12001668WA0035900340
B1931174750173N12001657WA0035900340
B1931184750172N12001646WA0035900340
B1931194750171N12001635WA0035900340
B1931204750171N12001624WA0035900340
B1931214750170N12001614WA0035900340
B1931224750169N12001603WA0035800340
B1931234750169N12001592WA0035800341
B1931244750168N12001581WA0035800341
B1931254750167N12001569WA0035800341
B1931264750167N12001558WA0035800341
B1931274750166N12001547WA0035800342
B1931284750165N12001536WA0035700343
B1931294750165N12001525WA0035700344
B1931304750164N12001514WA0035700345
B1931314750164N12001503WA0035700345
B1931324750164N12001492WA0035700346
B1931334750163N12001482WA0035700346
B1931344750163N12001472WA0035700347
B1931354750162N12001461WA0035700348
B1931364750162N12001452WA0035800348
B1931374750161N12001442WA0035800348
B1931384750161N12001433WA0035800349
B1931394750160N12001423WA0035800349
B1931404750160N12001414WA0035900350
B1931414750159N12001405WA0035900350
B1931424750159N12001396WA0035900351
B1931434750159N12001387WA0036000351
B1931444750158N12001377WA0036000352
B1931454750158N12001367WA0036000351
B1931464750157N12001357WA0036100351
B1931474750156N12001347WA0036100351
B1931484750155N12001337WA0036100351
B1931494750155N12001327WA0036100351
B1931504750154N12001317WA0036200351
B1931514750153N12001308WA0036200351
B1931524750153N12001298WA0036200352
B1931534750153N12001288WA0036200353
B1931544750152N12001277WA0036300353
B1931554750152N12001267WA0036300352
B1931564750151N12001256WA0036300352
B1931574750150N12001246WA0036300352
B1931584750150N12001236WA0036300352
B1931594750149N12001226WA0036300352
B1932004750149N12001215WA0036300352
B1932014750148N12001205WA0036400351
B1932024750148N12001195WA0036400350
B1932034750147N12001185WA0036400350
B1932044750147N12001175WA0036400350
B1932054750146N12001166WA0036400351
B1932064750145N12001157WA0036400351
B1932074750145N12001147WA0036400350
B1932084750145N12001139WA0036400350
B1932094750144N12001130WA0036400350
B1932104750144N12001121WA0036400350
B1932114750143N12001112WA0036400350
B1932124750143N12001103WA0036300350
B1932134750143N12001094WA0036300350
B1932144750143N12001085WA0036300349
B1932154750143N12001076WA0036300349
B1932164750144N12001066WA0036300349
B1932174750146N12001057WA0036300348
B1932184750148N12001048WA0036300348
B1932194750151N12001038WA0036300348
B1932204750155N12001029WA0036300348
B1932214750158N12001019WA0036300348
B1932224750161N12001009WA0036200348
B1932234750165N12001000WA0036200347
B1932244750168N12000990WA0036200347
B1932254750172N12000981WA0036200347
B1932264750175N12000972WA0036200346
B1932274750178N12000963WA0036200346
B1932284750182N12000953WA0036100346
B1932294750185N12000944WA0036100346
B1932304750188N12000935WA0036100345
B1932314750191N12000926WA0036100345
B1932324750195N12000919WA0036100345
B1932334750200N12000912WA0036000345
B1932344750206N12000907WA0036000346
B1932354750212N12000904WA0036000345
B1932364750219N12000902WA0036000345
B1932374750226N12000901WA0036000345
B1932384750233N12000900WA0036000346
B1932394750241N12000899WA0036000346
B1932404750249N12000898WA0036000346
B1932414750256N12000898WA0036000347
B1932424750263N12000897WA0036000347
B1932434750270N12000897WA0035900348
B1932444750278N12000896WA0035900348
B1932454750285N12000896WA0035900348
B1932464750292N12000896WA0035900348
B1932474750300N12000896WA0035900348
B1932484750307N12000895WA0035900348
B1932494750314N12000894WA0035900348
B1932504750321N12000894WA0035900347
B1932514750328N12000893WA0035900347
B1932524750335N12000893WA0035900346
B1932534750342N12000892WA0035900345
B1932544750348N12000891WA0035900344
B1932554750354N12000891WA0035900344
B1932564750361N12000890WA0035900344
B1932574750367N12000889WA0035900344
B1932584750372N12000889WA0035900343
B1932594750377N12000888WA0035900344
B1933004750380N12000888WA0035900342
B1933014750382N12000887WA0035900341
B1933024750383N12000887WA0035900342
B1933034750383N12000886WA0035900341
B1933044750383N12000886WA0035900341
B1933054750384N12000886WA0035900341
B1933064750385N12000885WA0035900341
B1933074750387N12000884WA0035900341
B1933084750388N12000882WA0035900341
B1933094750389N12000878WA0035900341
B1933104750390N12000873WA0035900342
B1933114750390N12000867WA0035900343
B1933124750390N12000860WA0035900343
B1933134750390N12000852WA0035900343
B1933144750390N12000843WA0035900343
B1933154750389N12000834WA0035900343
B1933164750389N12000824WA0035900343
B1933174750389N12000814WA0035900343
B1933184750389N12000804WA0035900343
B1933194750389N12000793WA0036000343
B1933204750389N12000781WA0036000344
B1933214750389N12000769WA0036000344
B1933224750389N12000757WA0036000345
B1933234750388N12000745WA0036000345
B1933244750388N12000733WA0036000346
B1933254750388N12000720WA0036100347
B1933264750388N12000707WA0036100347
B1933274750387N12000694WA0036100348
B1933284750387N12000680WA0036200349
B1933294750387N12000666WA0036200349
B1933304750386N12000653WA0036200349
B1933314750386N12000639WA0036300349
B1933324750386N12000625WA0036300349
B1933334750385N12000611WA0036300350
B1933344750385N12000597WA0036400350
B1933354750385N12000584WA0036400350
B1933364750384N12000571WA0036500351
B1933374750384N12000558WA0036500352
B1933384750383N12000544WA0036600353
B1933394750383N12000531WA0036600354
B1933404750383N12000518WA0036700355
B1933414750382N12000505WA0036700356
B1933424750382N12000491WA0036800357
B1933434750382N12000477WA0036900357
B1933444750381N12000464WA0036900357
B1933454750381N12000450WA0037000357
B1933464750380N12000436WA0037100358
B1933474750380N12000422WA0037100358
B1933484750380N12000408WA0037200358
B1933494750379N12000394WA0037200359
B1933504750379N12000380WA0037300360
B1933514750379N12000366WA0037300360
B1933524750378N12000353WA0037400360
B1933534750378N12000339WA0037400361
B1933544750378N12000325WA0037500361
B1933554750377N12000312WA0037500361
B1933564750377N12000298WA0037600361
B1933574750376N12000285WA0037600361
B1933584750376N12000271WA0037700361
B1933594750376N12000258WA0037700361
B1934004750376N12000244WA0037800361
B1934014750375N12000230WA0037800361
B1934024750375N12000216WA0037800361
B1934034750375N12000202WA0037800361
B1934044750374N12000188WA0037900361
B1934054750374N12000173WA0037900360
B1934064750373N12000159WA0037900360
B1934074750373N12000145WA0037900360
B1934084750373N12000130WA0037900360
B1934094750372N12000115WA0037900361
B1934104750372N12000100WA0037900361
B1934114750371N12000085WA0038000361
B1934124750371N12000070WA0038000361
B1934134750370N12000055WA0038000361
B1934144750370N12000040WA0038000361
B1934154750369N12000025WA0038000361
B1934164750369N12000011WA0038000361
B1934174750369N11959997WA0038100361
B1934184750368N11959983WA0038100361
B1934194750367N11959969WA0038100361
B1934204750366N11959956WA0038100362
B1934214750365N11959942WA0038100362
B1934224750364N11959928WA0038100362
B1934234750362N11959914WA0038100363
B1934244750361N11959901WA0038200363
B1934254750359N11959887WA0038200364
B1934264750358N11959873WA0038200364
B1934274750356N11959859WA0038300365
B1934284750355N11959845WA0038300365
B1934294750354N11959831WA0038300366
B1934304750353N11959817WA0038400366
B1934314750351N11959803WA0038400367
B1934324750350N11959789WA0038400368
B1934334750349N11959774WA0038500369
B1934344750348N11959760WA0038500370
B1934354750347N11959745WA0038600371
B1934364750346N11959730WA0038600372
B1934374750345N11959715WA0038700372
B1934384750344N11959701WA0038800373
B1934394750343N11959686WA0038800374
B1934404750342N11959671WA0038900375
B1934414750341N11959657WA0039000376
B1934424750339N11959642WA0039000378
B1934434750338N11959628WA0039100379
B1934444750337N11959614WA0039200380
B1934454750337N11959600WA0039300381
B1934464750337N11959587WA0039400382
B1934474750338N11959573WA0039400383
B1934484750339N11959560WA0039500383
B1934494750340N11959547WA0039600384
B1934504750342N11959533WA0039700385
B1934514750345N11959521WA0039700386
B1934524750347N11959509WA0039800386
B1934534750350N11959497WA0039900387
B1934544750354N11959486WA0040000387
B1934554750357N11959476WA0040000388
B1934564750361N11959465WA0040100388
B1934574750365N11959455WA0040100389
B1934584750370N11959445WA0040200389
B1934594750375N11959435WA0040200389
B1935004750381N11959425WA0040200389
B1935014750386N11959415WA0040300389
B1935024750393N11959405WA0040300389
B1935034750399N11959396WA0040300390
B1935044750405N11959387WA0040400390
B1935054750412N11959378WA0040400390
B1935064750418N11959368WA0040500391
B1935074750424N11959359WA0040500391
B1935084750429N11959349WA0040500392
B1935094750434N11959338WA0040600392
B1935104750439N11959327WA0040600392
B1935114750444N11959316WA0040600393
B1935124750448N11959304WA0040700393
B1935134750451N11959292WA0040700393
B1935144750455N11959280WA0040700393
B1935154750459N11959268WA0040700393
B1935164750463N11959256WA0040800392
B1935174750466N11959244WA0040800392
B1935184750469N11959233WA0040800392
B1935194750472N11959221WA0040800392
B1935204750475N11959210WA0040800393
B1935214750478N11959201WA0040800392
B1935224750480N11959192WA0040800393
B1935234750481N11959184WA0040800393
B1935244750481N11959176WA0040800393
B1935254750480N11959171WA0040800394
B1935264750478N11959166WA0040800393
B1935274750474N11959164WA0040800394
B1935284750470N11959163WA0040800393
B1935294750465N11959163WA0040800393
B1935304750460N11959162WA0040800393
B1935314750454N11959162WA0040800393
B1935324750449N11959160WA0040800393
B1935334750444N11959157WA0040800393
B1935344750440N11959153WA0040800393
B1935354750437N11959147WA0040800393
B1935364750434N11959140WA0040800393
B1935374750433N11959133WA0040800394
B1935384750432N11959125WA0040800394
B1935394750432N11959117WA0040800394
B1935404750431N11959109WA0040800395
B1935414750429N11959102WA0040800396
B1935424750427N11959095WA0040900396
B1935434750424N11959088WA0040900397
B1935444750420N11959082WA0040900398
B1935454750415N11959076WA0040900398
B1935464750410N11959072WA0041000399
B1935474750405N11959068WA0041000399
B1935484750399N11959064WA0041000400
B1935494750393N11959061WA0041100399
B1935504750387N11959058WA0041100399
B1935514750382N11959055WA0041100400
B1935524750376N11959052WA0041200400
B1935534750370N11959049WA0041200399
B1935544750365N11959044WA0041200399
B1935554750359N11959040WA0041200399
B1935564750354N11959036WA0041200399
B1935574750349N11959031WA0041200399
B1935584750343N11959026WA0041200398
B1935594750338N11959021WA0041200397
B1936004750332N11959016WA0041200398
B1936014750327N11959010WA0041200397
B1936024750322N11959004WA0041200398
B1936034750317N11958998WA0041200398
B1936044750313N11958993WA0041200398
B1936054750308N11958987WA0041200399
B1936064750304N11958981WA0041200399
B1936074750301N11958976WA0041200399
B1936084750297N11958969WA0041200398
B1936094750294N11958963WA0041200398
B1936104750290N11958957WA0041200398
B1936114750286N11958952WA0041200397
B1936124750282N11958948WA0041200397
B1936134750278N11958946WA0041200397
B1936144750273N11958945WA0041200397
B1936154750269N11958946WA0041200397
B1936164750265N11958948WA0041200397
B1936174750261N11958951WA0041200397
B1936184750257N11958954WA0041200396
B1936194750253N11958959WA0041200396
B1936204750249N11958963WA0041200395
B1936214750245N11958966WA0041200394
B1936224750241N11958969WA0041200393
B1936234750238N11958971WA0041200392
B1936244750234N11958973WA0041100391
B1936254750230N11958973WA0041100390
B1936264750227N11958972WA0041000389
B1936274750225N11958969WA0041000388
B1936284750223N11958965WA0040900386
B1936294750222N11958960WA0040900385
B1936304750222N11958955WA0040800385
B1936314750222N11958950WA0040800385
B1936324750222N11958944WA0040800385
B1936334750221N11958940WA0040700385
B1936344750221N11958936WA0040700385
B1936354750220N11958932WA0040700385
B1936364750219N11958930WA0040600385
B1936374750218N11958929WA0040600385
B1936384750216N11958927WA0040600385
B1936394750214N11958926WA0040600385
B1936404750213N11958925WA0040600386
B1936414750211N11958924WA0040500386
B1936424750210N11958923WA0040500386
B1936434750208N11958922WA0040500385
B1936444750207N11958921WA0040500385
B1936454750207N11958920WA0040500384
B1936464750207N11958918WA0040500384
B1936474750207N11958917WA0040500384
B1936484750208N11958915WA0040500385
B1936494750208N11958914WA0040400385
B1936504750208N11958913WA0040400384
B1936514750208N11958911WA0040400384
B1936524750208N11958911WA0040400383
B1936534750208N11958912WA0040400384
B1936544750208N11958912WA0040400384
B1936554750208N11958913WA0040400385
B1936564750208N11958914WA0040400385
B1936574750208N11958914WA0040400385
B1936584750208N11958914WA0040400386
B1936594750208N11958914WA0040400386
B1937004750208N11958914WA0040400386
B1937014750208N11958914WA0040400385
B1937024750207N11958914WA0040400385
B1937034750207N11958914WA0040400384
B1937044750207N11958915WA0040400385
B1937054750207N11958915WA0040400384
B1937064750207N11958915WA0040400383
B1937074750208N11958915WA0040400383
B1937084750208N11958915WA0040400383
B1937094750208N11958915WA0040400382
B1937104750207N11958916WA0040400382
B1937114750207N11958916WA0040400382
B1937124750206N11958916WA0040400382
B1937134750206N11958916WA0040400383
B1937144750205N11958916WA0040400383
B1937154750204N11958917WA0040400384
B1937164750204N11958918WA0040400384
B1937174750203N11958918WA0040400384
B1937184750203N11958918WA0040400384
B1937194750202N11958919WA0040400385
B1937204750202N11958920WA0040400385
B1937214750201N11958920WA0040400385
B1937224750201N11958921WA0040400386
B1937234750200N11958921WA0040400386
B1937244750200N11958921WA0040400387
B1937254750199N11958921WA0040400387
B1937264750199N11958921WA0040400387
B1937274750199N11958921WA0040400388
B1937284750198N11958920WA0040400388
B1937294750198N11958920WA0040300389
B1937304750197N11958919WA0040300389
B1937314750197N11958919WA0040300389
B1937324750197N11958918WA0040300389
B1937334750196N11958917WA0040300389
B1937344750195N11958917WA0040300389
B1937354750195N11958916WA0040300388
B1937364750194N11958916WA0040300388
B1937374750193N11958915WA0040300388
B1937384750192N11958915WA0040300388
B1937394750192N11958915WA0040300388
B1937404750191N11958915WA0040300388
B1937414750191N11958914WA0040300388
B1937424750190N11958914WA0040300389
B1937434750190N11958914WA0040300390
B1937444750189N11958913WA0040300390
B1937454750189N11958913WA0040300389
B1937464750188N11958913WA0040300389
B1937474750188N11958913WA0040300389
B1937484750188N11958913WA0040300388
B1937494750188N11958913WA0040300388
B1937504750187N11958912WA0040300388
B1937514750187N11958912WA0040300388
B1937524750187N11958912WA0040300388
B1937534750187N11958912WA0040300388
B1937544750187N11958912WA0040300388
B1937554750187N11958912WA0040300388
B1937564750187N11958911WA0040300388
B1937574750187N11958911WA0040300388
B1937584750187N11958911WA0040300388
B1937594750187N11958911WA0040300388
B1938004750187N11958911WA0040300388
B1938014750187N11958911WA0040300388
B1938024750187N11958911WA0040300388
B1938034750187N11958911WA0040300388
B1938044750186N11958910WA0040300387
B1938054750186N11958910WA0040300388
B1938064750186N11958910WA0040300387
B1938074750186N11958910WA0040300387
B1938084750186N11958910WA0040200386
B1938094750186N11958910WA0040200386
B1938104750186N11958910WA0040200386
B1938114750186N11958910WA0040200386
B1938124750186N11958910WA0040200385
B1938134750186N11958910WA0040200385
B1938144750186N11958910WA0040200385
B1938154750186N11958910WA0040200385
B1938164750186N11958910WA0040200385
B1938174750186N11958910WA0040200385
B1938184750186N11958910WA0040200385
B1938194750186N11958910WA0040200385
B1938204750186N11958910WA0040200384
B1938214750186N11958910WA0040200384
B1938224750186N11958910WA0040200384
B1938234750186N11958910WA0040200384
B1938244750186N11958910WA0040200384
B1938254750185N11958910WA0040200384
B1938264750185N11958910WA0040200384
B1938274750185N11958911WA0040200384
B1938284750185N11958911WA0040200383
B1938294750185N11958911WA0040200383
B1938304750185N11958911WA0040200383
B1938314750185N11958911WA0040200383
B1938324750185N11958911WA0040200383
B1938334750185N11958911WA0040200383
B1938344750185N11958911WA0040200383
B1938354750185N11958911WA0040200383
B1938364750185N11958911WA0040200383
B1938374750185N11958911WA0040200383
B1938384750185N11958911WA0040200383
B1938394750185N11958911WA0040200383
B1938404750185N11958911WA0040200383
B1938414750185N11958911WA0040200383
B1938424750185N11958911WA0040200383
B1938434750185N11958911WA0040200383
B1938444750185N11958911WA0040200383
B1938454750185N11958911WA0040200383
B1938464750185N11958911WA0040200383
B1938474750185N11958911WA0040200383
B1938484750185N11958911WA0040200383
B1938494750185N11958911WA0040200383
B1938504750185N11958911WA0040200383
B1938514750185N11958911WA0040200383
B1938524750185N11958911WA0040200383
B1938534750185N11958911WA0040200383
B1938544750185N11958911WA0040200383
B1938554750185N11958911WA0040200383
B1938564750185N11958911WA0040200383
B1938574750185N11958911WA0040200383
B1938584750185N11958911WA0040200383
B1938594750185N11958911WA0040200382
B1939004750185N11958911WA0040200382
B1939014750185N11958911WA0040200382
B1939024750185N11958911WA0040200382
B1939034750185N11958911WA0040200382
B1939044750185N11958911WA0040200382
B1939054750185N11958911WA0040200382
B1939064750185N11958910WA0040200382
B1939074750185N11958910WA0040200382
B1939084750185N11958910WA0040200381
B1939094750185N11958910WA0040200381
B1939104750185N11958910WA0040200381
B1939114750185N11958910WA0040200381
B1939124750185N11958910WA0040200381
B1939134750185N11958910WA0040200381
B1939144750185N11958910WA0040200381
B1939154750185N11958910WA0040200381
B1939164750185N11958910WA0040200381
B1939174750185N11958910WA0040200381
B1939184750185N11958910WA0040200381
B1939194750185N11958910WA0040200381
B1939204750185N11958910WA0040200381
B1939214750185N11958910WA0040200381
B1939224750185N11958910WA0040200381
B1939234750185N11958910WA0040200381
B1939244750185N11958910WA0040200381
B1939254750185N11958910WA0040200381
B1939264750185N11958910WA0040200381
B1939274750185N11958910WA0040200381
B1939284750185N11958910WA0040200381
B1939294750185N11958910WA0040200381
B1939304750185N11958910WA0040200381
B1939314750185N11958910WA0040200381
B1939324750185N11958910WA0040200381
B1939334750185N11958910WA0040200381
B1939344750185N11958910WA0040200381
B1939354750185N11958910WA0040200381
B1939364750185N11958910WA0040200381
B1939374750185N11958910WA0040200381
B1939384750185N11958910WA0040200381
B1939394750185N11958910WA0040200381
B1939404750185N11958910WA0040200381
B1939414750185N11958909WA0040300381
B1939424750185N11958909WA0040300381
B1939434750185N11958909WA0040300381
B1939444750185N11958909WA0040300381
B1939454750185N11958909WA0040300381
B1939464750185N11958909WA0040300382
B1939474750185N11958909WA0040300382
B1939484750185N11958909WA0040300382
B1939494750185N11958909WA0040300381
B1939504750185N11958909WA0040300382
B1939514750185N11958909WA0040200382
B1939524750185N11958909WA0040200382
B1939534750185N11958909WA0040200382
B1939544750185N11958909WA0040200381
B1939554750185N11958909WA0040200381
B1939564750185N11958909WA0040200381
B1939574750185N11958909WA0040200381
B1939584750185N11958909WA0040200381
B1939594750185N11958909WA0040300381
B1940004750185N11958909WA0040300381
B1940014750185N11958909WA0040300381
LXFM live.flymaster.net version 1.01
LXFM Created 2025-06-26 23:39:27
LXFM flight id 1616569
GD841B31DB7F3DEB0EA0075E7B4B339B0
