AXFMSFP Flymaster Live, V1.0, S/N 486291
HFFXA010
HFPLTPILOT:Greg Giacovelli
HFGTYGLIDERTYPE: 
HFGIDGLIDERID:
HFDTM100GPSDATUM:WGS-1984
HFCIDCOMPETITIONID:1232
HFCCLCOMPETITIONCLASS:
HOSITSITE:Chelan Butte-US
HFGPS:UBLOXNEO6
HFPRSPRESSALTSENSOR:NA
HFRFWFIRMWAREVERSION:203f
HFRHWHARDWAREVERSION:1.0R2
HFFTYFRTYPE:FLYMASTER,LIVE
HFDTE220625
B1908294748290N12002309WA0104101131
B1908304748292N12002307WA0104101131
B1908314748294N12002305WA0104101131
B1908324748296N12002301WA0104101130
B1908334748299N12002298WA0104101129
B1908344748301N12002294WA0104101128
B1908354748304N12002289WA0104101127
B1908364748307N12002285WA0104101127
B1908374748310N12002282WA0104101127
B1908384748312N12002278WA0104101126
B1908394748315N12002276WA0104101126
B1908404748317N12002273WA0104001126
B1908414748319N12002271WA0104001126
B1908424748321N12002268WA0104001126
B1908434748323N12002265WA0104001126
B1908444748325N12002262WA0104001125
B1908454748327N12002260WA0104001125
B1908464748329N12002258WA0104001125
B1908474748330N12002256WA0104001125
B1908484748332N12002255WA0104001125
B1908494748333N12002255WA0104001125
B1908504748334N12002255WA0104001125
B1908514748334N12002256WA0104001124
B1908524748335N12002256WA0104001124
B1908534748336N12002257WA0104001124
B1908544748337N12002259WA0104001123
B1908554748338N12002262WA0104001123
B1908564748339N12002264WA0104001123
B1908574748339N12002267WA0104001123
B1908584748340N12002269WA0104001122
B1908594748340N12002272WA0103901122
B1909004748341N12002273WA0103901122
B1909014748341N12002275WA0103901121
B1909024748341N12002276WA0103901121
B1909034748341N12002278WA0103901121
B1909044748341N12002279WA0103901120
B1909054748341N12002281WA0103801119
B1909064748342N12002284WA0103801119
B1909074748342N12002286WA0103801118
B1909084748342N12002290WA0103801117
B1909094748342N12002293WA0103801116
B1909104748342N12002297WA0103801115
B1909114748342N12002300WA0103701115
B1909124748343N12002304WA0103701114
B1909134748343N12002308WA0103701113
B1909144748343N12002311WA0103701113
B1909154748343N12002315WA0103701112
B1909164748343N12002319WA0103601111
B1909174748342N12002323WA0103601111
B1909184748342N12002327WA0103601110
B1909194748341N12002330WA0103601109
B1909204748341N12002334WA0103601108
B1909214748340N12002337WA0103501108
B1909224748339N12002340WA0103501107
B1909234748338N12002343WA0103501106
B1909244748337N12002346WA0103501106
B1909254748336N12002348WA0103401105
B1909264748335N12002351WA0103401104
B1909274748334N12002353WA0103401103
B1909284748333N12002356WA0103401103
B1909294748332N12002358WA0103401102
B1909304748330N12002361WA0103401102
B1909314748329N12002364WA0103301101
B1909324748327N12002368WA0103301101
B1909334748326N12002371WA0103301100
B1909344748324N12002375WA0103301099
B1909354748323N12002378WA0103301098
B1909364748321N12002382WA0103201098
B1909374748320N12002386WA0103201097
B1909384748318N12002390WA0103201096
B1909394748317N12002394WA0103201096
B1909404748315N12002398WA0103201095
B1909414748314N12002402WA0103201094
B1909424748313N12002406WA0103101093
B1909434748311N12002411WA0103101092
B1909444748310N12002415WA0103101091
B1909454748309N12002419WA0103001090
B1909464748308N12002423WA0103001089
B1909474748308N12002427WA0103001089
B1909484748307N12002431WA0103001088
B1909494748307N12002435WA0102901087
B1909504748307N12002440WA0102901087
B1909514748308N12002444WA0102901085
B1909524748308N12002449WA0102901085
B1909534748308N12002453WA0102801084
B1909544748307N12002458WA0102801083
B1909554748307N12002462WA0102801083
B1909564748306N12002467WA0102701082
B1909574748305N12002471WA0102701081
B1909584748303N12002475WA0102701080
B1909594748302N12002479WA0102601079
B1910004748301N12002484WA0102601078
B1910014748300N12002488WA0102601077
B1910024748299N12002493WA0102501076
B1910034748298N12002497WA0102501075
B1910044748298N12002502WA0102501075
B1910054748298N12002507WA0102401074
B1910064748298N12002512WA0102401073
B1910074748299N12002517WA0102401072
B1910084748300N12002521WA0102301072
B1910094748302N12002525WA0102301071
B1910104748304N12002529WA0102201070
B1910114748305N12002533WA0102201069
B1910124748307N12002538WA0102201068
B1910134748307N12002542WA0102101066
B1910144748308N12002547WA0102101065
B1910154748307N12002552WA0102001064
B1910164748306N12002556WA0102001063
B1910174748305N12002561WA0102001061
B1910184748303N12002566WA0101901060
B1910194748301N12002571WA0101901059
B1910204748300N12002576WA0101901058
B1910214748298N12002581WA0101801057
B1910224748297N12002586WA0101801056
B1910234748296N12002591WA0101701056
B1910244748296N12002597WA0101701055
B1910254748296N12002602WA0101701054
B1910264748296N12002608WA0101601053
B1910274748298N12002613WA0101601051
B1910284748299N12002618WA0101501051
B1910294748300N12002623WA0101501050
B1910304748301N12002628WA0101501049
B1910314748300N12002633WA0101401048
B1910324748300N12002637WA0101401046
B1910334748299N12002642WA0101301045
B1910344748297N12002646WA0101301044
B1910354748295N12002650WA0101201043
B1910364748293N12002655WA0101201042
B1910374748292N12002659WA0101101041
B1910384748290N12002664WA0101101040
B1910394748288N12002669WA0101101039
B1910404748286N12002674WA0101001038
B1910414748285N12002680WA0101001037
B1910424748285N12002687WA0100901035
B1910434748285N12002693WA0100901035
B1910444748285N12002699WA0100901034
B1910454748286N12002705WA0100801033
B1910464748285N12002710WA0100801032
B1910474748285N12002716WA0100701032
B1910484748283N12002721WA0100701031
B1910494748281N12002725WA0100601030
B1910504748279N12002730WA0100601029
B1910514748277N12002734WA0100501028
B1910524748275N12002738WA0100501028
B1910534748273N12002743WA0100501027
B1910544748270N12002748WA0100401026
B1910554748268N12002753WA0100401025
B1910564748266N12002758WA0100401024
B1910574748264N12002763WA0100301024
B1910584748263N12002768WA0100301024
B1910594748261N12002773WA0100301023
B1911004748260N12002777WA0100201023
B1911014748258N12002781WA0100201023
B1911024748256N12002783WA0100201023
B1911034748255N12002784WA0100101023
B1911044748253N12002785WA0100101022
B1911054748252N12002785WA0100101022
B1911064748251N12002786WA0100101022
B1911074748251N12002786WA0100001022
B1911084748250N12002787WA0100001022
B1911094748249N12002787WA0100001022
B1911104748248N12002789WA0100001022
B1911114748248N12002791WA0099901022
B1911124748248N12002793WA0099901021
B1911134748248N12002795WA0099901021
B1911144748248N12002798WA0099901021
B1911154748249N12002799WA0099801020
B1911164748250N12002801WA0099801019
B1911174748251N12002802WA0099801019
B1911184748252N12002803WA0099801018
B1911194748253N12002804WA0099701018
B1911204748254N12002804WA0099701018
B1911214748255N12002804WA0099701017
B1911224748256N12002804WA0099701017
B1911234748257N12002804WA0099601016
B1911244748258N12002804WA0099601016
B1911254748259N12002804WA0099601016
B1911264748260N12002804WA0099601015
B1911274748262N12002804WA0099501015
B1911284748263N12002803WA0099501014
B1911294748265N12002803WA0099501014
B1911304748266N12002802WA0099501014
B1911314748267N12002800WA0099401013
B1911324748269N12002798WA0099401013
B1911334748270N12002796WA0099401013
B1911344748271N12002793WA0099401013
B1911354748272N12002791WA0099301012
B1911364748274N12002789WA0099301012
B1911374748275N12002786WA0099301011
B1911384748276N12002784WA0099201011
B1911394748277N12002781WA0099201010
B1911404748278N12002779WA0099201009
B1911414748280N12002777WA0099101009
B1911424748281N12002774WA0099101008
B1911434748282N12002772WA0099101008
B1911444748284N12002770WA0099001007
B1911454748286N12002768WA0099001006
B1911464748288N12002766WA0099001006
B1911474748291N12002764WA0098901005
B1911484748293N12002763WA0098901004
B1911494748296N12002762WA0098901003
B1911504748299N12002760WA0098901002
B1911514748302N12002759WA0098801002
B1911524748304N12002758WA0098801001
B1911534748307N12002757WA0098701000
B1911544748309N12002756WA0098700999
B1911554748311N12002753WA0098700998
B1911564748313N12002751WA0098600997
B1911574748315N12002748WA0098600997
B1911584748317N12002744WA0098600996
B1911594748319N12002741WA0098500995
B1912004748320N12002737WA0098500993
B1912014748322N12002734WA0098400993
B1912024748324N12002730WA0098400992
B1912034748325N12002727WA0098300991
B1912044748326N12002724WA0098300990
B1912054748328N12002722WA0098300990
B1912064748330N12002720WA0098200989
B1912074748333N12002719WA0098200989
B1912084748335N12002717WA0098200988
B1912094748338N12002716WA0098100988
B1912104748341N12002716WA0098100987
B1912114748344N12002715WA0098000986
B1912124748347N12002714WA0098000985
B1912134748350N12002714WA0098000984
B1912144748353N12002713WA0097900984
B1912154748355N12002713WA0097900983
B1912164748358N12002711WA0097900982
B1912174748361N12002710WA0097800981
B1912184748363N12002708WA0097800981
B1912194748366N12002705WA0097700980
B1912204748368N12002703WA0097700979
B1912214748370N12002700WA0097600978
B1912224748373N12002697WA0097600976
B1912234748375N12002694WA0097500975
B1912244748377N12002692WA0097500974
B1912254748379N12002689WA0097400974
B1912264748381N12002686WA0097400973
B1912274748383N12002683WA0097300972
B1912284748385N12002680WA0097200971
B1912294748387N12002677WA0097200970
B1912304748389N12002675WA0097100969
B1912314748391N12002674WA0097000969
B1912324748394N12002674WA0097000968
B1912334748397N12002674WA0096900968
B1912344748400N12002675WA0096900967
B1912354748404N12002675WA0096800966
B1912364748406N12002676WA0096800966
B1912374748409N12002677WA0096800966
B1912384748412N12002678WA0096700965
B1912394748414N12002679WA0096700965
B1912404748417N12002679WA0096700964
B1912414748419N12002679WA0096600964
B1912424748420N12002679WA0096600964
B1912434748421N12002679WA0096500964
B1912444748422N12002679WA0096500964
B1912454748424N12002679WA0096400963
B1912464748425N12002680WA0096400962
B1912474748427N12002681WA0096400962
B1912484748428N12002683WA0096400961
B1912494748429N12002686WA0096300961
B1912504748429N12002689WA0096300960
B1912514748429N12002691WA0096300960
B1912524748428N12002694WA0096300959
B1912534748427N12002696WA0096300959
B1912544748425N12002698WA0096200958
B1912554748423N12002699WA0096200958
B1912564748421N12002699WA0096200957
B1912574748418N12002699WA0096200957
B1912584748415N12002699WA0096200956
B1912594748413N12002698WA0096200956
B1913004748410N12002697WA0096200955
B1913014748408N12002697WA0096100954
B1913024748406N12002696WA0096100954
B1913034748405N12002695WA0096100953
B1913044748403N12002695WA0096000953
B1913054748401N12002694WA0096000953
B1913064748399N12002695WA0096000952
B1913074748397N12002698WA0096000952
B1913084748396N12002701WA0095900952
B1913094748395N12002705WA0095900952
B1913104748394N12002709WA0095900951
B1913114748393N12002714WA0095800950
B1913124748392N12002719WA0095800949
B1913134748391N12002724WA0095800948
B1913144748390N12002729WA0095700947
B1913154748389N12002735WA0095700946
B1913164748388N12002740WA0095600945
B1913174748387N12002745WA0095600944
B1913184748385N12002750WA0095600944
B1913194748383N12002753WA0095500944
B1913204748380N12002756WA0095500942
B1913214748378N12002759WA0095400941
B1913224748375N12002761WA0095400940
B1913234748373N12002763WA0095300939
B1913244748371N12002766WA0095200938
B1913254748370N12002769WA0095200937
B1913264748369N12002774WA0095200937
B1913274748369N12002779WA0095100936
B1913284748368N12002783WA0095100935
B1913294748367N12002788WA0095000934
B1913304748366N12002792WA0095000933
B1913314748364N12002796WA0095000932
B1913324748362N12002800WA0094900931
B1913334748361N12002804WA0094900931
B1913344748360N12002809WA0094800930
B1913354748360N12002812WA0094800929
B1913364748360N12002816WA0094800929
B1913374748361N12002819WA0094700928
B1913384748361N12002822WA0094700927
B1913394748361N12002825WA0094600926
B1913404748361N12002827WA0094600926
B1913414748361N12002830WA0094600925
B1913424748361N12002833WA0094600925
B1913434748361N12002836WA0094500924
B1913444748362N12002840WA0094500923
B1913454748363N12002843WA0094500923
B1913464748364N12002847WA0094400922
B1913474748366N12002851WA0094400921
B1913484748367N12002854WA0094400921
B1913494748368N12002858WA0094300921
B1913504748369N12002862WA0094300920
B1913514748370N12002866WA0094300919
B1913524748371N12002870WA0094300918
B1913534748373N12002874WA0094300917
B1913544748374N12002879WA0094200917
B1913554748376N12002883WA0094200916
B1913564748378N12002888WA0094200915
B1913574748380N12002892WA0094100914
B1913584748382N12002896WA0094100913
B1913594748384N12002900WA0094100913
B1914004748385N12002904WA0094100913
B1914014748387N12002907WA0094000912
B1914024748389N12002911WA0094000911
B1914034748390N12002915WA0093900910
B1914044748392N12002919WA0093900909
B1914054748394N12002922WA0093800908
B1914064748395N12002926WA0093800908
B1914074748397N12002930WA0093700907
B1914084748398N12002934WA0093700906
B1914094748399N12002938WA0093700905
B1914104748400N12002942WA0093600904
B1914114748402N12002947WA0093600903
B1914124748403N12002951WA0093500901
B1914134748404N12002956WA0093500900
B1914144748406N12002960WA0093400899
B1914154748408N12002964WA0093400898
B1914164748409N12002968WA0093300897
B1914174748410N12002972WA0093300896
B1914184748411N12002977WA0093300895
B1914194748412N12002981WA0093200895
B1914204748412N12002986WA0093200893
B1914214748412N12002991WA0093100892
B1914224748412N12002996WA0093100891
B1914234748411N12003002WA0093000890
B1914244748412N12003008WA0093000889
B1914254748413N12003013WA0092900888
B1914264748415N12003018WA0092900887
B1914274748418N12003022WA0092900886
B1914284748421N12003026WA0092800884
B1914294748424N12003030WA0092800883
B1914304748428N12003033WA0092700883
B1914314748431N12003037WA0092600881
B1914324748434N12003042WA0092600880
B1914334748437N12003047WA0092500878
B1914344748440N12003051WA0092500877
B1914354748444N12003055WA0092400876
B1914364748449N12003058WA0092400875
B1914374748453N12003061WA0092300875
B1914384748458N12003063WA0092300874
B1914394748463N12003066WA0092200872
B1914404748468N12003068WA0092200871
B1914414748473N12003071WA0092100871
B1914424748477N12003074WA0092100870
B1914434748482N12003077WA0092000869
B1914444748486N12003081WA0092000868
B1914454748490N12003085WA0091900868
B1914464748494N12003090WA0091900867
B1914474748498N12003095WA0091800867
B1914484748502N12003099WA0091800866
B1914494748505N12003104WA0091800866
B1914504748508N12003109WA0091700865
B1914514748511N12003114WA0091700865
B1914524748514N12003118WA0091600864
B1914534748517N12003123WA0091500863
B1914544748520N12003127WA0091500862
B1914554748522N12003132WA0091400862
B1914564748525N12003136WA0091400860
B1914574748527N12003140WA0091300860
B1914584748529N12003144WA0091200859
B1914594748531N12003148WA0091200858
B1915004748533N12003152WA0091100857
B1915014748535N12003156WA0091100856
B1915024748538N12003160WA0091000855
B1915034748540N12003164WA0091000855
B1915044748543N12003168WA0090900854
B1915054748546N12003171WA0090900853
B1915064748549N12003174WA0090800853
B1915074748553N12003176WA0090800852
B1915084748556N12003178WA0090700852
B1915094748561N12003178WA0090700852
B1915104748565N12003179WA0090600852
B1915114748570N12003179WA0090600851
B1915124748574N12003179WA0090600851
B1915134748578N12003180WA0090500851
B1915144748583N12003181WA0090500851
B1915154748587N12003182WA0090500851
B1915164748591N12003185WA0090400850
B1915174748595N12003188WA0090400850
B1915184748599N12003192WA0090400851
B1915194748603N12003195WA0090300850
B1915204748607N12003198WA0090300850
B1915214748612N12003200WA0090300850
B1915224748617N12003201WA0090300850
B1915234748622N12003202WA0090200849
B1915244748627N12003203WA0090200849
B1915254748632N12003204WA0090200849
B1915264748637N12003205WA0090200849
B1915274748642N12003206WA0090100849
B1915284748647N12003208WA0090100849
B1915294748652N12003211WA0090000848
B1915304748656N12003214WA0090000847
B1915314748661N12003218WA0090000845
B1915324748665N12003222WA0089900844
B1915334748670N12003225WA0089900843
B1915344748676N12003228WA0089900842
B1915354748681N12003230WA0089800842
B1915364748686N12003232WA0089800841
B1915374748692N12003234WA0089700841
B1915384748698N12003234WA0089700840
B1915394748704N12003235WA0089600839
B1915404748709N12003235WA0089600838
B1915414748715N12003235WA0089500837
B1915424748722N12003235WA0089500836
B1915434748728N12003235WA0089400835
B1915444748734N12003235WA0089400834
B1915454748740N12003235WA0089300833
B1915464748746N12003234WA0089300832
B1915474748752N12003234WA0089200831
B1915484748757N12003234WA0089100829
B1915494748763N12003234WA0089100828
B1915504748768N12003233WA0089000827
B1915514748773N12003233WA0088900825
B1915524748778N12003233WA0088900824
B1915534748783N12003234WA0088800823
B1915544748787N12003234WA0088700823
B1915554748791N12003234WA0088600822
B1915564748794N12003235WA0088600821
B1915574748798N12003234WA0088500821
B1915584748801N12003233WA0088500820
B1915594748804N12003230WA0088400820
B1916004748806N12003227WA0088400819
B1916014748807N12003224WA0088300819
B1916024748809N12003221WA0088300819
B1916034748810N12003217WA0088300819
B1916044748811N12003213WA0088200819
B1916054748812N12003209WA0088200819
B1916064748813N12003204WA0088200818
B1916074748812N12003200WA0088100818
B1916084748812N12003195WA0088100817
B1916094748810N12003191WA0088000817
B1916104748808N12003187WA0088000816
B1916114748806N12003183WA0088000815
B1916124748804N12003179WA0087900815
B1916134748801N12003176WA0087900814
B1916144748798N12003174WA0087800814
B1916154748795N12003171WA0087800813
B1916164748793N12003169WA0087800813
B1916174748790N12003168WA0087700812
B1916184748787N12003166WA0087700811
B1916194748784N12003163WA0087600810
B1916204748781N12003160WA0087600810
B1916214748779N12003157WA0087600809
B1916224748776N12003153WA0087500809
B1916234748774N12003149WA0087500808
B1916244748771N12003145WA0087500807
B1916254748770N12003140WA0087400805
B1916264748769N12003135WA0087400804
B1916274748769N12003130WA0087300805
B1916284748770N12003124WA0087200804
B1916294748771N12003118WA0087200804
B1916304748772N12003113WA0087100803
B1916314748771N12003107WA0087000802
B1916324748770N12003102WA0087000802
B1916334748767N12003098WA0086900801
B1916344748764N12003095WA0086900800
B1916354748761N12003092WA0086800800
B1916364748757N12003090WA0086700799
B1916374748753N12003088WA0086700798
B1916384748749N12003087WA0086600798
B1916394748745N12003086WA0086600797
B1916404748741N12003086WA0086500796
B1916414748736N12003086WA0086500795
B1916424748732N12003086WA0086400794
B1916434748727N12003086WA0086300793
B1916444748723N12003085WA0086300792
B1916454748718N12003084WA0086200792
B1916464748714N12003083WA0086200791
B1916474748710N12003083WA0086200791
B1916484748706N12003083WA0086100790
B1916494748701N12003084WA0086100789
B1916504748697N12003084WA0086000789
B1916514748693N12003083WA0086000789
B1916524748689N12003082WA0085900788
B1916534748685N12003082WA0085900788
B1916544748681N12003082WA0085900788
B1916554748678N12003083WA0085800787
B1916564748675N12003083WA0085800786
B1916574748672N12003083WA0085700786
B1916584748669N12003082WA0085700785
B1916594748667N12003081WA0085600785
B1917004748664N12003081WA0085600785
B1917014748662N12003082WA0085500784
B1917024748659N12003082WA0085500783
B1917034748657N12003083WA0085400782
B1917044748654N12003083WA0085400781
B1917054748651N12003082WA0085300780
B1917064748648N12003081WA0085300779
B1917074748645N12003080WA0085200779
B1917084748643N12003078WA0085200778
B1917094748640N12003076WA0085100777
B1917104748638N12003072WA0085100776
B1917114748635N12003068WA0085000775
B1917124748635N12003064WA0085000774
B1917134748634N12003060WA0084900773
B1917144748633N12003055WA0084900772
B1917154748633N12003052WA0084800771
B1917164748633N12003047WA0084700770
B1917174748632N12003044WA0084700769
B1917184748632N12003040WA0084600767
B1917194748631N12003036WA0084600767
B1917204748630N12003033WA0084500766
B1917214748629N12003029WA0084400764
B1917224748628N12003026WA0084400762
B1917234748627N12003022WA0084300762
B1917244748625N12003019WA0084300761
B1917254748624N12003017WA0084200760
B1917264748623N12003014WA0084200759
B1917274748621N12003011WA0084100758
B1917284748621N12003008WA0084000756
B1917294748621N12003004WA0084000755
B1917304748622N12003002WA0083900756
B1917314748625N12003000WA0083900755
B1917324748628N12003000WA0083800755
B1917334748630N12003001WA0083800754
B1917344748633N12003002WA0083700754
B1917354748636N12003005WA0083700753
B1917364748639N12003007WA0083600752
B1917374748642N12003009WA0083600750
B1917384748645N12003009WA0083600750
B1917394748649N12003009WA0083500748
B1917404748653N12003007WA0083500748
B1917414748657N12003005WA0083400747
B1917424748661N12003003WA0083400747
B1917434748665N12003000WA0083300746
B1917444748670N12002998WA0083200744
B1917454748673N12002995WA0083200743
B1917464748677N12002993WA0083100741
B1917474748681N12002989WA0083000740
B1917484748684N12002986WA0083000739
B1917494748688N12002982WA0082900738
B1917504748692N12002978WA0082800736
B1917514748696N12002975WA0082700735
B1917524748700N12002971WA0082700733
B1917534748704N12002968WA0082600731
B1917544748708N12002965WA0082500730
B1917554748712N12002962WA0082400728
B1917564748716N12002959WA0082300726
B1917574748720N12002956WA0082300725
B1917584748724N12002954WA0082200724
B1917594748727N12002953WA0082100722
B1918004748731N12002951WA0082000721
B1918014748735N12002950WA0082000719
B1918024748739N12002949WA0081900717
B1918034748744N12002947WA0081800715
B1918044748749N12002946WA0081800713
B1918054748753N12002944WA0081700712
B1918064748758N12002943WA0081600710
B1918074748762N12002942WA0081500708
B1918084748766N12002940WA0081500707
B1918094748770N12002938WA0081400705
B1918104748774N12002936WA0081300705
B1918114748776N12002934WA0081200703
B1918124748779N12002932WA0081100702
B1918134748782N12002932WA0081000701
B1918144748785N12002933WA0081000700
B1918154748788N12002935WA0080900699
B1918164748790N12002938WA0080800698
B1918174748793N12002940WA0080700698
B1918184748795N12002943WA0080700696
B1918194748797N12002946WA0080600695
B1918204748800N12002948WA0080600694
B1918214748803N12002949WA0080500693
B1918224748807N12002949WA0080400692
B1918234748810N12002949WA0080300690
B1918244748814N12002949WA0080300689
B1918254748817N12002948WA0080200688
B1918264748821N12002947WA0080200687
B1918274748824N12002946WA0080100686
B1918284748828N12002945WA0080000685
B1918294748832N12002944WA0079900684
B1918304748835N12002943WA0079900682
B1918314748839N12002942WA0079800681
B1918324748843N12002942WA0079700679
B1918334748847N12002941WA0079700678
B1918344748851N12002940WA0079600677
B1918354748855N12002939WA0079500676
B1918364748859N12002938WA0079500674
B1918374748863N12002937WA0079400673
B1918384748867N12002935WA0079300672
B1918394748871N12002933WA0079300671
B1918404748875N12002932WA0079200669
B1918414748879N12002931WA0079100668
B1918424748883N12002930WA0079100667
B1918434748888N12002930WA0079000667
B1918444748892N12002929WA0078900666
B1918454748895N12002929WA0078800666
B1918464748899N12002929WA0078800665
B1918474748903N12002929WA0078700664
B1918484748906N12002930WA0078700663
B1918494748909N12002931WA0078600663
B1918504748913N12002932WA0078600663
B1918514748916N12002934WA0078500662
B1918524748918N12002936WA0078500662
B1918534748921N12002939WA0078400662
B1918544748923N12002943WA0078300661
B1918554748926N12002946WA0078300660
B1918564748929N12002949WA0078200659
B1918574748932N12002951WA0078200658
B1918584748935N12002953WA0078100657
B1918594748939N12002955WA0078100656
B1919004748942N12002956WA0078000656
B1919014748946N12002956WA0077900656
B1919024748949N12002958WA0077900655
B1919034748953N12002959WA0077800654
B1919044748956N12002962WA0077800653
B1919054748959N12002965WA0077700653
B1919064748962N12002969WA0077700652
B1919074748965N12002972WA0077600651
B1919084748968N12002975WA0077600649
B1919094748972N12002976WA0077500648
B1919104748975N12002977WA0077400648
B1919114748979N12002976WA0077400647
B1919124748982N12002976WA0077300647
B1919134748985N12002977WA0077200646
B1919144748988N12002978WA0077200645
B1919154748992N12002980WA0077100645
B1919164748995N12002982WA0077100644
B1919174748998N12002984WA0077000643
B1919184749001N12002986WA0077000642
B1919194749004N12002988WA0076900641
B1919204749007N12002990WA0076900641
B1919214749009N12002992WA0076800639
B1919224749012N12002995WA0076800638
B1919234749015N12002997WA0076700637
B1919244749018N12003000WA0076700637
B1919254749021N12003001WA0076700636
B1919264749025N12003001WA0076600636
B1919274749028N12003002WA0076600636
B1919284749031N12003002WA0076500635
B1919294749034N12003002WA0076500634
B1919304749037N12003002WA0076500634
B1919314749039N12003003WA0076400634
B1919324749042N12003004WA0076400632
B1919334749045N12003006WA0076400631
B1919344749048N12003008WA0076400631
B1919354749051N12003010WA0076300629
B1919364749055N12003011WA0076300628
B1919374749058N12003013WA0076200626
B1919384749061N12003014WA0076200625
B1919394749065N12003015WA0076200625
B1919404749069N12003016WA0076100624
B1919414749072N12003017WA0076100622
B1919424749076N12003018WA0076000621
B1919434749080N12003019WA0076000620
B1919444749084N12003021WA0075900618
B1919454749088N12003023WA0075800617
B1919464749091N12003025WA0075800617
B1919474749095N12003027WA0075700616
B1919484749098N12003029WA0075700616
B1919494749102N12003030WA0075600615
B1919504749106N12003031WA0075600615
B1919514749110N12003031WA0075500615
B1919524749114N12003031WA0075500615
B1919534749117N12003030WA0075400614
B1919544749122N12003030WA0075400614
B1919554749126N12003029WA0075300613
B1919564749131N12003030WA0075300613
B1919574749136N12003031WA0075200613
B1919584749140N12003032WA0075200612
B1919594749145N12003034WA0075200610
B1920004749150N12003036WA0075100608
B1920014749156N12003037WA0075100607
B1920024749162N12003037WA0075000605
B1920034749167N12003036WA0075000604
B1920044749173N12003035WA0074900603
B1920054749179N12003034WA0074900602
B1920064749185N12003035WA0074800601
B1920074749191N12003036WA0074800600
B1920084749197N12003037WA0074700599
B1920094749203N12003038WA0074700598
B1920104749209N12003038WA0074600598
B1920114749215N12003038WA0074600597
B1920124749220N12003038WA0074600597
B1920134749225N12003039WA0074500597
B1920144749230N12003041WA0074500598
B1920154749234N12003044WA0074400598
B1920164749239N12003046WA0074400597
B1920174749245N12003048WA0074400597
B1920184749250N12003049WA0074400596
B1920194749256N12003050WA0074300595
B1920204749262N12003051WA0074300594
B1920214749268N12003052WA0074200592
B1920224749274N12003053WA0074200591
B1920234749281N12003055WA0074200589
B1920244749287N12003057WA0074100588
B1920254749293N12003059WA0074100587
B1920264749299N12003061WA0074000587
B1920274749305N12003063WA0074000586
B1920284749310N12003065WA0074000585
B1920294749316N12003067WA0073900584
B1920304749323N12003069WA0073900583
B1920314749329N12003071WA0073800582
B1920324749336N12003072WA0073800581
B1920334749342N12003072WA0073700580
B1920344749349N12003072WA0073600579
B1920354749356N12003071WA0073600579
B1920364749362N12003070WA0073500578
B1920374749369N12003068WA0073500577
B1920384749376N12003067WA0073400576
B1920394749382N12003065WA0073400575
B1920404749389N12003063WA0073300575
B1920414749395N12003062WA0073300574
B1920424749402N12003060WA0073200573
B1920434749408N12003059WA0073200573
B1920444749414N12003059WA0073100572
B1920454749421N12003058WA0073100571
B1920464749427N12003058WA0073100570
B1920474749433N12003057WA0073000569
B1920484749440N12003056WA0073000568
B1920494749447N12003055WA0072900567
B1920504749454N12003055WA0072800565
B1920514749460N12003054WA0072800564
B1920524749467N12003053WA0072700563
B1920534749474N12003051WA0072700562
B1920544749481N12003050WA0072700560
B1920554749487N12003049WA0072600559
B1920564749494N12003048WA0072600558
B1920574749500N12003049WA0072500558
B1920584749506N12003051WA0072500557
B1920594749513N12003053WA0072400556
B1921004749519N12003056WA0072400555
B1921014749525N12003058WA0072300553
B1921024749531N12003060WA0072300552
B1921034749537N12003061WA0072200552
B1921044749544N12003064WA0072100550
B1921054749550N12003066WA0072000548
B1921064749556N12003069WA0072000546
B1921074749563N12003070WA0071900545
B1921084749569N12003071WA0071900545
B1921094749575N12003072WA0071800544
B1921104749580N12003073WA0071700544
B1921114749585N12003076WA0071700544
B1921124749589N12003079WA0071600544
B1921134749594N12003083WA0071500543
B1921144749598N12003088WA0071500543
B1921154749602N12003092WA0071500543
B1921164749606N12003097WA0071400543
B1921174749609N12003103WA0071400543
B1921184749611N12003109WA0071300543
B1921194749612N12003116WA0071300542
B1921204749613N12003123WA0071300543
B1921214749614N12003130WA0071200543
B1921224749615N12003138WA0071200544
B1921234749616N12003145WA0071200544
B1921244749616N12003153WA0071200544
B1921254749617N12003159WA0071200544
B1921264749618N12003166WA0071100544
B1921274749618N12003172WA0071100544
B1921284749619N12003179WA0071100543
B1921294749620N12003186WA0071100543
B1921304749621N12003193WA0071100543
B1921314749622N12003201WA0071000543
B1921324749624N12003210WA0071000542
B1921334749625N12003219WA0071000541
B1921344749627N12003228WA0071000541
B1921354749629N12003238WA0070900540
B1921364749629N12003246WA0070900540
B1921374749629N12003254WA0070900540
B1921384749628N12003262WA0070800540
B1921394749626N12003268WA0070800540
B1921404749626N12003273WA0070800540
B1921414749628N12003278WA0070700540
B1921424749630N12003283WA0070700540
B1921434749633N12003287WA0070700539
B1921444749637N12003290WA0070700539
B1921454749642N12003293WA0070600539
B1921464749646N12003295WA0070600539
B1921474749651N12003296WA0070500538
B1921484749657N12003295WA0070500537
B1921494749662N12003294WA0070500536
B1921504749668N12003292WA0070400536
B1921514749673N12003290WA0070400535
B1921524749678N12003289WA0070400535
B1921534749684N12003290WA0070300535
B1921544749689N12003292WA0070300535
B1921554749694N12003295WA0070200534
B1921564749699N12003300WA0070200533
B1921574749703N12003306WA0070200533
B1921584749707N12003313WA0070100532
B1921594749710N12003319WA0070100531
B1922004749713N12003326WA0070000531
B1922014749717N12003333WA0070000530
B1922024749721N12003338WA0070000530
B1922034749725N12003344WA0069900529
B1922044749730N12003348WA0069900528
B1922054749735N12003352WA0069800526
B1922064749741N12003355WA0069800525
B1922074749747N12003357WA0069700523
B1922084749753N12003360WA0069700522
B1922094749760N12003363WA0069600521
B1922104749766N12003365WA0069600519
B1922114749772N12003368WA0069500518
B1922124749778N12003371WA0069500517
B1922134749785N12003373WA0069400516
B1922144749790N12003376WA0069300515
B1922154749796N12003379WA0069200513
B1922164749801N12003382WA0069200512
B1922174749806N12003386WA0069100511
B1922184749810N12003391WA0069000510
B1922194749814N12003397WA0069000509
B1922204749817N12003403WA0068900508
B1922214749821N12003410WA0068800507
B1922224749824N12003416WA0068800506
B1922234749826N12003424WA0068700505
B1922244749828N12003432WA0068700504
B1922254749830N12003440WA0068600502
B1922264749831N12003449WA0068500501
B1922274749833N12003457WA0068400499
B1922284749835N12003465WA0068400498
B1922294749837N12003473WA0068300497
B1922304749840N12003481WA0068300496
B1922314749843N12003489WA0068200494
B1922324749846N12003497WA0068100493
B1922334749848N12003504WA0068100491
B1922344749851N12003511WA0068000490
B1922354749853N12003517WA0067900489
B1922364749855N12003522WA0067900487
B1922374749858N12003525WA0067800487
B1922384749862N12003527WA0067700486
B1922394749865N12003526WA0067700486
B1922404749869N12003523WA0067600485
B1922414749871N12003517WA0067600484
B1922424749872N12003511WA0067500483
B1922434749874N12003504WA0067400482
B1922444749875N12003497WA0067400481
B1922454749876N12003490WA0067300480
B1922464749877N12003483WA0067200479
B1922474749879N12003475WA0067200478
B1922484749880N12003467WA0067100478
B1922494749882N12003460WA0067100477
B1922504749883N12003452WA0067000476
B1922514749884N12003443WA0066900474
B1922524749886N12003435WA0066900473
B1922534749887N12003426WA0066800472
B1922544749889N12003418WA0066800471
B1922554749891N12003409WA0066700469
B1922564749894N12003401WA0066600468
B1922574749897N12003393WA0066500467
B1922584749900N12003384WA0066500466
B1922594749903N12003376WA0066400465
B1923004749905N12003367WA0066300463
B1923014749906N12003358WA0066300462
B1923024749907N12003349WA0066200461
B1923034749906N12003340WA0066100460
B1923044749905N12003331WA0066100458
B1923054749904N12003322WA0066000457
B1923064749903N12003313WA0065900456
B1923074749902N12003304WA0065800454
B1923084749899N12003296WA0065800453
B1923094749896N12003289WA0065700451
B1923104749893N12003281WA0065600450
B1923114749889N12003274WA0065600449
B1923124749885N12003268WA0065500447
B1923134749881N12003260WA0065400446
B1923144749877N12003253WA0065400445
B1923154749873N12003245WA0065300443
B1923164749870N12003237WA0065200442
B1923174749867N12003229WA0065100440
B1923184749865N12003221WA0065100439
B1923194749862N12003213WA0065000438
B1923204749860N12003206WA0064900437
B1923214749857N12003198WA0064800435
B1923224749854N12003192WA0064800434
B1923234749849N12003186WA0064700433
B1923244749844N12003183WA0064600431
B1923254749839N12003180WA0064500429
B1923264749833N12003179WA0064500428
B1923274749829N12003179WA0064400427
B1923284749824N12003178WA0064300425
B1923294749821N12003177WA0064200424
B1923304749818N12003176WA0064100423
B1923314749816N12003173WA0064100423
B1923324749815N12003168WA0064000422
B1923334749817N12003164WA0063900420
B1923344749818N12003160WA0063900419
B1923354749821N12003158WA0063800416
B1923364749824N12003156WA0063700415
B1923374749829N12003156WA0063700414
B1923384749834N12003157WA0063600413
B1923394749840N12003158WA0063600413
B1923404749845N12003160WA0063500413
B1923414749850N12003162WA0063500413
B1923424749855N12003165WA0063400412
B1923434749861N12003168WA0063300411
B1923444749866N12003172WA0063300410
B1923454749871N12003177WA0063200409
B1923464749876N12003182WA0063200408
B1923474749881N12003188WA0063100406
B1923484749886N12003194WA0063000405
B1923494749892N12003198WA0063000403
B1923504749898N12003203WA0062900400
B1923514749904N12003207WA0062800399
B1923524749911N12003211WA0062800397
B1923534749917N12003215WA0062700396
B1923544749924N12003218WA0062600395
B1923554749931N12003221WA0062600393
B1923564749938N12003223WA0062500391
B1923574749946N12003224WA0062400390
B1923584749953N12003226WA0062400389
B1923594749960N12003229WA0062300388
B1924004749968N12003231WA0062200387
B1924014749975N12003234WA0062100385
B1924024749982N12003236WA0062000385
B1924034749989N12003239WA0062000384
B1924044749996N12003242WA0061900384
B1924054750003N12003245WA0061800383
B1924064750010N12003249WA0061700383
B1924074750016N12003252WA0061600382
B1924084750023N12003256WA0061600381
B1924094750028N12003259WA0061500380
B1924104750034N12003263WA0061400377
B1924114750040N12003266WA0061300376
B1924124750047N12003268WA0061300374
B1924134750053N12003270WA0061200374
B1924144750059N12003270WA0061100373
B1924154750066N12003270WA0061000372
B1924164750072N12003269WA0060900371
B1924174750078N12003268WA0060800370
B1924184750084N12003267WA0060800369
B1924194750090N12003265WA0060700369
B1924204750095N12003264WA0060600368
B1924214750101N12003263WA0060500368
B1924224750107N12003261WA0060500367
B1924234750112N12003260WA0060400366
B1924244750117N12003259WA0060300365
B1924254750122N12003258WA0060300365
B1924264750127N12003257WA0060200364
B1924274750132N12003255WA0060100363
B1924284750136N12003254WA0060100362
B1924294750140N12003253WA0060000361
B1924304750144N12003252WA0059900361
B1924314750147N12003251WA0059900360
B1924324750150N12003250WA0059800359
B1924334750152N12003250WA0059700358
B1924344750153N12003249WA0059700358
B1924354750155N12003247WA0059600357
B1924364750156N12003245WA0059500357
B1924374750157N12003242WA0059500356
B1924384750157N12003239WA0059400356
B1924394750157N12003234WA0059400357
B1924404750157N12003229WA0059400357
B1924414750156N12003222WA0059300357
B1924424750155N12003214WA0059300357
B1924434750154N12003206WA0059200357
B1924444750153N12003196WA0059200358
B1924454750152N12003186WA0059200358
B1924464750150N12003175WA0059200358
B1924474750149N12003163WA0059100358
B1924484750148N12003152WA0059100358
B1924494750146N12003140WA0059100358
B1924504750145N12003128WA0059100358
B1924514750144N12003116WA0059000357
B1924524750142N12003104WA0059000357
B1924534750141N12003092WA0059000356
B1924544750139N12003080WA0058900355
B1924554750138N12003068WA0058900355
B1924564750137N12003056WA0058900354
B1924574750135N12003043WA0058800353
B1924584750134N12003031WA0058800353
B1924594750133N12003018WA0058800353
B1925004750132N12003005WA0058700352
B1925014750130N12002992WA0058700351
B1925024750129N12002979WA0058700350
B1925034750128N12002966WA0058600349
B1925044750126N12002953WA0058600348
B1925054750125N12002940WA0058500347
B1925064750123N12002927WA0058500347
B1925074750122N12002913WA0058400346
B1925084750120N12002900WA0058400345
B1925094750119N12002886WA0058300344
B1925104750117N12002872WA0058300344
B1925114750116N12002858WA0058300343
B1925124750114N12002844WA0058200342
B1925134750113N12002830WA0058200342
B1925144750112N12002814WA0058100341
B1925154750110N12002800WA0058100341
B1925164750108N12002785WA0058100340
B1925174750105N12002770WA0058000340
B1925184750103N12002755WA0058000340
B1925194750100N12002740WA0057900340
B1925204750097N12002726WA0057900340
B1925214750093N12002710WA0057900340
B1925224750090N12002695WA0057800340
B1925234750087N12002680WA0057800340
B1925244750084N12002665WA0057800340
B1925254750081N12002649WA0057700341
B1925264750078N12002634WA0057700341
B1925274750076N12002619WA0057700341
B1925284750074N12002604WA0057600341
B1925294750072N12002590WA0057600341
B1925304750071N12002575WA0057600341
B1925314750069N12002560WA0057500341
B1925324750067N12002546WA0057500341
B1925334750065N12002531WA0057500341
B1925344750063N12002517WA0057400341
B1925354750062N12002502WA0057400341
B1925364750060N12002488WA0057400341
B1925374750058N12002473WA0057400341
B1925384750057N12002458WA0057300340
B1925394750055N12002444WA0057300340
B1925404750054N12002429WA0057300340
B1925414750052N12002415WA0057200340
B1925424750051N12002401WA0057200341
B1925434750051N12002388WA0057200340
B1925444750052N12002374WA0057100340
B1925454750054N12002361WA0057100340
B1925464750057N12002349WA0057100341
B1925474750062N12002338WA0057000340
B1925484750066N12002328WA0057000340
B1925494750072N12002319WA0057000340
B1925504750080N12002311WA0057000340
B1925514750087N12002305WA0056900341
B1925524750095N12002300WA0056900341
B1925534750103N12002295WA0056800340
B1925544750110N12002290WA0056800340
B1925554750118N12002285WA0056800340
B1925564750125N12002279WA0056800340
B1925574750132N12002273WA0056700340
B1925584750138N12002265WA0056700340
B1925594750143N12002256WA0056700340
B1926004750148N12002247WA0056600339
B1926014750152N12002236WA0056600340
B1926024750155N12002224WA0056600340
B1926034750156N12002212WA0056500340
B1926044750157N12002200WA0056500340
B1926054750157N12002187WA0056500340
B1926064750156N12002174WA0056500340
B1926074750155N12002161WA0056400340
B1926084750154N12002148WA0056400341
B1926094750153N12002135WA0056400341
B1926104750152N12002121WA0056400341
B1926114750150N12002108WA0056300341
B1926124750149N12002095WA0056300341
B1926134750148N12002082WA0056300341
B1926144750148N12002069WA0056200342
B1926154750148N12002057WA0056200342
B1926164750149N12002044WA0056200342
B1926174750150N12002031WA0056200342
B1926184750153N12002019WA0056100343
B1926194750156N12002006WA0056100343
B1926204750159N12001994WA0056100344
B1926214750163N12001981WA0056100344
B1926224750167N12001969WA0056100345
B1926234750172N12001956WA0056000345
B1926244750176N12001943WA0056000346
B1926254750180N12001929WA0056000346
B1926264750183N12001915WA0056000347
B1926274750185N12001900WA0056000347
B1926284750186N12001885WA0056000348
B1926294750186N12001869WA0055900348
B1926304750185N12001854WA0055900349
B1926314750185N12001838WA0055900349
B1926324750184N12001823WA0055900349
B1926334750183N12001807WA0055900350
B1926344750182N12001791WA0055900350
B1926354750181N12001776WA0055900350
B1926364750180N12001760WA0055800351
B1926374750179N12001744WA0055800351
B1926384750178N12001729WA0055800351
B1926394750177N12001714WA0055800351
B1926404750176N12001699WA0055800350
B1926414750175N12001684WA0055700350
B1926424750174N12001669WA0055700350
B1926434750173N12001655WA0055700349
B1926444750172N12001641WA0055600349
B1926454750171N12001627WA0055600348
B1926464750171N12001614WA0055600348
B1926474750170N12001600WA0055500347
B1926484750169N12001587WA0055500347
B1926494750168N12001573WA0055400346
B1926504750168N12001560WA0055400346
B1926514750167N12001547WA0055300346
B1926524750166N12001534WA0055300346
B1926534750166N12001521WA0055300346
B1926544750165N12001508WA0055300347
B1926554750165N12001495WA0055200348
B1926564750165N12001482WA0055200348
B1926574750164N12001468WA0055200349
B1926584750164N12001456WA0055200350
B1926594750163N12001443WA0055100350
B1927004750163N12001432WA0055100351
B1927014750162N12001421WA0055100351
B1927024750162N12001410WA0055100352
B1927034750161N12001400WA0055100352
B1927044750161N12001389WA0055000352
B1927054750160N12001379WA0055000353
B1927064750160N12001369WA0055000353
B1927074750159N12001359WA0055000353
B1927084750158N12001349WA0055000353
B1927094750158N12001339WA0055000354
B1927104750157N12001329WA0054900354
B1927114750156N12001319WA0054900354
B1927124750156N12001309WA0054900354
B1927134750155N12001299WA0054900354
B1927144750154N12001289WA0054900355
B1927154750154N12001278WA0054800355
B1927164750153N12001268WA0054800355
B1927174750153N12001257WA0054800356
B1927184750152N12001247WA0054800356
B1927194750152N12001236WA0054800356
B1927204750151N12001225WA0054800356
B1927214750150N12001214WA0054700356
B1927224750150N12001203WA0054700356
B1927234750149N12001192WA0054700356
B1927244750148N12001181WA0054700356
B1927254750148N12001170WA0054600356
B1927264750147N12001159WA0054600356
B1927274750147N12001148WA0054600356
B1927284750146N12001137WA0054600356
B1927294750146N12001126WA0054500356
B1927304750145N12001114WA0054500356
B1927314750145N12001103WA0054500356
B1927324750144N12001092WA0054500356
B1927334750144N12001082WA0054400355
B1927344750144N12001071WA0054400355
B1927354750145N12001061WA0054400355
B1927364750148N12001050WA0054300354
B1927374750151N12001040WA0054300354
B1927384750154N12001030WA0054300354
B1927394750158N12001020WA0054300353
B1927404750161N12001010WA0054200353
B1927414750165N12001000WA0054200353
B1927424750168N12000990WA0054200352
B1927434750172N12000981WA0054100352
B1927444750175N12000971WA0054100352
B1927454750178N12000961WA0054100352
B1927464750182N12000952WA0054100352
B1927474750185N12000943WA0054000351
B1927484750188N12000934WA0054000351
B1927494750191N12000926WA0053900350
B1927504750195N12000918WA0053900351
B1927514750199N12000911WA0053900350
B1927524750204N12000905WA0053800350
B1927534750209N12000901WA0053800349
B1927544750215N12000899WA0053800349
B1927554750221N12000897WA0053700348
B1927564750227N12000896WA0053700347
B1927574750234N12000896WA0053700346
B1927584750240N12000895WA0053700346
B1927594750247N12000895WA0053600346
B1928004750253N12000894WA0053600345
B1928014750260N12000894WA0053600345
B1928024750267N12000893WA0053500345
B1928034750273N12000893WA0053500345
B1928044750279N12000893WA0053500345
B1928054750286N12000892WA0053500345
B1928064750292N12000892WA0053500345
B1928074750299N12000892WA0053400345
B1928084750305N12000892WA0053400344
B1928094750311N12000891WA0053400344
B1928104750317N12000891WA0053400344
B1928114750324N12000891WA0053300344
B1928124750330N12000890WA0053300344
B1928134750336N12000890WA0053300344
B1928144750342N12000890WA0053300344
B1928154750348N12000889WA0053200344
B1928164750354N12000889WA0053200344
B1928174750359N12000888WA0053200344
B1928184750363N12000888WA0053200344
B1928194750368N12000888WA0053100344
B1928204750371N12000888WA0053100344
B1928214750373N12000887WA0053100344
B1928224750375N12000887WA0053100344
B1928234750376N12000887WA0053000344
B1928244750377N12000888WA0053000344
B1928254750377N12000888WA0053000344
B1928264750377N12000888WA0053000344
B1928274750377N12000888WA0052900344
B1928284750377N12000888WA0052900344
B1928294750377N12000888WA0052900344
B1928304750377N12000888WA0052900344
B1928314750377N12000888WA0052900344
B1928324750377N12000888WA0052800344
B1928334750377N12000888WA0052800344
B1928344750377N12000888WA0052800344
B1928354750378N12000888WA0052800344
B1928364750379N12000888WA0052800344
B1928374750381N12000888WA0052700344
B1928384750383N12000887WA0052700344
B1928394750385N12000886WA0052700344
B1928404750387N12000883WA0052700344
B1928414750388N12000879WA0052700344
B1928424750389N12000874WA0052600344
B1928434750389N12000868WA0052600344
B1928444750389N12000860WA0052600344
B1928454750389N12000852WA0052600344
B1928464750389N12000842WA0052600344
B1928474750389N12000832WA0052500344
B1928484750389N12000821WA0052500344
B1928494750389N12000810WA0052500344
B1928504750389N12000799WA0052500344
B1928514750389N12000787WA0052500344
B1928524750389N12000775WA0052400344
B1928534750389N12000763WA0052400344
B1928544750388N12000751WA0052400345
B1928554750388N12000740WA0052400345
B1928564750388N12000728WA0052400346
B1928574750388N12000716WA0052300346
B1928584750387N12000705WA0052300347
B1928594750387N12000694WA0052300347
B1929004750387N12000683WA0052300347
B1929014750387N12000671WA0052300348
B1929024750386N12000660WA0052300348
B1929034750386N12000648WA0052200348
B1929044750386N12000637WA0052200349
B1929054750386N12000626WA0052200349
B1929064750385N12000615WA0052200350
B1929074750385N12000604WA0052200350
B1929084750385N12000592WA0052200351
B1929094750385N12000581WA0052200352
B1929104750385N12000569WA0052200353
B1929114750384N12000558WA0052200354
B1929124750384N12000546WA0052200355
B1929134750384N12000533WA0052200356
B1929144750384N12000521WA0052200357
B1929154750383N12000509WA0052200357
B1929164750383N12000496WA0052200358
B1929174750383N12000484WA0052200359
B1929184750382N12000473WA0052200359
B1929194750382N12000461WA0052200360
B1929204750382N12000449WA0052200360
B1929214750382N12000437WA0052200360
B1929224750381N12000424WA0052200361
B1929234750381N12000412WA0052200361
B1929244750381N12000399WA0052200362
B1929254750381N12000386WA0052200362
B1929264750380N12000373WA0052200363
B1929274750380N12000360WA0052200363
B1929284750380N12000347WA0052200364
B1929294750379N12000334WA0052200364
B1929304750379N12000321WA0052200365
B1929314750379N12000308WA0052200365
B1929324750379N12000295WA0052200366
B1929334750378N12000282WA0052200366
B1929344750378N12000270WA0052200366
B1929354750378N12000257WA0052200366
B1929364750377N12000244WA0052200367
B1929374750377N12000231WA0052200367
B1929384750377N12000218WA0052100367
B1929394750376N12000205WA0052100367
B1929404750376N12000191WA0052100367
B1929414750376N12000177WA0052100367
B1929424750375N12000164WA0052100367
B1929434750375N12000150WA0052100367
B1929444750375N12000136WA0052100368
B1929454750375N12000123WA0052100368
B1929464750374N12000109WA0052000368
B1929474750374N12000095WA0052000369
B1929484750373N12000082WA0052000369
B1929494750373N12000068WA0052000369
B1929504750373N12000055WA0052000369
B1929514750372N12000041WA0052000370
B1929524750372N12000028WA0052000370
B1929534750371N12000014WA0052000370
B1929544750371N12000000WA0051900370
B1929554750370N11959986WA0051900370
B1929564750370N11959972WA0051900371
B1929574750369N11959957WA0051900371
B1929584750368N11959943WA0051900371
B1929594750366N11959929WA0051900372
B1930004750365N11959914WA0051900373
B1930014750363N11959899WA0051900373
B1930024750361N11959884WA0051900373
B1930034750360N11959869WA0051900375
B1930044750359N11959855WA0051900375
B1930054750357N11959840WA0051900376
B1930064750356N11959824WA0051900376
B1930074750355N11959809WA0051900376
B1930084750354N11959794WA0051900377
B1930094750353N11959779WA0051900378
B1930104750351N11959764WA0051900378
B1930114750350N11959749WA0051900379
B1930124750349N11959734WA0051900380
B1930134750348N11959719WA0051900381
B1930144750348N11959705WA0051900381
B1930154750347N11959690WA0051900382
B1930164750346N11959676WA0051900383
B1930174750345N11959663WA0051900384
B1930184750344N11959650WA0051900386
B1930194750343N11959637WA0051900387
B1930204750342N11959625WA0051900388
B1930214750341N11959614WA0051900389
B1930224750341N11959603WA0051900390
B1930234750341N11959593WA0051900391
B1930244750341N11959582WA0051900392
B1930254750342N11959572WA0051900393
B1930264750343N11959562WA0051900393
B1930274750344N11959552WA0052000394
B1930284750346N11959542WA0052000395
B1930294750348N11959531WA0052000396
B1930304750350N11959520WA0052000396
B1930314750353N11959509WA0052000397
B1930324750355N11959499WA0052000397
B1930334750359N11959488WA0052000397
B1930344750362N11959478WA0052000397
B1930354750366N11959468WA0052000398
B1930364750370N11959458WA0052000398
B1930374750374N11959448WA0052000398
B1930384750379N11959438WA0052000398
B1930394750384N11959428WA0052000399
B1930404750390N11959419WA0052000399
B1930414750396N11959409WA0052000399
B1930424750402N11959399WA0052000399
B1930434750409N11959390WA0052000399
B1930444750415N11959380WA0052000399
B1930454750421N11959371WA0052000399
B1930464750427N11959360WA0052000399
B1930474750433N11959350WA0052000400
B1930484750438N11959338WA0052000400
B1930494750443N11959326WA0052000400
B1930504750448N11959314WA0052000400
B1930514750452N11959301WA0052000401
B1930524750457N11959287WA0052000401
B1930534750461N11959274WA0052000401
B1930544750465N11959261WA0052000401
B1930554750469N11959248WA0051900401
B1930564750473N11959235WA0051900401
B1930574750476N11959222WA0051900402
B1930584750479N11959211WA0051900402
B1930594750482N11959201WA0051900402
B1931004750484N11959192WA0051900402
B1931014750485N11959184WA0051800402
B1931024750484N11959177WA0051800402
B1931034750483N11959171WA0051800402
B1931044750480N11959165WA0051800402
B1931054750475N11959162WA0051800401
B1931064750470N11959161WA0051800401
B1931074750465N11959160WA0051800400
B1931084750459N11959160WA0051700400
B1931094750454N11959160WA0051700399
B1931104750449N11959157WA0051700399
B1931114750445N11959153WA0051700399
B1931124750441N11959148WA0051700399
B1931134750438N11959141WA0051700398
B1931144750436N11959133WA0051700398
B1931154750435N11959124WA0051600399
B1931164750433N11959115WA0051600399
B1931174750431N11959106WA0051600399
B1931184750429N11959098WA0051600399
B1931194750426N11959092WA0051600400
B1931204750422N11959085WA0051600400
B1931214750418N11959080WA0051600400
B1931224750414N11959076WA0051600400
B1931234750409N11959072WA0051600400
B1931244750403N11959068WA0051600400
B1931254750398N11959064WA0051600401
B1931264750392N11959061WA0051600401
B1931274750386N11959057WA0051600401
B1931284750380N11959054WA0051600401
B1931294750374N11959051WA0051600401
B1931304750368N11959046WA0051600401
B1931314750362N11959042WA0051600401
B1931324750356N11959037WA0051600401
B1931334750350N11959032WA0051600400
B1931344750345N11959027WA0051500400
B1931354750339N11959021WA0051500399
B1931364750333N11959015WA0051500398
B1931374750327N11959009WA0051500398
B1931384750321N11959003WA0051500398
B1931394750315N11958996WA0051500398
B1931404750311N11958990WA0051400398
B1931414750306N11958983WA0051400398
B1931424750302N11958976WA0051400398
B1931434750298N11958969WA0051400398
B1931444750294N11958962WA0051400398
B1931454750290N11958956WA0051400399
B1931464750286N11958951WA0051300399
B1931474750282N11958948WA0051300399
B1931484750277N11958946WA0051300399
B1931494750272N11958947WA0051300399
B1931504750267N11958948WA0051300399
B1931514750261N11958951WA0051300399
B1931524750257N11958955WA0051300399
B1931534750253N11958959WA0051300398
B1931544750249N11958963WA0051200398
B1931554750245N11958967WA0051200397
B1931564750241N11958970WA0051200397
B1931574750237N11958972WA0051100396
B1931584750234N11958972WA0051100396
B1931594750230N11958972WA0051000395
B1932004750227N11958971WA0051000394
B1932014750224N11958967WA0051000394
B1932024750222N11958963WA0050900393
B1932034750221N11958958WA0050900393
B1932044750221N11958953WA0050900393
B1932054750221N11958948WA0050800393
B1932064750221N11958943WA0050800393
B1932074750221N11958939WA0050800393
B1932084750220N11958935WA0050800393
B1932094750220N11958933WA0050700393
B1932104750219N11958932WA0050700393
B1932114750218N11958930WA0050700393
B1932124750217N11958929WA0050700392
B1932134750216N11958928WA0050700392
B1932144750215N11958928WA0050600393
B1932154750213N11958927WA0050600393
B1932164750212N11958927WA0050600393
B1932174750211N11958926WA0050600393
B1932184750210N11958926WA0050600393
B1932194750208N11958925WA0050600393
B1932204750207N11958925WA0050500393
B1932214750206N11958924WA0050500392
B1932224750205N11958923WA0050500392
B1932234750203N11958922WA0050500392
B1932244750202N11958921WA0050500392
B1932254750201N11958921WA0050500392
B1932264750200N11958920WA0050400392
B1932274750199N11958919WA0050400392
B1932284750199N11958919WA0050400392
B1932294750199N11958919WA0050400392
B1932304750199N11958919WA0050400392
B1932314750199N11958918WA0050400392
B1932324750199N11958918WA0050300392
B1932334750199N11958918WA0050300392
B1932344750199N11958918WA0050300392
B1932354750199N11958918WA0050300392
B1932364750199N11958918WA0050300392
B1932374750199N11958918WA0050300392
B1932384750199N11958918WA0050300392
B1932394750199N11958918WA0050300392
B1932404750199N11958918WA0050200392
B1932414750199N11958918WA0050200393
B1932424750199N11958918WA0050200393
B1932434750199N11958918WA0050200393
B1932444750199N11958918WA0050200393
B1932454750199N11958918WA0050200393
B1932464750199N11958918WA0050200393
B1932474750199N11958918WA0050100393
B1932484750199N11958918WA0050100394
B1932494750199N11958918WA0050100394
B1932504750199N11958918WA0050100394
B1932514750199N11958918WA0050100394
B1932524750199N11958918WA0050100394
B1932534750199N11958918WA0050100394
B1932544750199N11958918WA0050100394
B1932554750199N11958918WA0050000394
B1932564750199N11958918WA0050000394
B1932574750199N11958918WA0050000394
B1932584750199N11958918WA0050000393
B1932594750199N11958918WA0050000393
B1933004750199N11958918WA0050000393
B1933014750199N11958918WA0050000393
B1933024750199N11958918WA0049900393
B1933034750199N11958918WA0049900393
B1933044750199N11958919WA0049900393
B1933054750199N11958919WA0049900393
B1933064750199N11958919WA0049900393
B1933074750198N11958919WA0049900393
B1933084750198N11958919WA0049900393
B1933094750198N11958919WA0049800393
B1933104750198N11958919WA0049800393
B1933114750198N11958919WA0049800393
B1933124750198N11958919WA0049800393
B1933134750198N11958919WA0049800393
B1933144750198N11958919WA0049800393
B1933154750198N11958919WA0049800393
B1933164750198N11958919WA0049700393
B1933174750198N11958919WA0049700393
B1933184750198N11958919WA0049700393
B1933194750199N11958919WA0049700393
B1933204750199N11958919WA0049700393
B1933214750199N11958919WA0049700393
B1933224750198N11958919WA0049700393
B1933234750198N11958919WA0049600393
B1933244750198N11958919WA0049600393
B1933254750198N11958920WA0049600393
B1933264750198N11958920WA0049600394
B1933274750198N11958920WA0049600394
B1933284750198N11958920WA0049600393
B1933294750198N11958920WA0049600393
B1933304750198N11958920WA0049600393
B1933314750198N11958920WA0049500393
B1933324750198N11958920WA0049500393
B1933334750198N11958921WA0049400393
B1933344750198N11958921WA0049400393
B1933354750197N11958921WA0049400393
B1933364750197N11958921WA0049400393
B1933374750196N11958921WA0049300394
B1933384750195N11958921WA0049300394
B1933394750195N11958921WA0049300393
B1933404750194N11958920WA0049300394
B1933414750193N11958920WA0049300394
B1933424750193N11958919WA0049200393
B1933434750192N11958919WA0049200393
B1933444750191N11958919WA0049200393
B1933454750191N11958918WA0049200393
B1933464750190N11958918WA0049200393
B1933474750189N11958917WA0049200393
B1933484750189N11958916WA0049200393
B1933494750188N11958915WA0049100393
B1933504750188N11958915WA0049100393
B1933514750187N11958914WA0049100393
B1933524750187N11958913WA0049100393
B1933534750186N11958912WA0049100393
B1933544750185N11958912WA0049100393
B1933554750185N11958911WA0049000393
B1933564750185N11958910WA0049000393
B1933574750184N11958910WA0049000393
B1933584750184N11958910WA0049000393
B1933594750184N11958910WA0049000393
B1934004750184N11958910WA0049000393
B1934014750184N11958910WA0048900393
B1934024750184N11958910WA0048900393
B1934034750184N11958910WA0048800393
B1934044750185N11958910WA0048800392
B1934054750185N11958910WA0048800392
B1934064750185N11958910WA0048800392
B1934074750185N11958910WA0048900392
B1934084750185N11958910WA0048900392
B1934094750185N11958910WA0048800392
B1934104750185N11958910WA0048800392
B1934114750185N11958910WA0048800392
B1934124750185N11958910WA0048800392
B1934134750185N11958910WA0048700392
B1934144750185N11958910WA0048700392
B1934154750185N11958910WA0048500392
B1934164750185N11958910WA0048500392
B1934174750185N11958910WA0048500393
B1934184750185N11958910WA0048500393
B1934194750185N11958911WA0048500393
B1934204750185N11958911WA0048500393
B1934214750185N11958911WA0048500393
B1934224750185N11958910WA0048600393
B1934234750185N11958910WA0048600393
B1934244750185N11958910WA0048000393
B1934254750185N11958910WA0046300393
B1934264750185N11958910WA0045300393
B1934274750185N11958911WA0044000393
B1934284750185N11958911WA0043200393
B1934294750185N11958911WA0042200393
B1934304750185N11958910WA0041600393
B1934314750185N11958910WA0040800393
B1934324750185N11958910WA0040300393
B1934334750185N11958910WA0039700393
B1934344750185N11958910WA0039400393
B1934354750185N11958910WA0038900393
B1934364750185N11958910WA0038600393
B1934374750185N11958910WA0038200393
B1934384750185N11958910WA0038000392
B1934394750185N11958910WA0037800392
B1934404750185N11958910WA0037600392
B1934414750185N11958910WA0037400392
B1934424750185N11958910WA0037300392
B1934434750185N11958910WA0037100392
B1934444750185N11958910WA0037000392
B1934454750185N11958910WA0036900392
B1934464750185N11958910WA0036800392
B1934474750185N11958910WA0036700392
B1934484750185N11958910WA0036600392
B1934494750185N11958910WA0036500391
B1934504750185N11958910WA0036500391
B1934514750185N11958910WA0036400391
B1934524750185N11958910WA0036400391
B1934534750185N11958910WA0036400391
B1934544750185N11958910WA0036300391
B1934554750185N11958910WA0036300391
B1934564750185N11958910WA0036300391
B1934574750185N11958910WA0036200391
B1934584750185N11958910WA0036200392
B1934594750185N11958909WA0036200392
B1935004750185N11958909WA0036200392
B1935014750185N11958910WA0036200392
B1935024750185N11958910WA0036200391
B1935034750185N11958910WA0036200391
B1935044750185N11958910WA0036200391
B1935054750185N11958910WA0036100391
B1935064750185N11958909WA0036100391
B1935074750185N11958909WA0036100391
B1935084750185N11958909WA0036100391
B1935094750185N11958909WA0036100391
B1935104750185N11958910WA0036100391
B1935114750184N11958910WA0036100390
B1935124750184N11958910WA0036100390
B1935134750184N11958909WA0036100390
B1935144750184N11958909WA0036100390
B1935154750184N11958909WA0036100390
B1935164750184N11958909WA0036100390
B1935174750184N11958909WA0036100389
B1935184750184N11958909WA0036100389
B1935194750184N11958909WA0036100389
B1935204750184N11958909WA0036100389
B1935214750184N11958909WA0036100389
B1935224750184N11958909WA0036100389
B1935234750184N11958909WA0036100389
B1935244750184N11958909WA0036100389
B1935254750184N11958909WA0036100389
B1935264750184N11958909WA0036100389
B1935274750184N11958909WA0036100389
B1935284750184N11958909WA0036100389
B1935294750184N11958909WA0036100389
B1935304750184N11958909WA0036100389
B1935314750184N11958909WA0036100389
B1935324750184N11958909WA0036100390
B1935334750184N11958909WA0036100390
B1935344750184N11958909WA0036100390
B1935354750184N11958909WA0036100390
B1935364750184N11958909WA0036100390
B1935374750184N11958909WA0036100390
B1935384750184N11958909WA0036100390
B1935394750184N11958908WA0036100390
B1935404750184N11958908WA0036100390
B1935414750184N11958908WA0036100390
B1935424750184N11958909WA0036100390
B1935434750184N11958909WA0036100389
B1935444750184N11958910WA0036100389
B1935454750184N11958910WA0036100389
B1935464750184N11958910WA0036100389
B1935474750183N11958910WA0036100389
B1935484750183N11958910WA0036100389
B1935494750183N11958910WA0036100389
B1935504750183N11958910WA0036100389
B1935514750183N11958910WA0036100389
B1935524750183N11958910WA0036100389
B1935534750183N11958910WA0036100389
B1935544750183N11958910WA0036100389
B1935554750183N11958910WA0036100389
B1935564750183N11958910WA0036100389
B1935574750183N11958910WA0036100389
B1935584750183N11958910WA0036100389
B1935594750183N11958910WA0036100389
B1936004750183N11958910WA0036100389
B1936014750183N11958910WA0036100389
B1936024750183N11958910WA0036100389
B1936034750183N11958910WA0036100389
B1936044750183N11958910WA0036100389
B1936054750183N11958910WA0036100389
B1936064750183N11958910WA0036100389
B1936074750183N11958910WA0036100389
B1936084750184N11958910WA0036100389
B1936094750184N11958910WA0036100389
B1936104750184N11958910WA0036100389
B1936114750184N11958910WA0036100389
B1936124750183N11958910WA0036100390
B1936134750183N11958910WA0036100390
B1936144750184N11958910WA0036100390
B1936154750184N11958910WA0036100390
B1936164750184N11958909WA0036100390
B1936174750184N11958909WA0036100390
B1936184750184N11958909WA0036100390
B1936194750184N11958910WA0036100390
B1936204750184N11958910WA0036100391
B1936214750184N11958910WA0036100391
B1936224750184N11958910WA0036100391
B1936234750184N11958910WA0036100391
B1936244750184N11958909WA0036100391
B1936254750184N11958909WA0036100390
B1936264750184N11958909WA0036100390
B1936274750184N11958909WA0036100390
B1936284750184N11958909WA0036100391
B1936294750184N11958909WA0036100390
B1936304750184N11958909WA0036100390
B1936314750184N11958909WA0036100390
B1936324750184N11958909WA0036100390
B1936334750184N11958909WA0036100390
LXFM live.flymaster.net version 1.01
LXFM Created 2025-06-22 22:24:44
LXFM flight id 1613585
GA3E4FFBB8042ACA5604B981D50440A96
