AXXX220284
HFDTE230926
HFPLTPILOTINCHARGE:Seth Romanenko
HFCIDCOMPETITIONID:220284
HFFTYFRTYPE:Flymaster task track export
HFGPSGPSDATUM:WGS-84
B1741243832430N11204414WA0323003404
B1741253832429N11204416WA0323003402
B1741263832428N11204420WA0322903402
B1741273832427N11204424WA0322903401
B1741283832426N11204428WA0322903401
B1741293832424N11204432WA0322803402
B1741303832422N11204436WA0322803403
B1741313832421N11204439WA0322803404
B1741323832420N11204443WA0322803404
B1741333832419N11204447WA0322903403
B1741343832417N11204452WA0322903402
B1741353832416N11204457WA0322903401
B1741363832413N11204463WA0322903401
B1741373832410N11204468WA0322903403
B1741383832407N11204473WA0322903405
B1741393832405N11204477WA0322903407
B1741403832404N11204482WA0323003410
B1741413832404N11204486WA0323103413
B1741423832405N11204489WA0323103414
B1741433832407N11204494WA0323303415
B1741443832410N11204498WA0323403416
B1741453832413N11204503WA0323503417
B1741463832416N11204508WA0323603419
B1741473832420N11204513WA0323703420
B1741483832423N11204517WA0323803421
B1741493832427N11204520WA0323903422
B1741503832431N11204524WA0324003423
B1741513832435N11204527WA0324103424
B1741523832439N11204531WA0324203425
B1741533832442N11204535WA0324303425
B1741543832446N11204540WA0324403425
B1741553832450N11204544WA0324503425
B1741563832454N11204548WA0324503425
B1741573832459N11204552WA0324603426
B1741583832464N11204555WA0324603426
B1741593832469N11204559WA0324703426
B1742003832475N11204561WA0324703425
B1742013832481N11204564WA0324803426
B1742023832488N11204566WA0324803426
B1742033832494N11204567WA0324803426
B1742043832501N11204569WA0324903426
B1742053832507N11204569WA0324903425
B1742063832514N11204570WA0324903424
B1742073832522N11204570WA0324903423
B1742083832529N11204569WA0324903423
B1742093832536N11204568WA0324803421
B1742103832544N11204566WA0324803420
B1742113832551N11204564WA0324703419
B1742123832559N11204561WA0324703418
B1742133832566N11204557WA0324603417
B1742143832573N11204554WA0324603417
B1742153832580N11204552WA0324503417
B1742163832587N11204550WA0324503417
B1742173832593N11204549WA0324503416
B1742183832600N11204549WA0324403415
B1742193832605N11204550WA0324303414
B1742203832611N11204552WA0324303412
B1742213832616N11204555WA0324203410
B1742223832621N11204559WA0324103408
B1742233832626N11204563WA0324003407
B1742243832630N11204567WA0323903406
B1742253832634N11204571WA0323803406
B1742263832637N11204575WA0323803406
B1742273832638N11204579WA0323703405
B1742283832638N11204584WA0323603404
B1742293832636N11204588WA0323503402
B1742303832633N11204592WA0323403401
B1742313832629N11204594WA0323303400
B1742323832624N11204596WA0323203400
B1742333832619N11204596WA0323103399
B1742343832614N11204594WA0323103398
B1742353832610N11204592WA0323003397
B1742363832606N11204589WA0322903395
B1742373832602N11204583WA0322803393
B1742383832600N11204575WA0322703391
B1742393832598N11204567WA0322503389
B1742403832598N11204557WA0322403387
B1742413832599N11204547WA0322303386
B1742423832600N11204537WA0322203385
B1742433832601N11204528WA0322103384
B1742443832603N11204518WA0322003384
B1742453832605N11204510WA0321803383
B1742463832610N11204502WA0321703381
B1742473832615N11204495WA0321603379
B1742483832621N11204490WA0321503378
B1742493832627N11204487WA0321403378
B1742503832633N11204486WA0321303377
B1742513832638N11204487WA0321203375
B1742523832643N11204489WA0321103373
B1742533832647N11204493WA0320903371
B1742543832650N11204498WA0320803368
B1742553832652N11204504WA0320503364
B1742563832653N11204510WA0320403361
B1742573832652N11204517WA0320103359
B1742583832651N11204523WA0320003356
B1742593832648N11204529WA0319703355
B1743003832644N11204534WA0319603355
B1743013832641N11204537WA0319403355
B1743023832638N11204539WA0319303354
B1743033832635N11204540WA0319103352
B1743043832630N11204541WA0319003347
B1743053832626N11204543WA0318703343
B1743063832621N11204546WA0318603338
B1743073832615N11204549WA0318303334
B1743083832610N11204553WA0318103330
B1743093832605N11204557WA0317703327
B1743103832599N11204561WA0317503324
B1743113832594N11204565WA0317203322
B1743123832590N11204570WA0317003321
B1743133832585N11204574WA0316703320
B1743143832580N11204578WA0316603319
B1743153832576N11204582WA0316303318
B1743163832571N11204587WA0316203317
B1743173832566N11204592WA0316003316
B1743183832561N11204597WA0315903315
B1743193832557N11204603WA0315703314
B1743203832552N11204608WA0315503312
B1743213832547N11204613WA0315403311
B1743223832543N11204618WA0315303311
B1743233832540N11204623WA0315103311
B1743243832536N11204627WA0315003310
B1743253832533N11204632WA0314903308
B1743263832529N11204637WA0314803305
B1743273832525N11204642WA0314603302
B1743283832520N11204648WA0314503298
B1743293832515N11204654WA0314203296
B1743303832511N11204661WA0314103294
B1743313832506N11204667WA0313803292
B1743323832501N11204673WA0313703291
B1743333832496N11204679WA0313503290
B1743343832492N11204684WA0313303288
B1743353832488N11204689WA0313103285
B1743363832483N11204695WA0313003283
B1743373832479N11204701WA0312803280
B1743383832475N11204707WA0312603277
B1743393832471N11204714WA0312403275
B1743403832467N11204720WA0312203272
B1743413832463N11204727WA0312003269
B1743423832459N11204733WA0311803268
B1743433832455N11204740WA0311603267
B1743443832451N11204746WA0311403267
B1743453832448N11204751WA0311303268
B1743463832445N11204755WA0311203269
B1743473832443N11204759WA0311103270
B1743483832440N11204763WA0311003270
B1743493832438N11204768WA0310903270
B1743503832435N11204773WA0310903269
B1743513832432N11204779WA0310803268
B1743523832430N11204784WA0310803268
B1743533832428N11204790WA0310703269
B1743543832425N11204795WA0310703270
B1743553832423N11204799WA0310703271
B1743563832421N11204803WA0310603272
B1743573832419N11204808WA0310603272
B1743583832416N11204813WA0310603271
B1743593832413N11204817WA0310603271
B1744003832409N11204821WA0310603271
B1744013832405N11204824WA0310603271
B1744023832400N11204826WA0310603271
B1744033832395N11204828WA0310503270
B1744043832390N11204830WA0310503269
B1744053832384N11204831WA0310503268
B1744063832379N11204832WA0310403268
B1744073832373N11204833WA0310403267
B1744083832368N11204833WA0310303267
B1744093832363N11204833WA0310303265
B1744103832357N11204833WA0310203264
B1744113832352N11204833WA0310103262
B1744123832346N11204833WA0310103261
B1744133832340N11204834WA0310003259
B1744143832335N11204835WA0309903259
B1744153832330N11204837WA0309803258
B1744163832326N11204840WA0309703258
B1744173832323N11204843WA0309603256
B1744183832320N11204847WA0309603254
B1744193832315N11204851WA0309403251
B1744203832311N11204855WA0309303247
B1744213832307N11204860WA0309203245
B1744223832304N11204866WA0309003242
B1744233832303N11204872WA0308803240
B1744243832303N11204878WA0308703238
B1744253832303N11204884WA0308503236
B1744263832304N11204890WA0308303234
B1744273832305N11204897WA0308103233
B1744283832307N11204902WA0308003232
B1744293832309N11204907WA0307803231
B1744303832310N11204912WA0307703228
B1744313832312N11204918WA0307403225
B1744323832313N11204925WA0307303220
B1744333832315N11204933WA0307003216
B1744343832317N11204941WA0306803212
B1744353832319N11204948WA0306503210
B1744363832321N11204955WA0306303209
B1744373832322N11204961WA0306003208
B1744383832325N11204967WA0305903207
B1744393832328N11204972WA0305603206
B1744403832331N11204977WA0305503206
B1744413832334N11204981WA0305303207
B1744423832336N11204984WA0305203206
B1744433832339N11204988WA0305103204
B1744443832342N11204992WA0305003202
B1744453832346N11204997WA0304803199
B1744463832349N11205003WA0304603196
B1744473832352N11205009WA0304403194
B1744483832353N11205015WA0304303191
B1744493832353N11205022WA0304003188
B1744503832353N11205030WA0303903186
B1744513832351N11205036WA0303603183
B1744523832348N11205043WA0303503183
B1744533832346N11205048WA0303203184
B1744543832344N11205053WA0303103184
B1744553832342N11205058WA0303003183
B1744563832340N11205063WA0302803182
B1744573832339N11205069WA0302703181
B1744583832339N11205075WA0302603180
B1744593832338N11205081WA0302403178
B1745003832338N11205087WA0302303176
B1745013832338N11205094WA0302203173
B1745023832337N11205100WA0302003171
B1745033832335N11205107WA0301903169
B1745043832334N11205114WA0301703168
B1745053832332N11205122WA0301603166
B1745063832331N11205129WA0301503166
B1745073832329N11205135WA0301303166
B1745083832329N11205140WA0301203167
B1745093832328N11205146WA0301103167
B1745103832328N11205151WA0301103167
B1745113832327N11205156WA0301003167
B1745123832327N11205162WA0300903166
B1745133832327N11205167WA0300803165
B1745143832326N11205174WA0300803163
B1745153832325N11205180WA0300703162
B1745163832324N11205187WA0300603162
B1745173832323N11205193WA0300503161
B1745183832322N11205200WA0300503160
B1745193832321N11205207WA0300403159
B1745203832320N11205214WA0300303158
B1745213832318N11205222WA0300203156
B1745223832317N11205230WA0300203156
B1745233832314N11205236WA0300103156
B1745243832312N11205242WA0300003157
B1745253832311N11205248WA0300003158
B1745263832309N11205253WA0299903158
B1745273832306N11205258WA0299903157
B1745283832304N11205264WA0299903156
B1745293832300N11205269WA0299803154
B1745303832297N11205275WA0299703154
B1745313832294N11205281WA0299703154
B1745323832290N11205287WA0299603153
B1745333832287N11205292WA0299603153
B1745343832284N11205298WA0299603153
B1745353832282N11205304WA0299503152
B1745363832280N11205310WA0299503152
B1745373832278N11205316WA0299403152
B1745383832278N11205322WA0299403152
B1745393832278N11205327WA0299403151
B1745403832278N11205333WA0299303149
B1745413832277N11205340WA0299203146
B1745423832276N11205347WA0299103144
B1745433832275N11205354WA0299003143
B1745443832273N11205361WA0298903142
B1745453832272N11205367WA0298803143
B1745463832269N11205373WA0298803145
B1745473832267N11205377WA0298803146
B1745483832263N11205381WA0298703147
B1745493832259N11205382WA0298703147
B1745503832254N11205382WA0298703146
B1745513832249N11205378WA0298603145
B1745523832246N11205373WA0298603145
B1745533832244N11205366WA0298603144
B1745543832244N11205358WA0298503144
B1745553832247N11205350WA0298503143
B1745563832250N11205343WA0298403142
B1745573832254N11205336WA0298403142
B1745583832258N11205329WA0298303142
B1745593832262N11205323WA0298303143
B1746003832266N11205317WA0298303142
B1746013832271N11205312WA0298203143
B1746023832275N11205307WA0298203143
B1746033832279N11205303WA0298203143
B1746043832284N11205300WA0298203143
B1746053832289N11205297WA0298203144
B1746063832294N11205295WA0298203145
B1746073832299N11205294WA0298203146
B1746083832303N11205294WA0298203146
B1746093832308N11205295WA0298203145
B1746103832313N11205297WA0298203144
B1746113832319N11205301WA0298203141
B1746123832325N11205305WA0298103139
B1746133832330N11205309WA0298003137
B1746143832335N11205313WA0298003136
B1746153832339N11205318WA0297903135
B1746163832342N11205322WA0297803134
B1746173832345N11205327WA0297703133
B1746183832347N11205333WA0297603131
B1746193832349N11205339WA0297503128
B1746203832350N11205346WA0297403126
B1746213832350N11205352WA0297203123
B1746223832350N11205359WA0297103120
B1746233832349N11205367WA0296903117
B1746243832348N11205375WA0296703114
B1746253832346N11205383WA0296503112
B1746263832343N11205390WA0296403110
B1746273832341N11205398WA0296203109
B1746283832338N11205405WA0296003108
B1746293832336N11205412WA0295803107
B1746303832334N11205418WA0295703107
B1746313832331N11205424WA0295603107
B1746323832330N11205430WA0295503106
B1746333832328N11205437WA0295303104
B1746343832326N11205443WA0295303103
B1746353832325N11205450WA0295103102
B1746363832324N11205457WA0295003101
B1746373832322N11205463WA0294903100
B1746383832321N11205470WA0294803098
B1746393832320N11205477WA0294703097
B1746403832318N11205484WA0294603096
B1746413832317N11205491WA0294403095
B1746423832315N11205499WA0294403094
B1746433832313N11205506WA0294203093
B1746443832310N11205513WA0294203093
B1746453832307N11205520WA0294103093
B1746463832304N11205527WA0294003094
B1746473832302N11205534WA0293903094
B1746483832301N11205540WA0293903094
B1746493832300N11205547WA0293903093
B1746503832300N11205554WA0293803092
B1746513832299N11205562WA0293703090
B1746523832297N11205570WA0293703089
B1746533832295N11205578WA0293603089
B1746543832293N11205585WA0293503090
B1746553832291N11205590WA0293503092
B1746563832289N11205595WA0293503094
B1746573832287N11205600WA0293503094
B1746583832286N11205606WA0293503094
B1746593832284N11205612WA0293503093
B1747003832283N11205619WA0293503093
B1747013832281N11205625WA0293503092
B1747023832279N11205631WA0293503091
B1747033832276N11205636WA0293403091
B1747043832272N11205640WA0293403091
B1747053832268N11205644WA0293403092
B1747063832265N11205646WA0293403094
B1747073832261N11205647WA0293403095
B1747083832257N11205647WA0293403096
B1747093832254N11205645WA0293503095
B1747103832251N11205641WA0293503094
B1747113832249N11205635WA0293403092
B1747123832248N11205627WA0293403091
B1747133832248N11205619WA0293403089
B1747143832249N11205610WA0293303089
B1747153832251N11205601WA0293303089
B1747163832253N11205593WA0293303090
B1747173832255N11205585WA0293203091
B1747183832258N11205578WA0293303093
B1747193832262N11205573WA0293303094
B1747203832268N11205569WA0293303094
B1747213832275N11205567WA0293303093
B1747223832282N11205568WA0293303093
B1747233832288N11205571WA0293403094
B1747243832294N11205575WA0293403094
B1747253832299N11205580WA0293403093
B1747263832304N11205587WA0293403093
B1747273832307N11205594WA0293403092
B1747283832310N11205601WA0293403091
B1747293832311N11205609WA0293403089
B1747303832312N11205618WA0293403088
B1747313832312N11205626WA0293303088
B1747323832311N11205634WA0293303088
B1747333832309N11205641WA0293303088
B1747343832307N11205648WA0293303089
B1747353832304N11205654WA0293203089
B1747363832301N11205660WA0293203090
B1747373832298N11205664WA0293303091
B1747383832295N11205668WA0293303093
B1747393832292N11205671WA0293303094
B1747403832289N11205675WA0293403095
B1747413832286N11205679WA0293403096
B1747423832282N11205683WA0293503096
B1747433832278N11205686WA0293503098
B1747443832275N11205688WA0293603100
B1747453832271N11205687WA0293703101
B1747463832268N11205685WA0293703102
B1747473832265N11205680WA0293803103
B1747483832264N11205673WA0293903103
B1747493832264N11205664WA0293903102
B1747503832267N11205655WA0294003102
B1747513832271N11205647WA0294003104
B1747523832276N11205642WA0294103106
B1747533832281N11205639WA0294203109
B1747543832287N11205638WA0294203110
B1747553832294N11205639WA0294303112
B1747563832299N11205643WA0294403112
B1747573832304N11205648WA0294503113
B1747583832307N11205654WA0294603113
B1747593832309N11205662WA0294703114
B1748003832309N11205668WA0294803115
B1748013832308N11205674WA0294903117
B1748023832307N11205680WA0294903118
B1748033832305N11205685WA0295103119
B1748043832303N11205690WA0295103119
B1748053832300N11205695WA0295203119
B1748063832297N11205700WA0295303120
B1748073832294N11205705WA0295403122
B1748083832290N11205708WA0295503123
B1748093832286N11205708WA0295603125
B1748103832282N11205708WA0295703126
B1748113832278N11205705WA0295803127
B1748123832275N11205700WA0295903128
B1748133832272N11205693WA0296003128
B1748143832271N11205684WA0296103127
B1748153832271N11205675WA0296103127
B1748163832274N11205667WA0296203127
B1748173832279N11205661WA0296203127
B1748183832285N11205657WA0296303127
B1748193832292N11205655WA0296303126
B1748203832300N11205656WA0296303126
B1748213832306N11205661WA0296303125
B1748223832310N11205668WA0296303125
B1748233832313N11205676WA0296303125
B1748243832315N11205683WA0296403127
B1748253832315N11205690WA0296403129
B1748263832315N11205696WA0296403131
B1748273832314N11205702WA0296503133
B1748283832313N11205708WA0296603134
B1748293832312N11205713WA0296603135
B1748303832310N11205719WA0296703136
B1748313832309N11205723WA0296803137
B1748323832307N11205728WA0296903138
B1748333832305N11205732WA0297003138
B1748343832303N11205737WA0297003139
B1748353832301N11205741WA0297103139
B1748363832298N11205745WA0297203140
B1748373832295N11205747WA0297303142
B1748383832291N11205749WA0297403144
B1748393832287N11205749WA0297503145
B1748403832283N11205746WA0297603146
B1748413832279N11205741WA0297703146
B1748423832276N11205734WA0297703146
B1748433832274N11205725WA0297803146
B1748443832274N11205716WA0297903147
B1748453832275N11205706WA0297903147
B1748463832277N11205697WA0298003146
B1748473832280N11205687WA0298003146
B1748483832283N11205677WA0298103147
B1748493832286N11205668WA0298103149
B1748503832288N11205660WA0298203150
B1748513832290N11205651WA0298303151
B1748523832290N11205643WA0298303151
B1748533832290N11205634WA0298403151
B1748543832289N11205624WA0298403150
B1748553832288N11205615WA0298503150
B1748563832285N11205607WA0298503151
B1748573832282N11205599WA0298603151
B1748583832279N11205593WA0298603152
B1748593832274N11205588WA0298603153
B1749003832270N11205583WA0298703154
B1749013832265N11205579WA0298703154
B1749023832260N11205576WA0298703154
B1749033832255N11205574WA0298703153
B1749043832250N11205574WA0298703152
B1749053832245N11205574WA0298703151
B1749063832240N11205575WA0298703150
B1749073832235N11205576WA0298703149
B1749083832230N11205578WA0298703148
B1749093832226N11205580WA0298603148
B1749103832222N11205582WA0298603147
B1749113832218N11205585WA0298603147
B1749123832214N11205588WA0298603146
B1749133832211N11205592WA0298503146
B1749143832208N11205595WA0298503147
B1749153832205N11205599WA0298503147
B1749163832201N11205603WA0298503148
B1749173832198N11205607WA0298503148
B1749183832195N11205610WA0298503149
B1749193832192N11205614WA0298603150
B1749203832189N11205617WA0298603151
B1749213832186N11205620WA0298603151
B1749223832183N11205624WA0298703151
B1749233832180N11205628WA0298703151
B1749243832177N11205632WA0298703150
B1749253832174N11205636WA0298703149
B1749263832170N11205640WA0298703149
B1749273832166N11205645WA0298703147
B1749283832163N11205649WA0298703147
B1749293832159N11205653WA0298603147
B1749303832156N11205656WA0298603147
B1749313832153N11205658WA0298603147
B1749323832150N11205660WA0298603146
B1749333832146N11205661WA0298503145
B1749343832142N11205663WA0298503143
B1749353832138N11205664WA0298503142
B1749363832134N11205665WA0298403141
B1749373832129N11205666WA0298303139
B1749383832124N11205667WA0298203137
B1749393832119N11205668WA0298103136
B1749403832114N11205669WA0298103136
B1749413832110N11205670WA0298003135
B1749423832105N11205671WA0297903134
B1749433832100N11205673WA0297803132
B1749443832094N11205675WA0297703130
B1749453832090N11205678WA0297503128
B1749463832085N11205682WA0297403126
B1749473832082N11205688WA0297303124
B1749483832079N11205694WA0297103122
B1749493832079N11205702WA0297003121
B1749503832078N11205710WA0296903120
B1749513832078N11205717WA0296703119
B1749523832080N11205725WA0296603118
B1749533832082N11205732WA0296403118
B1749543832085N11205739WA0296403117
B1749553832088N11205746WA0296203117
B1749563832093N11205751WA0296203117
B1749573832097N11205757WA0296103116
B1749583832102N11205761WA0296003116
B1749593832107N11205765WA0295903116
B1750003832113N11205768WA0295903116
B1750013832119N11205770WA0295803117
B1750023832125N11205770WA0295803117
B1750033832132N11205769WA0295803118
B1750043832138N11205768WA0295803118
B1750053832145N11205768WA0295803118
B1750063832151N11205769WA0295803119
B1750073832156N11205771WA0295803120
B1750083832159N11205775WA0295803120
B1750093832159N11205780WA0295803120
B1750103832158N11205784WA0295803119
B1750113832154N11205786WA0295803117
B1750123832149N11205786WA0295803116
B1750133832142N11205783WA0295803114
B1750143832137N11205777WA0295703114
B1750153832132N11205769WA0295603113
B1750163832129N11205760WA0295603113
B1750173832127N11205750WA0295503112
B1750183832126N11205740WA0295503112
B1750193832125N11205730WA0295503112
B1750203832125N11205719WA0295403111
B1750213832125N11205709WA0295403111
B1750223832125N11205698WA0295303111
B1750233832126N11205687WA0295303111
B1750243832126N11205677WA0295303111
B1750253832128N11205666WA0295303112
B1750263832130N11205657WA0295303112
B1750273832133N11205648WA0295203111
B1750283832137N11205639WA0295203110
B1750293832140N11205630WA0295203108
B1750303832144N11205621WA0295103107
B1750313832148N11205613WA0295103106
B1750323832153N11205604WA0295103106
B1750333832157N11205596WA0295003105
B1750343832162N11205588WA0295003104
B1750353832167N11205579WA0294903104
B1750363832171N11205571WA0294803103
B1750373832176N11205563WA0294803102
B1750383832181N11205555WA0294703101
B1750393832187N11205548WA0294603100
B1750403832193N11205542WA0294603099
B1750413832200N11205537WA0294503098
B1750423832207N11205532WA0294403097
B1750433832214N11205527WA0294303096
B1750443832220N11205524WA0294203096
B1750453832227N11205521WA0294203095
B1750463832234N11205520WA0294103095
B1750473832240N11205518WA0294003093
B1750483832247N11205518WA0294003091
B1750493832254N11205519WA0293903091
B1750503832260N11205520WA0293903091
B1750513832266N11205521WA0293803092
B1750523832272N11205521WA0293803092
B1750533832279N11205522WA0293703092
B1750543832285N11205522WA0293703091
B1750553832291N11205522WA0293603090
B1750563832298N11205523WA0293603089
B1750573832304N11205523WA0293503088
B1750583832311N11205525WA0293503087
B1750593832318N11205527WA0293403085
B1751003832324N11205529WA0293303084
B1751013832330N11205530WA0293303083
B1751023832336N11205532WA0293203083
B1751033832341N11205535WA0293103081
B1751043832346N11205539WA0293003079
B1751053832351N11205544WA0292903076
B1751063832357N11205548WA0292803074
B1751073832362N11205553WA0292603072
B1751083832367N11205558WA0292503071
B1751093832373N11205564WA0292303068
B1751103832378N11205571WA0292203065
B1751113832384N11205578WA0292003062
B1751123832390N11205584WA0291803059
B1751133832397N11205588WA0291603058
B1751143832404N11205591WA0291503057
B1751153832411N11205594WA0291303056
B1751163832418N11205595WA0291103056
B1751173832424N11205596WA0291003056
B1751183832428N11205597WA0290903057
B1751193832432N11205598WA0290803058
B1751203832434N11205600WA0290803058
B1751213832437N11205602WA0290703055
B1751223832442N11205604WA0290603052
B1751233832447N11205605WA0290403049
B1751243832453N11205606WA0290303047
B1751253832459N11205606WA0290203046
B1751263832464N11205607WA0290103045
B1751273832469N11205609WA0289903046
B1751283832473N11205611WA0289803046
B1751293832477N11205613WA0289803046
B1751303832481N11205616WA0289703046
B1751313832485N11205620WA0289603045
B1751323832489N11205623WA0289603045
B1751333832493N11205627WA0289503044
B1751343832497N11205630WA0289403044
B1751353832500N11205633WA0289303044
B1751363832505N11205637WA0289303042
B1751373832510N11205640WA0289203042
B1751383832515N11205644WA0289103041
B1751393832520N11205648WA0289003039
B1751403832527N11205651WA0288903038
B1751413832533N11205654WA0288803037
B1751423832540N11205658WA0288803037
B1751433832546N11205662WA0288703037
B1751443832552N11205665WA0288603039
B1751453832556N11205669WA0288603042
B1751463832559N11205672WA0288603046
B1751473832561N11205675WA0288703047
B1751483832562N11205680WA0288703048
B1751493832562N11205685WA0288803046
B1751503832559N11205692WA0288803044
B1751513832554N11205697WA0288703042
B1751523832548N11205699WA0288703042
B1751533832540N11205698WA0288703042
B1751543832534N11205694WA0288703043
B1751553832529N11205687WA0288703043
B1751563832527N11205679WA0288603044
B1751573832526N11205670WA0288603044
B1751583832526N11205663WA0288603045
B1751593832528N11205656WA0288703046
B1752003832532N11205651WA0288703046
B1752013832535N11205648WA0288703046
B1752023832539N11205645WA0288703046
B1752033832543N11205644WA0288703046
B1752043832548N11205644WA0288703045
B1752053832553N11205644WA0288703044
B1752063832558N11205645WA0288703045
B1752073832563N11205647WA0288703045
B1752083832568N11205648WA0288703046
B1752093832572N11205648WA0288703047
B1752103832576N11205648WA0288703047
B1752113832580N11205648WA0288703047
B1752123832585N11205648WA0288803046
B1752133832590N11205647WA0288803045
B1752143832595N11205647WA0288803045
B1752153832600N11205647WA0288803045
B1752163832605N11205648WA0288703045
B1752173832610N11205649WA0288703044
B1752183832615N11205650WA0288703042
B1752193832619N11205653WA0288603040
B1752203832624N11205656WA0288603038
B1752213832628N11205661WA0288503036
B1752223832632N11205667WA0288403034
B1752233832635N11205674WA0288203033
B1752243832638N11205680WA0288103032
B1752253832641N11205687WA0288003030
B1752263832645N11205695WA0287903027
B1752273832648N11205703WA0287703023
B1752283832652N11205711WA0287603019
B1752293832656N11205719WA0287303016
B1752303832659N11205726WA0287203014
B1752313832663N11205734WA0286903012
B1752323832666N11205741WA0286803009
B1752333832670N11205747WA0286503007
B1752343832675N11205753WA0286303003
B1752353832680N11205760WA0286003000
B1752363832685N11205766WA0285802997
B1752373832691N11205772WA0285502994
B1752383832697N11205778WA0285302991
B1752393832703N11205783WA0285002988
B1752403832710N11205788WA0284802985
B1752413832716N11205793WA0284502982
B1752423832723N11205797WA0284302980
B1752433832730N11205802WA0284002977
B1752443832737N11205805WA0283802975
B1752453832744N11205809WA0283502973
B1752463832751N11205812WA0283402972
B1752473832758N11205815WA0283102971
B1752483832765N11205818WA0282902969
B1752493832772N11205821WA0282702968
B1752503832779N11205824WA0282602966
B1752513832786N11205826WA0282302964
B1752523832793N11205827WA0282202962
B1752533832801N11205828WA0282002961
B1752543832808N11205828WA0281802961
B1752553832815N11205828WA0281702962
B1752563832822N11205827WA0281602964
B1752573832828N11205827WA0281502967
B1752583832832N11205826WA0281502970
B1752593832835N11205826WA0281602974
B1753003832838N11205827WA0281702976
B1753013832841N11205829WA0281802977
B1753023832844N11205832WA0281802977
B1753033832846N11205837WA0281902978
B1753043832846N11205842WA0282002979
B1753053832845N11205847WA0282102981
B1753063832841N11205851WA0282202981
B1753073832836N11205854WA0282302981
B1753083832829N11205854WA0282302980
B1753093832821N11205850WA0282402980
B1753103832815N11205844WA0282402981
B1753113832812N11205836WA0282402982
B1753123832810N11205827WA0282502983
B1753133832811N11205819WA0282502983
B1753143832812N11205811WA0282602983
B1753153832815N11205804WA0282602984
B1753163832819N11205800WA0282702984
B1753173832823N11205797WA0282702986
B1753183832827N11205795WA0282802987
B1753193832831N11205793WA0282802989
B1753203832835N11205793WA0282902990
B1753213832839N11205793WA0283002991
B1753223832842N11205793WA0283102991
B1753233832846N11205794WA0283102992
B1753243832850N11205795WA0283202993
B1753253832853N11205797WA0283302993
B1753263832856N11205799WA0283402994
B1753273832859N11205802WA0283402994
B1753283832863N11205804WA0283502995
B1753293832867N11205806WA0283602994
B1753303832871N11205808WA0283602994
B1753313832876N11205811WA0283602993
B1753323832880N11205815WA0283702992
B1753333832885N11205819WA0283702992
B1753343832890N11205823WA0283702994
B1753353832894N11205827WA0283802996
B1753363832896N11205832WA0283803000
B1753373832896N11205838WA0284003001
B1753383832894N11205845WA0284003000
B1753393832891N11205852WA0284102999
B1753403832886N11205858WA0284102998
B1753413832880N11205862WA0284202998
B1753423832873N11205863WA0284202998
B1753433832866N11205861WA0284202998
B1753443832860N11205856WA0284202997
B1753453832856N11205849WA0284202996
B1753463832852N11205841WA0284202995
B1753473832851N11205833WA0284202995
B1753483832852N11205824WA0284202994
B1753493832856N11205817WA0284202993
B1753503832860N11205810WA0284202994
B1753513832865N11205806WA0284202996
B1753523832869N11205803WA0284202999
B1753533832874N11205801WA0284303001
B1753543832878N11205800WA0284303002
B1753553832883N11205799WA0284403003
B1753563832888N11205799WA0284403002
B1753573832893N11205798WA0284503000
B1753583832899N11205798WA0284502999
B1753593832904N11205800WA0284502998
B1754003832910N11205802WA0284502997
B1754013832915N11205805WA0284402995
B1754023832920N11205808WA0284402991
B1754033832926N11205812WA0284202988
B1754043832931N11205815WA0284202985
B1754053832937N11205819WA0284002982
B1754063832943N11205821WA0283902979
B1754073832949N11205824WA0283702976
B1754083832955N11205826WA0283502974
B1754093832962N11205828WA0283302971
B1754103832968N11205829WA0283102967
B1754113832975N11205831WA0282802964
B1754123832983N11205832WA0282602960
B1754133832991N11205832WA0282302956
B1754143832999N11205833WA0282102953
B1754153833006N11205833WA0281802949
B1754163833014N11205833WA0281602946
B1754173833021N11205833WA0281202944
B1754183833029N11205835WA0281002940
B1754193833036N11205836WA0280702938
B1754203833043N11205838WA0280502936
B1754213833050N11205840WA0280202934
B1754223833057N11205842WA0280002932
B1754233833064N11205845WA0279702929
B1754243833071N11205847WA0279502928
B1754253833078N11205848WA0279202925
B1754263833085N11205850WA0279002923
B1754273833092N11205852WA0278802921
B1754283833100N11205854WA0278602919
B1754293833108N11205856WA0278302917
B1754303833115N11205859WA0278202918
B1754313833120N11205861WA0278002919
B1754323833126N11205863WA0277902920
B1754333833131N11205865WA0277802921
B1754343833136N11205867WA0277702922
B1754353833141N11205868WA0277602922
B1754363833146N11205869WA0277602922
B1754373833152N11205870WA0277502921
B1754383833158N11205871WA0277502921
B1754393833164N11205871WA0277402921
B1754403833169N11205870WA0277402922
B1754413833173N11205869WA0277402922
B1754423833177N11205868WA0277302923
B1754433833181N11205868WA0277302922
B1754443833185N11205868WA0277302920
B1754453833190N11205870WA0277202917
B1754463833194N11205872WA0277102914
B1754473833199N11205876WA0277002912
B1754483833204N11205879WA0276902912
B1754493833208N11205881WA0276802911
B1754503833212N11205884WA0276702910
B1754513833216N11205888WA0276602909
B1754523833220N11205892WA0276502909
B1754533833224N11205896WA0276502910
B1754543833228N11205899WA0276402910
B1754553833232N11205902WA0276302910
B1754563833236N11205906WA0276302909
B1754573833241N11205910WA0276202908
B1754583833245N11205914WA0276202906
B1754593833250N11205917WA0276102904
B1755003833255N11205920WA0276002901
B1755013833259N11205924WA0275802898
B1755023833263N11205929WA0275702896
B1755033833268N11205934WA0275502893
B1755043833272N11205939WA0275402890
B1755053833277N11205943WA0275202888
B1755063833281N11205947WA0275002885
B1755073833287N11205950WA0274802883
B1755083833293N11205953WA0274602880
B1755093833299N11205956WA0274402876
B1755103833307N11205958WA0274202873
B1755113833315N11205960WA0273902869
B1755123833324N11205961WA0273702866
B1755133833332N11205962WA0273402863
B1755143833341N11205963WA0273202861
B1755153833350N11205963WA0272902859
B1755163833359N11205964WA0272802858
B1755173833367N11205965WA0272502857
B1755183833375N11205966WA0272302855
B1755193833384N11205967WA0272102854
B1755203833392N11205968WA0272002852
B1755213833400N11205968WA0271702849
B1755223833408N11205969WA0271602846
B1755233833417N11205970WA0271302843
B1755243833426N11205972WA0271102840
B1755253833434N11205974WA0270902837
B1755263833442N11205978WA0270702834
B1755273833450N11205982WA0270402832
B1755283833457N11205987WA0270202831
B1755293833464N11205992WA0270002829
B1755303833470N11205998WA0269802828
B1755313833476N11206004WA0269602827
B1755323833481N11206010WA0269402826
B1755333833486N11206017WA0269202824
B1755343833491N11206024WA0269002822
B1755353833495N11206031WA0268802820
B1755363833500N11206039WA0268702818
B1755373833504N11206047WA0268402816
B1755383833507N11206055WA0268302815
B1755393833511N11206063WA0268102813
B1755403833514N11206071WA0267902811
B1755413833517N11206079WA0267702809
B1755423833520N11206087WA0267502807
B1755433833523N11206095WA0267302805
B1755443833526N11206103WA0267202803
B1755453833528N11206111WA0267002801
B1755463833530N11206119WA0266802799
B1755473833533N11206127WA0266602797
B1755483833535N11206135WA0266402795
B1755493833537N11206144WA0266202793
B1755503833539N11206153WA0266102791
B1755513833542N11206162WA0265802789
B1755523833543N11206171WA0265702787
B1755533833545N11206180WA0265402785
B1755543833546N11206190WA0265302783
B1755553833547N11206199WA0265102781
B1755563833548N11206208WA0264902780
B1755573833549N11206217WA0264702779
B1755583833550N11206226WA0264602779
B1755593833551N11206234WA0264402779
B1756003833552N11206242WA0264302778
B1756013833553N11206250WA0264202777
B1756023833553N11206259WA0264102775
B1756033833554N11206268WA0263902773
B1756043833554N11206277WA0263802771
B1756053833554N11206287WA0263602769
B1756063833553N11206297WA0263502768
B1756073833553N11206306WA0263302767
B1756083833551N11206315WA0263202766
B1756093833550N11206323WA0263102766
B1756103833548N11206331WA0263002765
B1756113833546N11206338WA0262802764
B1756123833544N11206346WA0262702762
B1756133833542N11206354WA0262602759
B1756143833541N11206363WA0262502758
B1756153833541N11206371WA0262302756
B1756163833542N11206380WA0262202755
B1756173833543N11206388WA0262002754
B1756183833545N11206396WA0261902752
B1756193833548N11206403WA0261802751
B1756203833552N11206409WA0261702750
B1756213833558N11206415WA0261502750
B1756223833564N11206418WA0261402749
B1756233833571N11206418WA0261302748
B1756243833579N11206417WA0261202746
B1756253833587N11206415WA0261102745
B1756263833594N11206412WA0261002744
B1756273833601N11206407WA0260802742
B1756283833609N11206402WA0260702741
B1756293833616N11206397WA0260602739
B1756303833623N11206393WA0260502737
B1756313833631N11206389WA0260302736
B1756323833640N11206387WA0260202734
B1756333833648N11206386WA0260002732
B1756343833657N11206387WA0259902731
B1756353833665N11206389WA0259802731
B1756363833672N11206392WA0259702730
B1756373833678N11206397WA0259502729
B1756383833683N11206402WA0259402727
B1756393833687N11206409WA0259302725
B1756403833690N11206417WA0259202724
B1756413833692N11206425WA0259002722
B1756423833692N11206433WA0258902720
B1756433833691N11206442WA0258802718
B1756443833690N11206450WA0258702717
B1756453833687N11206458WA0258502715
B1756463833684N11206465WA0258402714
B1756473833680N11206472WA0258202712
B1756483833676N11206479WA0258102711
B1756493833672N11206485WA0257902709
B1756503833668N11206491WA0257802708
B1756513833664N11206498WA0257702707
B1756523833661N11206504WA0257502705
B1756533833658N11206511WA0257402704
B1756543833654N11206518WA0257302703
B1756553833652N11206524WA0257202702
B1756563833649N11206531WA0257102701
B1756573833646N11206538WA0256902698
B1756583833643N11206545WA0256802695
B1756593833639N11206553WA0256602692
B1757003833636N11206561WA0256502688
B1757013833632N11206570WA0256302684
B1757023833628N11206580WA0256102680
B1757033833623N11206589WA0255802677
B1757043833619N11206599WA0255602674
B1757053833615N11206608WA0255302672
B1757063833611N11206617WA0255102670
B1757073833606N11206625WA0254902669
B1757083833602N11206633WA0254702667
B1757093833597N11206641WA0254502665
B1757103833593N11206649WA0254302663
B1757113833589N11206657WA0254002660
B1757123833586N11206666WA0253902657
B1757133833583N11206676WA0253602655
B1757143833580N11206685WA0253402653
B1757153833578N11206695WA0253202651
B1757163833576N11206704WA0253002650
B1757173833574N11206712WA0252802649
B1757183833572N11206719WA0252602649
B1757193833570N11206726WA0252402647
B1757203833569N11206734WA0252302645
B1757213833567N11206742WA0252102643
B1757223833565N11206751WA0252002641
B1757233833563N11206759WA0251802639
B1757243833561N11206768WA0251702637
B1757253833559N11206777WA0251502635
B1757263833557N11206786WA0251302634
B1757273833555N11206794WA0251102632
B1757283833552N11206802WA0251002631
B1757293833549N11206810WA0250802630
B1757303833547N11206818WA0250702628
B1757313833545N11206826WA0250602627
B1757323833544N11206834WA0250402627
B1757333833544N11206841WA0250302626
B1757343833544N11206848WA0250202627
B1757353833545N11206853WA0250102627
B1757363833545N11206859WA0250002627
B1757373833546N11206866WA0249902626
B1757383833548N11206872WA0249902625
B1757393833550N11206879WA0249802624
B1757403833553N11206885WA0249702623
B1757413833556N11206891WA0249602622
B1757423833559N11206897WA0249502621
B1757433833561N11206904WA0249402621
B1757443833564N11206910WA0249302620
B1757453833565N11206917WA0249202619
B1757463833567N11206924WA0249102617
B1757473833568N11206931WA0249002616
B1757483833568N11206938WA0248902615
B1757493833568N11206944WA0248802615
B1757503833568N11206950WA0248802615
B1757513833568N11206956WA0248702614
B1757523833567N11206961WA0248602613
B1757533833566N11206967WA0248502611
B1757543833565N11206974WA0248402609
B1757553833563N11206981WA0248202607
B1757563833562N11206989WA0248102604
B1757573833560N11206998WA0248002602
B1757583833559N11207006WA0247902600
B1757593833558N11207015WA0247702598
B1758003833557N11207024WA0247602597
B1758013833556N11207032WA0247402596
B1758023833555N11207039WA0247302596
B1758033833555N11207047WA0247202596
B1758043833554N11207054WA0247102596
B1758053833554N11207060WA0247002596
B1758063833553N11207066WA0246902596
B1758073833553N11207072WA0246902595
B1758083833552N11207078WA0246802594
B1758093833551N11207084WA0246702592
B1758103833550N11207090WA0246602591
B1758113833549N11207097WA0246502588
B1758123833547N11207105WA0246402587
B1758133833546N11207112WA0246302585
B1758143833544N11207119WA0246202584
B1758153833543N11207126WA0246102584
B1758163833541N11207132WA0246002583
B1758173833540N11207138WA0245902583
B1758183833539N11207145WA0245802582
B1758193833538N11207151WA0245702581
B1758203833537N11207157WA0245602580
B1758213833535N11207164WA0245502579
B1758223833534N11207170WA0245402578
B1758233833533N11207176WA0245302577
B1758243833531N11207183WA0245302576
B1758253833529N11207189WA0245102574
B1758263833526N11207195WA0245002572
B1758273833523N11207202WA0244902569
B1758283833519N11207209WA0244702566
B1758293833516N11207216WA0244502565
B1758303833512N11207223WA0244402564
B1758313833509N11207229WA0244302564
B1758323833506N11207235WA0244202564
B1758333833503N11207242WA0244102563
B1758343833500N11207248WA0244002562
B1758353833497N11207256WA0243902561
B1758363833494N11207263WA0243802560
B1758373833492N11207271WA0243702559
B1758383833490N11207279WA0243602558
B1758393833489N11207287WA0243502557
B1758403833488N11207296WA0243402556
B1758413833487N11207304WA0243302556
B1758423833487N11207312WA0243202556
B1758433833487N11207320WA0243102556
B1758443833487N11207328WA0243102555
B1758453833486N11207336WA0243002554
B1758463833484N11207344WA0242902552
B1758473833481N11207352WA0242802551
B1758483833479N11207360WA0242702551
B1758493833476N11207367WA0242702552
B1758503833474N11207373WA0242602552
B1758513833473N11207379WA0242602553
B1758523833472N11207385WA0242602553
B1758533833470N11207392WA0242502552
B1758543833469N11207399WA0242502550
B1758553833468N11207406WA0242402549
B1758563833466N11207412WA0242402547
B1758573833464N11207419WA0242202545
B1758583833461N11207425WA0242202544
B1758593833458N11207431WA0242102544
B1759003833455N11207436WA0242002543
B1759013833451N11207441WA0241902542
B1759023833447N11207446WA0241802540
B1759033833442N11207451WA0241702538
B1759043833436N11207457WA0241502534
B1759053833430N11207463WA0241302530
B1759063833424N11207470WA0241202527
B1759073833417N11207476WA0241002525
B1759083833410N11207482WA0240802524
B1759093833404N11207488WA0240602523
B1759103833397N11207493WA0240502523
B1759113833391N11207497WA0240302522
B1759123833385N11207502WA0240202520
B1759133833379N11207507WA0240002518
B1759143833373N11207513WA0239902516
B1759153833367N11207519WA0239702514
B1759163833361N11207526WA0239502512
B1759173833354N11207532WA0239302510
B1759183833348N11207537WA0239202508
B1759193833341N11207543WA0238902506
B1759203833335N11207550WA0238802504
B1759213833329N11207557WA0238602503
B1759223833323N11207564WA0238402502
B1759233833318N11207571WA0238202501
B1759243833314N11207578WA0238102500
B1759253833309N11207586WA0238002499
B1759263833305N11207594WA0237802497
B1759273833300N11207602WA0237702496
B1759283833296N11207611WA0237602494
B1759293833292N11207620WA0237402491
B1759303833287N11207628WA0237202489
B1759313833282N11207637WA0237002487
B1759323833277N11207645WA0236902485
B1759333833271N11207653WA0236702483
B1759343833266N11207661WA0236602482
B1759353833260N11207668WA0236402480
B1759363833253N11207674WA0236202478
B1759373833247N11207681WA0236002476
B1759383833240N11207687WA0235902474
B1759393833233N11207693WA0235702473
B1759403833226N11207699WA0235602471
B1759413833219N11207704WA0235402469
B1759423833211N11207709WA0235202467
B1759433833204N11207714WA0235002465
B1759443833196N11207718WA0234902463
B1759453833188N11207723WA0234702461
B1759463833180N11207727WA0234602459
B1759473833173N11207733WA0234402459
B1759483833168N11207739WA0234302459
B1759493833165N11207746WA0234102459
B1759503833162N11207753WA0234002458
B1759513833161N11207761WA0233902456
B1759523833161N11207769WA0233802455
B1759533833164N11207776WA0233602453
B1759543833168N11207782WA0233502450
B1759553833174N11207786WA0233302447
B1759563833181N11207787WA0233202444
B1759573833189N11207785WA0232902440
B1759583833196N11207782WA0232802438
B1759593833202N11207778WA0232602438
B1800003833208N11207773WA0232402437
B1800013833213N11207768WA0232202436
B1800023833218N11207763WA0232102435
B1800033833222N11207756WA0231902433
B1800043833227N11207749WA0231802430
B1800053833232N11207742WA0231602428
B1800063833236N11207735WA0231402426
B1800073833241N11207729WA0231202424
B1800083833246N11207722WA0231102423
B1800093833252N11207717WA0230902421
B1800103833258N11207711WA0230702418
B1800113833264N11207706WA0230502417
B1800123833270N11207701WA0230402415
B1800133833276N11207696WA0230202413
B1800143833282N11207692WA0230002411
B1800153833289N11207687WA0229802410
B1800163833295N11207683WA0229702408
B1800173833302N11207679WA0229402406
B1800183833309N11207676WA0229302405
B1800193833315N11207673WA0229102404
B1800203833322N11207671WA0228902402
B1800213833330N11207668WA0228702398
B1800223833338N11207666WA0228502394
B1800233833346N11207664WA0228302389
B1800243833355N11207661WA0228102384
B1800253833365N11207658WA0227702380
B1800263833374N11207654WA0227502378
B1800273833382N11207651WA0227202376
B1800283833391N11207647WA0226902374
B1800293833399N11207643WA0226602372
B1800303833406N11207640WA0226402371
B1800313833414N11207637WA0226202369
B1800323833421N11207634WA0226002368
B1800333833428N11207631WA0225802368
B1800343833435N11207629WA0225602368
B1800353833441N11207626WA0225402367
B1800363833447N11207623WA0225202364
B1800373833454N11207619WA0225002361
B1800383833462N11207615WA0224902357
B1800393833469N11207612WA0224602355
B1800403833476N11207609WA0224502353
B1800413833483N11207606WA0224202351
B1800423833490N11207603WA0224102350
B1800433833497N11207599WA0223802348
B1800443833504N11207596WA0223702346
B1800453833511N11207592WA0223502345
B1800463833517N11207587WA0223302344
B1800473833523N11207582WA0223202344
B1800483833530N11207577WA0223002343
B1800493833536N11207572WA0222902342
B1800503833542N11207567WA0222802342
B1800513833548N11207563WA0222602343
B1800523833552N11207560WA0222602347
B1800533833556N11207558WA0222602349
B1800543833559N11207556WA0222602351
B1800553833562N11207555WA0222702353
B1800563833564N11207554WA0222702355
B1800573833568N11207553WA0222802355
B1800583833572N11207551WA0222802354
B1800593833576N11207550WA0222902353
B1801003833580N11207548WA0222902353
B1801013833584N11207545WA0222902354
B1801023833588N11207543WA0222902354
B1801033833591N11207539WA0223002354
B1801043833593N11207535WA0223002354
B1801053833596N11207530WA0223002354
B1801063833597N11207524WA0223002354
B1801073833598N11207518WA0223002353
B1801083833597N11207511WA0223002354
B1801093833596N11207504WA0223002355
B1801103833594N11207498WA0223002356
B1801113833591N11207494WA0223102358
B1801123833587N11207491WA0223102358
B1801133833582N11207488WA0223202358
B1801143833576N11207487WA0223202358
B1801153833570N11207486WA0223202360
B1801163833564N11207486WA0223302363
B1801173833560N11207485WA0223402366
B1801183833556N11207482WA0223502369
B1801193833554N11207476WA0223602369
B1801203833552N11207470WA0223702371
B1801213833553N11207463WA0223802371
B1801223833557N11207458WA0223902370
B1801233833562N11207456WA0223902368
B1801243833567N11207456WA0224002366
B1801253833573N11207458WA0224002365
B1801263833577N11207463WA0224002366
B1801273833580N11207467WA0224002368
B1801283833582N11207472WA0224002369
B1801293833584N11207477WA0224102369
B1801303833586N11207482WA0224102369
B1801313833590N11207486WA0224102368
B1801323833593N11207490WA0224102367
B1801333833598N11207494WA0224102367
B1801343833602N11207498WA0224102366
B1801353833606N11207502WA0224102367
B1801363833610N11207505WA0224102367
B1801373833613N11207508WA0224102366
B1801383833616N11207513WA0224102365
B1801393833617N11207519WA0224102364
B1801403833617N11207526WA0224102361
B1801413833616N11207533WA0224002360
B1801423833612N11207540WA0223902358
B1801433833607N11207545WA0223902357
B1801443833601N11207548WA0223802355
B1801453833594N11207550WA0223702354
B1801463833587N11207551WA0223602353
B1801473833580N11207550WA0223602353
B1801483833573N11207549WA0223502353
B1801493833566N11207546WA0223402352
B1801503833560N11207542WA0223302352
B1801513833555N11207537WA0223302351
B1801523833552N11207531WA0223202351
B1801533833551N11207525WA0223202352
B1801543833551N11207520WA0223102352
B1801553833551N11207514WA0223102353
B1801563833552N11207509WA0223102354
B1801573833552N11207503WA0223102355
B1801583833553N11207497WA0223102356
B1801593833552N11207491WA0223202357
B1802003833551N11207485WA0223202358
B1802013833551N11207479WA0223202359
B1802023833551N11207473WA0223302359
B1802033833551N11207467WA0223302359
B1802043833553N11207462WA0223302359
B1802053833555N11207456WA0223302358
B1802063833558N11207451WA0223302358
B1802073833561N11207447WA0223302357
B1802083833565N11207444WA0223302356
B1802093833569N11207442WA0223302355
B1802103833574N11207441WA0223302355
B1802113833578N11207441WA0223202354
B1802123833583N11207441WA0223202353
B1802133833588N11207443WA0223102353
B1802143833592N11207446WA0223102351
B1802153833596N11207450WA0223002350
B1802163833600N11207454WA0223002349
B1802173833604N11207458WA0222902348
B1802183833609N11207461WA0222802347
B1802193833614N11207463WA0222802347
B1802203833618N11207464WA0222702346
B1802213833623N11207464WA0222602344
B1802223833627N11207463WA0222502343
B1802233833631N11207459WA0222402340
B1802243833635N11207455WA0222302338
B1802253833639N11207450WA0222202335
B1802263833643N11207444WA0222002333
B1802273833647N11207439WA0221902331
B1802283833652N11207434WA0221702330
B1802293833657N11207430WA0221602329
B1802303833662N11207427WA0221502327
B1802313833667N11207424WA0221302325
B1802323833673N11207421WA0221202323
B1802333833678N11207419WA0221002322
B1802343833684N11207417WA0220902321
B1802353833689N11207415WA0220802320
B1802363833695N11207414WA0220602319
B1802373833700N11207413WA0220502317
B1802383833706N11207411WA0220302315
B1802393833712N11207408WA0220202312
B1802403833718N11207405WA0220002309
B1802413833725N11207401WA0219802307
B1802423833731N11207396WA0219602304
B1802433833738N11207391WA0219402302
B1802443833744N11207385WA0219202300
B1802453833750N11207380WA0219102298
B1802463833755N11207375WA0218902297
B1802473833761N11207370WA0218702296
B1802483833766N11207365WA0218502294
B1802493833772N11207359WA0218302292
B1802503833777N11207354WA0218202290
B1802513833782N11207348WA0218002288
B1802523833788N11207342WA0217802285
B1802533833794N11207336WA0217702283
B1802543833800N11207330WA0217402281
B1802553833806N11207326WA0217302280
B1802563833813N11207321WA0217102278
B1802573833819N11207316WA0216902277
B1802583833826N11207312WA0216702276
B1802593833832N11207307WA0216602275
B1803003833838N11207303WA0216402274
B1803013833844N11207300WA0216302273
B1803023833850N11207296WA0216102273
B1803033833856N11207294WA0216102272
B1803043833862N11207291WA0215902271
B1803053833869N11207289WA0215802270
B1803063833875N11207288WA0215702268
B1803073833882N11207286WA0215602266
B1803083833889N11207285WA0215402265
B1803093833896N11207285WA0215302263
B1803103833903N11207284WA0215102261
B1803113833910N11207284WA0215002259
B1803123833917N11207284WA0214902257
B1803133833924N11207284WA0214702255
B1803143833932N11207283WA0214502253
B1803153833940N11207283WA0214402251
B1803163833947N11207281WA0214202250
B1803173833955N11207280WA0214102249
B1803183833962N11207279WA0214002248
B1803193833969N11207277WA0213902247
B1803203833977N11207275WA0213702247
B1803213833983N11207273WA0213602247
B1803223833989N11207270WA0213502247
B1803233833994N11207266WA0213402247
B1803243833999N11207263WA0213302248
B1803253834003N11207260WA0213302248
B1803263834007N11207257WA0213302249
B1803273834011N11207253WA0213302249
B1803283834015N11207249WA0213302250
B1803293834018N11207245WA0213302251
B1803303834022N11207242WA0213302251
B1803313834025N11207239WA0213302251
B1803323834029N11207234WA0213302251
B1803333834033N11207229WA0213302250
B1803343834037N11207225WA0213202249
B1803353834040N11207220WA0213202248
B1803363834043N11207214WA0213202247
B1803373834044N11207207WA0213102246
B1803383834044N11207200WA0213102246
B1803393834044N11207193WA0213002245
B1803403834042N11207187WA0213002245
B1803413834039N11207182WA0212902245
B1803423834035N11207178WA0212902245
B1803433834031N11207176WA0212902245
B1803443834026N11207175WA0212802244
B1803453834020N11207173WA0212802244
B1803463834015N11207173WA0212802244
B1803473834009N11207173WA0212702244
B1803483834003N11207174WA0212702243
B1803493833998N11207177WA0212702243
B1803503833992N11207180WA0212602243
B1803513833987N11207184WA0212602243
B1803523833983N11207188WA0212602243
B1803533833979N11207192WA0212602243
B1803543833975N11207198WA0212602242
B1803553833973N11207204WA0212502240
B1803563833971N11207211WA0212502239
B1803573833970N11207218WA0212402238
B1803583833970N11207224WA0212402237
B1803593833971N11207230WA0212302236
B1804003833971N11207236WA0212202235
B1804013833973N11207242WA0212202232
B1804023833975N11207248WA0212002230
B1804033833978N11207255WA0211902229
B1804043833981N11207261WA0211802228
B1804053833984N11207266WA0211702228
B1804063833987N11207271WA0211702229
B1804073833991N11207275WA0211602229
B1804083833996N11207278WA0211502228
B1804093834001N11207280WA0211502228
B1804103834006N11207281WA0211402227
B1804113834011N11207282WA0211402227
B1804123834017N11207281WA0211302228
B1804133834022N11207280WA0211302228
B1804143834026N11207279WA0211302229
B1804153834030N11207277WA0211302231
B1804163834034N11207275WA0211302232
B1804173834038N11207273WA0211302233
B1804183834042N11207270WA0211402234
B1804193834046N11207268WA0211402235
B1804203834050N11207267WA0211402235
B1804213834054N11207266WA0211502236
B1804223834059N11207266WA0211502236
B1804233834063N11207267WA0211602237
B1804243834068N11207269WA0211602237
B1804253834072N11207272WA0211602239
B1804263834076N11207277WA0211702240
B1804273834077N11207284WA0211802241
B1804283834077N11207290WA0211802241
B1804293834076N11207298WA0211902240
B1804303834072N11207304WA0211902240
B1804313834068N11207310WA0211902239
B1804323834063N11207315WA0212002240
B1804333834057N11207319WA0212002241
B1804343834052N11207322WA0212102243
B1804353834047N11207323WA0212102245
B1804363834042N11207322WA0212202245
B1804373834036N11207319WA0212202244
B1804383834031N11207314WA0212302244
B1804393834028N11207307WA0212302245
B1804403834027N11207301WA0212402246
B1804413834026N11207295WA0212402247
B1804423834027N11207289WA0212502248
B1804433834028N11207283WA0212502249
B1804443834030N11207279WA0212602251
B1804453834033N11207275WA0212702252
B1804463834036N11207272WA0212802253
B1804473834041N11207271WA0212802254
B1804483834046N11207272WA0212902255
B1804493834050N11207275WA0213002257
B1804503834052N11207280WA0213102259
B1804513834053N11207286WA0213202260
B1804523834052N11207293WA0213302259
B1804533834049N11207300WA0213402258
B1804543834045N11207307WA0213502258
B1804553834040N11207314WA0213502258
B1804563834035N11207319WA0213602259
B1804573834029N11207322WA0213702260
B1804583834022N11207323WA0213702261
B1804593834016N11207322WA0213802262
B1805003834011N11207318WA0213902263
B1805013834007N11207312WA0214002264
B1805023834003N11207306WA0214102265
B1805033834001N11207299WA0214102266
B1805043834001N11207293WA0214202267
B1805053834001N11207287WA0214302268
B1805063834002N11207280WA0214402269
B1805073834004N11207274WA0214502269
B1805083834006N11207267WA0214602271
B1805093834010N11207263WA0214602273
B1805103834014N11207261WA0214702275
B1805113834019N11207263WA0214802276
B1805123834022N11207267WA0214902277
B1805133834025N11207273WA0215002278
B1805143834025N11207281WA0215102278
B1805153834023N11207288WA0215202279
B1805163834019N11207294WA0215302280
B1805173834014N11207298WA0215402281
B1805183834007N11207301WA0215502282
B1805193834001N11207300WA0215502282
B1805203833995N11207297WA0215702283
B1805213833990N11207292WA0215702284
B1805223833986N11207285WA0215802285
B1805233833984N11207278WA0215902287
B1805243833984N11207271WA0216002288
B1805253833985N11207265WA0216102290
B1805263833989N11207261WA0216202290
B1805273833993N11207258WA0216302291
B1805283833997N11207258WA0216402292
B1805293834002N11207260WA0216502293
B1805303834006N11207263WA0216602293
B1805313834009N11207267WA0216702294
B1805323834011N11207273WA0216802295
B1805333834012N11207280WA0216902296
B1805343834012N11207287WA0217002297
B1805353834011N11207294WA0217002298
B1805363834007N11207301WA0217202300
B1805373834002N11207306WA0217202301
B1805383833997N11207308WA0217402302
B1805393833991N11207308WA0217502304
B1805403833985N11207305WA0217602304
B1805413833980N11207300WA0217702304
B1805423833976N11207294WA0217802305
B1805433833974N11207288WA0217802306
B1805443833973N11207281WA0218002308
B1805453833973N11207275WA0218002309
B1805463833974N11207269WA0218202309
B1805473833977N11207263WA0218202310
B1805483833980N11207259WA0218402312
B1805493833985N11207257WA0218402312
B1805503833989N11207258WA0218502313
B1805513833994N11207261WA0218602313
B1805523833997N11207265WA0218702314
B1805533834001N11207271WA0218802315
B1805543834002N11207277WA0218902317
B1805553834002N11207284WA0218902318
B1805563834001N11207291WA0219002319
B1805573833999N11207297WA0219102321
B1805583833995N11207303WA0219202322
B1805593833990N11207307WA0219302323
B1806003833983N11207309WA0219402323
B1806013833977N11207308WA0219502324
B1806023833971N11207306WA0219602324
B1806033833966N11207302WA0219602324
B1806043833962N11207297WA0219702325
B1806053833959N11207291WA0219802325
B1806063833956N11207284WA0219902326
B1806073833955N11207277WA0219902326
B1806083833955N11207270WA0220002327
B1806093833955N11207263WA0220002328
B1806103833957N11207256WA0220102329
B1806113833960N11207251WA0220202329
B1806123833963N11207246WA0220202330
B1806133833967N11207243WA0220302330
B1806143833971N11207240WA0220302330
B1806153833976N11207238WA0220402331
B1806163833980N11207237WA0220402331
B1806173833985N11207237WA0220502331
B1806183833990N11207238WA0220502333
B1806193833994N11207239WA0220602334
B1806203833998N11207242WA0220702334
B1806213834002N11207245WA0220702334
B1806223834005N11207250WA0220702334
B1806233834008N11207255WA0220802334
B1806243834011N11207261WA0220802335
B1806253834014N11207267WA0220902338
B1806263834015N11207273WA0221002340
B1806273834016N11207280WA0221102342
B1806283834015N11207287WA0221202341
B1806293834014N11207294WA0221202340
B1806303834012N11207302WA0221302339
B1806313834010N11207308WA0221302339
B1806323834008N11207314WA0221302339
B1806333834004N11207320WA0221402339
B1806343833999N11207325WA0221402339
B1806353833994N11207330WA0221402339
B1806363833988N11207332WA0221402340
B1806373833981N11207333WA0221502340
B1806383833975N11207333WA0221502340
B1806393833968N11207330WA0221502340
B1806403833962N11207327WA0221602341
B1806413833958N11207322WA0221602342
B1806423833955N11207316WA0221602343
B1806433833952N11207309WA0221702343
B1806443833950N11207302WA0221702342
B1806453833949N11207295WA0221702342
B1806463833949N11207288WA0221702342
B1806473833949N11207281WA0221802342
B1806483833950N11207274WA0221802342
B1806493833950N11207267WA0221802342
B1806503833950N11207260WA0221802343
B1806513833950N11207254WA0221802344
B1806523833949N11207248WA0221902344
B1806533833949N11207242WA0221902345
B1806543833950N11207236WA0221902344
B1806553833952N11207231WA0221902344
B1806563833955N11207225WA0221902343
B1806573833958N11207221WA0221902342
B1806583833963N11207217WA0221902341
B1806593833967N11207213WA0221902341
B1807003833972N11207210WA0221802343
B1807013833977N11207208WA0221902346
B1807023833981N11207208WA0221902349
B1807033833985N11207211WA0222002350
B1807043833988N11207215WA0222102351
B1807053833991N11207221WA0222102351
B1807063833993N11207228WA0222202351
B1807073833993N11207235WA0222302351
B1807083833990N11207241WA0222302351
B1807093833985N11207247WA0222302349
B1807103833979N11207250WA0222302347
B1807113833973N11207252WA0222302346
B1807123833966N11207253WA0222302346
B1807133833959N11207253WA0222302347
B1807143833953N11207253WA0222302348
B1807153833948N11207253WA0222302350
B1807163833943N11207253WA0222302350
B1807173833937N11207255WA0222302350
B1807183833932N11207257WA0222402349
B1807193833928N11207261WA0222402348
B1807203833923N11207265WA0222402347
B1807213833919N11207270WA0222402346
B1807223833915N11207277WA0222302345
B1807233833913N11207284WA0222302344
B1807243833912N11207291WA0222302343
B1807253833912N11207298WA0222202343
B1807263833913N11207304WA0222202343
B1807273833915N11207309WA0222202343
B1807283833918N11207314WA0222102342
B1807293833923N11207317WA0222102340
B1807303833928N11207319WA0222002339
B1807313833933N11207319WA0222002338
B1807323833937N11207318WA0221902338
B1807333833942N11207315WA0221902338
B1807343833945N11207311WA0221802337
B1807353833948N11207306WA0221802337
B1807363833950N11207301WA0221802338
B1807373833952N11207296WA0221802339
B1807383833954N11207291WA0221802340
B1807393833956N11207286WA0221802340
B1807403833958N11207281WA0221802341
B1807413833961N11207277WA0221802341
B1807423833963N11207274WA0221802341
B1807433833967N11207272WA0221802340
B1807443833970N11207269WA0221802338
B1807453833974N11207265WA0221802337
B1807463833978N11207260WA0221702335
B1807473833981N11207254WA0221702333
B1807483833983N11207248WA0221602332
B1807493833985N11207242WA0221502331
B1807503833987N11207235WA0221402330
B1807513833988N11207228WA0221402330
B1807523833988N11207222WA0221302329
B1807533833989N11207215WA0221202329
B1807543833990N11207209WA0221202328
B1807553833991N11207203WA0221102327
B1807563833993N11207197WA0221002325
B1807573833995N11207191WA0220902323
B1807583833997N11207183WA0220802321
B1807593834000N11207176WA0220702321
B1808003834003N11207170WA0220602322
B1808013834006N11207166WA0220602324
B1808023834010N11207162WA0220502326
B1808033834014N11207160WA0220502326
B1808043834018N11207158WA0220502327
B1808053834022N11207156WA0220502326
B1808063834027N11207153WA0220502326
B1808073834032N11207150WA0220502325
B1808083834036N11207145WA0220402324
B1808093834041N11207142WA0220402322
B1808103834045N11207139WA0220302321
B1808113834050N11207137WA0220302319
B1808123834055N11207135WA0220202317
B1808133834060N11207132WA0220102314
B1808143834065N11207128WA0220002312
B1808153834070N11207123WA0219902310
B1808163834075N11207117WA0219702308
B1808173834079N11207111WA0219602307
B1808183834082N11207105WA0219402307
B1808193834085N11207099WA0219402305
B1808203834087N11207092WA0219202304
B1808213834091N11207085WA0219102302
B1808223834094N11207078WA0218902299
B1808233834098N11207071WA0218802298
B1808243834102N11207065WA0218702296
B1808253834106N11207059WA0218502295
B1808263834110N11207053WA0218402294
B1808273834114N11207048WA0218302293
B1808283834118N11207042WA0218102291
B1808293834122N11207037WA0218002290
B1808303834127N11207032WA0217902288
B1808313834132N11207027WA0217702287
B1808323834137N11207023WA0217602285
B1808333834142N11207019WA0217502284
B1808343834148N11207016WA0217302282
B1808353834153N11207012WA0217202281
B1808363834158N11207008WA0217002280
B1808373834162N11207005WA0216902279
B1808383834166N11207001WA0216702278
B1808393834170N11206997WA0216602277
B1808403834175N11206993WA0216502276
B1808413834180N11206989WA0216402275
B1808423834184N11206985WA0216302273
B1808433834190N11206981WA0216202272
B1808443834195N11206976WA0216002270
B1808453834201N11206971WA0215902268
B1808463834206N11206965WA0215802265
B1808473834212N11206959WA0215602264
B1808483834218N11206953WA0215502263
B1808493834224N11206947WA0215402264
B1808503834229N11206941WA0215302265
B1808513834234N11206936WA0215202268
B1808523834238N11206932WA0215202270
B1808533834243N11206931WA0215202273
B1808543834246N11206931WA0215202274
B1808553834250N11206933WA0215302273
B1808563834253N11206937WA0215302271
B1808573834256N11206942WA0215202269
B1808583834257N11206949WA0215202268
B1808593834257N11206957WA0215202266
B1809003834255N11206964WA0215102265
B1809013834252N11206970WA0215002265
B1809023834248N11206975WA0214902264
B1809033834243N11206979WA0214902263
B1809043834237N11206982WA0214802262
B1809053834232N11206982WA0214802261
B1809063834226N11206980WA0214702260
B1809073834220N11206977WA0214602259
B1809083834215N11206974WA0214502259
B1809093834210N11206969WA0214502259
B1809103834205N11206964WA0214402259
B1809113834201N11206958WA0214402260
B1809123834197N11206953WA0214402260
B1809133834194N11206947WA0214402261
B1809143834190N11206942WA0214402261
B1809153834186N11206936WA0214402261
B1809163834182N11206930WA0214402262
B1809173834177N11206924WA0214402262
B1809183834174N11206919WA0214402262
B1809193834171N11206913WA0214402262
B1809203834168N11206907WA0214402262
B1809213834167N11206900WA0214402262
B1809223834168N11206894WA0214402261
B1809233834171N11206887WA0214302259
B1809243834174N11206881WA0214202256
B1809253834179N11206875WA0214202254
B1809263834185N11206871WA0214002252
B1809273834190N11206868WA0213902251
B1809283834196N11206867WA0213802251
B1809293834201N11206866WA0213802250
B1809303834206N11206865WA0213602250
B1809313834211N11206865WA0213602249
B1809323834217N11206865WA0213502247
B1809333834223N11206865WA0213402246
B1809343834230N11206865WA0213302242
B1809353834237N11206864WA0213202239
B1809363834244N11206863WA0213002236
B1809373834251N11206861WA0212902234
B1809383834258N11206858WA0212702233
B1809393834264N11206855WA0212602232
B1809403834270N11206852WA0212402231
B1809413834277N11206849WA0212302230
B1809423834282N11206845WA0212102229
B1809433834288N11206843WA0212002228
B1809443834294N11206840WA0211902227
B1809453834300N11206840WA0211702225
B1809463834305N11206841WA0211602224
B1809473834310N11206846WA0211502223
B1809483834313N11206852WA0211302221
B1809493834315N11206860WA0211202218
B1809503834317N11206869WA0211002216
B1809513834318N11206878WA0210902213
B1809523834318N11206888WA0210702210
B1809533834317N11206898WA0210602208
B1809543834317N11206908WA0210402206
B1809553834315N11206918WA0210202205
B1809563834314N11206928WA0210002203
B1809573834312N11206938WA0209902201
B1809583834310N11206947WA0209702200
B1809593834308N11206957WA0209602198
B1810003834306N11206965WA0209402197
B1810013834304N11206974WA0209302195
B1810023834301N11206983WA0209102193
B1810033834297N11206992WA0208902191
B1810043834295N11207001WA0208702189
B1810053834292N11207010WA0208602188
B1810063834291N11207020WA0208402186
B1810073834290N11207029WA0208302184
B1810083834290N11207039WA0208102183
B1810093834290N11207048WA0208002181
B1810103834291N11207057WA0207802180
B1810113834291N11207067WA0207702178
B1810123834291N11207077WA0207502176
B1810133834292N11207087WA0207302173
B1810143834292N11207097WA0207102172
B1810153834292N11207107WA0207002170
B1810163834292N11207117WA0206802168
B1810173834291N11207127WA0206702167
B1810183834289N11207137WA0206502165
B1810193834287N11207147WA0206402164
B1810203834285N11207156WA0206202163
B1810213834283N11207166WA0206102162
B1810223834281N11207175WA0205902160
B1810233834278N11207185WA0205802158
B1810243834275N11207194WA0205602156
B1810253834272N11207204WA0205502154
B1810263834269N11207214WA0205302151
B1810273834266N11207223WA0205102149
B1810283834262N11207233WA0204902147
B1810293834259N11207242WA0204802146
B1810303834255N11207251WA0204602144
B1810313834251N11207260WA0204502142
B1810323834247N11207268WA0204302141
B1810333834242N11207277WA0204102139
B1810343834238N11207285WA0204002137
B1810353834233N11207294WA0203802136
B1810363834228N11207302WA0203602134
B1810373834224N11207310WA0203502133
B1810383834219N11207318WA0203302132
B1810393834213N11207325WA0203202130
B1810403834208N11207333WA0203002128
B1810413834202N11207340WA0202902126
B1810423834196N11207348WA0202702125
B1810433834191N11207356WA0202602124
B1810443834186N11207364WA0202402124
B1810453834181N11207371WA0202302125
B1810463834177N11207379WA0202202126
B1810473834174N11207385WA0202102128
B1810483834170N11207392WA0202002130
B1810493834167N11207398WA0202002131
B1810503834164N11207403WA0202002131
B1810513834161N11207409WA0202002131
B1810523834158N11207415WA0202002130
B1810533834157N11207422WA0202002130
B1810543834155N11207428WA0202002131
B1810553834155N11207434WA0202002132
B1810563834155N11207439WA0202002132
B1810573834156N11207444WA0202002132
B1810583834157N11207450WA0202002131
B1810593834159N11207456WA0202002129
B1811003834162N11207461WA0202002127
B1811013834166N11207467WA0201902125
B1811023834170N11207471WA0201802124
B1811033834174N11207475WA0201802123
B1811043834178N11207478WA0201702123
B1811053834182N11207480WA0201602122
B1811063834187N11207482WA0201502121
B1811073834191N11207484WA0201502119
B1811083834197N11207486WA0201402117
B1811093834202N11207489WA0201302115
B1811103834207N11207492WA0201102114
B1811113834212N11207497WA0201002112
B1811123834216N11207501WA0200902110
B1811133834220N11207506WA0200802108
B1811143834223N11207512WA0200602106
B1811153834226N11207517WA0200502104
B1811163834229N11207523WA0200302102
B1811173834231N11207530WA0200202100
B1811183834232N11207536WA0200002099
B1811193834234N11207543WA0199902097
B1811203834236N11207550WA0199702095
B1811213834238N11207556WA0199602093
B1811223834241N11207562WA0199402091
B1811233834243N11207568WA0199202089
B1811243834246N11207574WA0199002086
B1811253834249N11207581WA0198902084
B1811263834252N11207588WA0198702082
B1811273834254N11207595WA0198502080
B1811283834255N11207602WA0198302078
B1811293834256N11207610WA0198102076
B1811303834257N11207617WA0197902074
B1811313834257N11207624WA0197802073
B1811323834257N11207632WA0197502071
B1811333834256N11207639WA0197402069
B1811343834254N11207646WA0197202068
B1811353834252N11207652WA0197102067
B1811363834249N11207658WA0196902066
B1811373834246N11207664WA0196802065
B1811383834243N11207669WA0196602064
B1811393834239N11207675WA0196502063
B1811403834235N11207680WA0196402064
B1811413834231N11207686WA0196302064
B1811423834227N11207691WA0196202064
B1811433834224N11207696WA0196202064
B1811443834221N11207701WA0196102063
B1811453834217N11207707WA0196002061
B1811463834214N11207713WA0195902059
B1811473834212N11207720WA0195802056
B1811483834210N11207727WA0195702054
B1811493834210N11207735WA0195602053
B1811503834211N11207742WA0195402051
B1811513834212N11207749WA0195302050
B1811523834214N11207755WA0195202048
B1811533834217N11207761WA0195102047
B1811543834221N11207766WA0194902045
B1811553834225N11207771WA0194802044
B1811563834230N11207774WA0194602042
B1811573834235N11207777WA0194502042
B1811583834240N11207780WA0194402041
B1811593834245N11207782WA0194302041
B1812003834250N11207784WA0194202042
B1812013834254N11207785WA0194102042
B1812023834259N11207786WA0194102041
B1812033834264N11207786WA0194002040
B1812043834269N11207786WA0193902039
B1812053834274N11207785WA0193902038
B1812063834279N11207785WA0193802037
B1812073834285N11207786WA0193702036
B1812083834291N11207786WA0193602034
B1812093834297N11207786WA0193502032
B1812103834302N11207786WA0193402032
B1812113834308N11207785WA0193302032
B1812123834313N11207784WA0193202032
B1812133834317N11207783WA0193102032
B1812143834322N11207783WA0193002030
B1812153834327N11207783WA0193002028
B1812163834332N11207784WA0192802026
B1812173834337N11207785WA0192802025
B1812183834342N11207787WA0192602023
B1812193834348N11207789WA0192502022
B1812203834353N11207791WA0192402021
B1812213834359N11207793WA0192302020
B1812223834364N11207795WA0192202019
B1812233834369N11207798WA0192102017
B1812243834373N11207800WA0191902017
B1812253834377N11207804WA0191902015
B1812263834381N11207808WA0191702014
B1812273834384N11207813WA0191602012
B1812283834387N11207818WA0191502011
B1812293834389N11207825WA0191402010
B1812303834391N11207831WA0191302009
B1812313834392N11207838WA0191202008
B1812323834393N11207845WA0191102007
B1812333834394N11207851WA0191002006
B1812343834395N11207858WA0190902005
B1812353834397N11207865WA0190802005
B1812363834397N11207872WA0190702005
B1812373834398N11207879WA0190602006
B1812383834397N11207886WA0190602007
B1812393834397N11207892WA0190502007
B1812403834394N11207897WA0190502007
B1812413834391N11207902WA0190502007
B1812423834387N11207907WA0190402006
B1812433834382N11207912WA0190402006
B1812443834378N11207915WA0190402006
B1812453834373N11207919WA0190302007
B1812463834369N11207921WA0190302007
B1812473834363N11207923WA0190302007
B1812483834358N11207923WA0190302007
B1812493834352N11207923WA0190302006
B1812503834347N11207921WA0190302006
B1812513834343N11207917WA0190302006
B1812523834339N11207912WA0190202006
B1812533834337N11207906WA0190202005
B1812543834336N11207900WA0190202005
B1812553834336N11207893WA0190202005
B1812563834337N11207886WA0190202005
B1812573834339N11207880WA0190102004
B1812583834341N11207873WA0190102004
B1812593834344N11207866WA0190102005
B1813003834346N11207860WA0190102005
B1813013834348N11207854WA0190102006
B1813023834350N11207848WA0190102006
B1813033834353N11207843WA0190102005
B1813043834356N11207838WA0190002003
B1813053834360N11207832WA0190002001
B1813063834363N11207827WA0189902000
B1813073834367N11207823WA0189901999
B1813083834372N11207818WA0189801997
B1813093834377N11207815WA0189701996
B1813103834383N11207813WA0189601995
B1813113834388N11207811WA0189601995
B1813123834393N11207809WA0189401994
B1813133834398N11207809WA0189401994
B1813143834403N11207809WA0189301993
B1813153834408N11207810WA0189201991
B1813163834413N11207813WA0189101989
B1813173834417N11207816WA0189001988
B1813183834422N11207819WA0188901987
B1813193834425N11207824WA0188801986
B1813203834429N11207828WA0188701984
B1813213834432N11207834WA0188601982
B1813223834434N11207840WA0188501981
B1813233834437N11207846WA0188401980
B1813243834439N11207853WA0188301979
B1813253834441N11207860WA0188201978
B1813263834443N11207867WA0188001976
B1813273834445N11207874WA0188001975
B1813283834447N11207881WA0187801975
B1813293834448N11207888WA0187801975
B1813303834449N11207895WA0187701975
B1813313834450N11207903WA0187601975
B1813323834451N11207910WA0187601976
B1813333834452N11207917WA0187501976
B1813343834453N11207924WA0187501976
B1813353834454N11207931WA0187501975
B1813363834456N11207937WA0187401975
B1813373834459N11207943WA0187401974
B1813383834463N11207949WA0187401973
B1813393834467N11207954WA0187301973
B1813403834471N11207958WA0187301972
B1813413834474N11207962WA0187201971
B1813423834479N11207964WA0187101970
B1813433834483N11207965WA0187101968
B1813443834489N11207965WA0187001965
B1813453834494N11207965WA0186901963
B1813463834500N11207966WA0186701961
B1813473834506N11207967WA0186601960
B1813483834512N11207969WA0186501959
B1813493834518N11207971WA0186401958
B1813503834523N11207974WA0186201958
B1813513834528N11207977WA0186101958
B1813523834533N11207980WA0186001959
B1813533834537N11207983WA0186001958
B1813543834542N11207986WA0185901957
B1813553834547N11207990WA0185801956
B1813563834551N11207994WA0185701954
B1813573834556N11207999WA0185601952
B1813583834561N11208003WA0185501952
B1813593834566N11208007WA0185401951
B1814003834571N11208011WA0185301950
B1814013834576N11208015WA0185301949
B1814023834581N11208019WA0185201949
B1814033834585N11208023WA0185101949
B1814043834590N11208027WA0185001948
B1814053834595N11208031WA0184901947
B1814063834599N11208035WA0184901946
B1814073834604N11208040WA0184801945
B1814083834609N11208044WA0184701945
B1814093834613N11208048WA0184701944
B1814103834617N11208053WA0184601944
B1814113834621N11208058WA0184501943
B1814123834625N11208064WA0184401942
B1814133834628N11208069WA0184301942
B1814143834631N11208074WA0184301941
B1814153834634N11208080WA0184201940
B1814163834637N11208086WA0184101938
B1814173834640N11208093WA0184001936
B1814183834643N11208099WA0183901935
B1814193834646N11208105WA0183801933
B1814203834650N11208110WA0183701931
B1814213834654N11208114WA0183601930
B1814223834659N11208118WA0183401928
B1814233834664N11208121WA0183301927
B1814243834670N11208122WA0183101925
B1814253834676N11208123WA0183001922
B1814263834682N11208124WA0182801920
B1814273834689N11208124WA0182701918
B1814283834695N11208124WA0182501917
B1814293834701N11208123WA0182401916
B1814303834708N11208123WA0182201914
B1814313834713N11208122WA0182101914
B1814323834718N11208120WA0182001914
B1814333834723N11208119WA0181901915
B1814343834726N11208117WA0181801916
B1814353834730N11208114WA0181701918
B1814363834733N11208111WA0181701918
B1814373834736N11208107WA0181701919
B1814383834739N11208102WA0181601919
B1814393834741N11208096WA0181601919
B1814403834741N11208089WA0181601919
B1814413834739N11208081WA0181601920
B1814423834736N11208075WA0181601920
B1814433834730N11208069WA0181601920
B1814443834724N11208066WA0181601921
B1814453834718N11208066WA0181601922
B1814463834713N11208068WA0181701923
B1814473834708N11208072WA0181701923
B1814483834705N11208078WA0181701924
B1814493834704N11208085WA0181801925
B1814503834706N11208090WA0181801927
B1814513834708N11208094WA0181901928
B1814523834712N11208097WA0182001930
B1814533834716N11208099WA0182001931
B1814543834720N11208101WA0182101932
B1814553834724N11208102WA0182201933
B1814563834728N11208102WA0182301934
B1814573834732N11208102WA0182301935
B1814583834736N11208101WA0182401935
B1814593834740N11208099WA0182501936
B1815003834744N11208096WA0182601936
B1815013834747N11208092WA0182601937
B1815023834749N11208086WA0182701937
B1815033834750N11208080WA0182701938
B1815043834750N11208073WA0182801938
B1815053834750N11208066WA0182801938
B1815063834748N11208059WA0182901937
B1815073834745N11208053WA0182901937
B1815083834741N11208047WA0182901936
B1815093834736N11208042WA0182901934
B1815103834730N11208038WA0182901932
B1815113834724N11208035WA0182901932
B1815123834718N11208034WA0182901932
B1815133834711N11208035WA0182801931
B1815143834706N11208037WA0182801932
B1815153834701N11208040WA0182801932
B1815163834696N11208045WA0182801932
B1815173834692N11208050WA0182801933
B1815183834689N11208055WA0182801933
B1815193834687N11208062WA0182801934
B1815203834686N11208068WA0182801934
B1815213834686N11208075WA0182801936
B1815223834685N11208080WA0182901938
B1815233834685N11208085WA0182901939
B1815243834684N11208090WA0183001940
B1815253834681N11208096WA0183001940
B1815263834678N11208101WA0183101939
B1815273834673N11208106WA0183101938
B1815283834668N11208108WA0183101937
B1815293834663N11208108WA0183101936
B1815303834658N11208104WA0183101934
B1815313834655N11208099WA0183001932
B1815323834654N11208093WA0183001930
B1815333834655N11208085WA0182901927
B1815343834658N11208079WA0182801924
B1815353834661N11208072WA0182701921
B1815363834665N11208067WA0182501921
B1815373834669N11208062WA0182501922
B1815383834673N11208057WA0182401924
B1815393834675N11208053WA0182401926
B1815403834677N11208048WA0182401928
B1815413834679N11208043WA0182401930
B1815423834681N11208038WA0182401931
B1815433834683N11208033WA0182501931
B1815443834685N11208029WA0182501932
B1815453834688N11208025WA0182501932
B1815463834692N11208022WA0182501931
B1815473834696N11208020WA0182501930
B1815483834700N11208018WA0182501930
B1815493834704N11208018WA0182501929
B1815503834709N11208018WA0182501928
B1815513834713N11208018WA0182401926
B1815523834718N11208019WA0182401925
B1815533834722N11208021WA0182401924
B1815543834726N11208022WA0182301923
B1815553834730N11208025WA0182201923
B1815563834734N11208027WA0182201921
B1815573834738N11208030WA0182101920
B1815583834742N11208034WA0182001919
B1815593834745N11208038WA0181901917
B1816003834749N11208042WA0181801915
B1816013834753N11208046WA0181701914
B1816023834756N11208051WA0181601913
B1816033834760N11208056WA0181501912
B1816043834763N11208060WA0181401912
B1816053834766N11208065WA0181301911
B1816063834769N11208069WA0181201911
B1816073834772N11208074WA0181201910
B1816083834774N11208079WA0181101909
B1816093834777N11208084WA0181001908
B1816103834780N11208088WA0180901907
B1816113834783N11208093WA0180901907
B1816123834786N11208098WA0180801907
B1816133834789N11208102WA0180701907
B1816143834792N11208107WA0180601907
B1816153834795N11208111WA0180601906
B1816163834799N11208116WA0180501905
B1816173834803N11208121WA0180501904
B1816183834807N11208125WA0180401904
B1816193834812N11208129WA0180301904
B1816203834816N11208132WA0180301904
B1816213834820N11208135WA0180201903
B1816223834825N11208137WA0180201902
B1816233834830N11208140WA0180101900
B1816243834835N11208142WA0180001899
B1816253834840N11208144WA0180001898
B1816263834846N11208146WA0179901897
B1816273834851N11208148WA0179801896
B1816283834857N11208150WA0179801896
B1816293834862N11208152WA0179701896
B1816303834866N11208153WA0179701896
B1816313834871N11208154WA0179601896
B1816323834875N11208156WA0179601895
B1816333834879N11208157WA0179501894
B1816343834884N11208160WA0179501892
B1816353834888N11208163WA0179401891
B1816363834892N11208166WA0179301890
B1816373834897N11208169WA0179201888
B1816383834902N11208171WA0179101887
B1816393834907N11208174WA0179001885
B1816403834911N11208177WA0178901884
B1816413834916N11208180WA0178801882
B1816423834921N11208183WA0178701880
B1816433834927N11208186WA0178601877
B1816443834933N11208189WA0178401875
B1816453834939N11208192WA0178301873
B1816463834944N11208195WA0178101872
B1816473834949N11208198WA0178001871
B1816483834954N11208201WA0177801868
B1816493834959N11208204WA0177701866
B1816503834964N11208208WA0177501863
B1816513834969N11208211WA0177401861
B1816523834974N11208214WA0177201859
B1816533834979N11208217WA0177001857
B1816543834985N11208219WA0176801854
B1816553834990N11208222WA0176601852
B1816563834995N11208225WA0176401850
B1816573835000N11208229WA0176301848
B1816583835005N11208233WA0176001846
B1816593835010N11208237WA0175901844
B1817003835015N11208240WA0175701843
B1817013835019N11208244WA0175501841
B1817023835023N11208248WA0175301841
B1817033835026N11208252WA0175201839
B1817043835031N11208257WA0175001838
B1817053835035N11208261WA0174901836
B1817063835040N11208266WA0174701835
B1817073835045N11208270WA0174601834
B1817083835050N11208273WA0174401835
B1817093835054N11208276WA0174301836
B1817103835058N11208278WA0174301837
B1817113835061N11208279WA0174201839
B1817123835065N11208281WA0174201839
B1817133835069N11208282WA0174101838
B1817143835074N11208284WA0174101838
B1817153835078N11208286WA0174001837
B1817163835082N11208288WA0174001837
B1817173835086N11208292WA0174001837
B1817183835089N11208297WA0173901837
B1817193835090N11208303WA0173901836
B1817203835090N11208310WA0173901835
B1817213835088N11208317WA0173801834
B1817223835083N11208323WA0173701833
B1817233835078N11208326WA0173701832
B1817243835072N11208328WA0173601832
B1817253835066N11208328WA0173601833
B1817263835061N11208327WA0173601834
B1817273835055N11208326WA0173601835
B1817283835050N11208324WA0173601834
B1817293835044N11208321WA0173601834
B1817303835038N11208320WA0173601835
B1817313835033N11208321WA0173601836
B1817323835028N11208324WA0173601837
B1817333835023N11208329WA0173601837
B1817343835020N11208336WA0173701837
B1817353835018N11208343WA0173701837
B1817363835019N11208350WA0173701837
B1817373835022N11208356WA0173701838
B1817383835026N11208361WA0173701838
B1817393835030N11208364WA0173801839
B1817403835034N11208365WA0173801840
B1817413835039N11208365WA0173801841
B1817423835042N11208364WA0173901842
B1817433835046N11208362WA0173901842
B1817443835049N11208359WA0173901842
B1817453835052N11208355WA0173901843
B1817463835055N11208350WA0174001843
B1817473835056N11208344WA0174001844
B1817483835056N11208338WA0174001844
B1817493835054N11208332WA0174101844
B1817503835052N11208326WA0174101844
B1817513835049N11208319WA0174101844
B1817523835045N11208314WA0174101843
B1817533835040N11208309WA0174101844
B1817543835035N11208306WA0174201846
B1817553835029N11208303WA0174201847
B1817563835024N11208302WA0174201848
B1817573835018N11208303WA0174301848
B1817583835012N11208305WA0174301849
B1817593835006N11208308WA0174301849
B1818003835002N11208313WA0174401850
B1818013834999N11208320WA0174401850
B1818023834998N11208328WA0174501850
B1818033834998N11208336WA0174501849
B1818043835000N11208343WA0174501850
B1818053835004N11208348WA0174501851
B1818063835008N11208350WA0174601852
B1818073835013N11208351WA0174601852
B1818083835017N11208349WA0174601852
B1818093835021N11208346WA0174701852
B1818103835025N11208342WA0174701853
B1818113835027N11208337WA0174701852
B1818123835029N11208331WA0174701852
B1818133835030N11208325WA0174801851
B1818143835031N11208318WA0174801852
B1818153835031N11208311WA0174801852
B1818163835030N11208305WA0174801853
B1818173835029N11208299WA0174901854
B1818183835026N11208293WA0174901855
B1818193835022N11208288WA0174901854
B1818203835017N11208283WA0174901853
B1818213835011N11208279WA0174901852
B1818223835005N11208276WA0174901852
B1818233834998N11208274WA0174901853
B1818243834992N11208275WA0175001854
B1818253834986N11208277WA0175001855
B1818263834982N11208280WA0175001857
B1818273834977N11208284WA0175001856
B1818283834973N11208288WA0175101856
B1818293834969N11208291WA0175101854
B1818303834964N11208296WA0175101852
B1818313834960N11208301WA0175001851
B1818323834957N11208306WA0175001851
B1818333834954N11208313WA0175001850
B1818343834953N11208320WA0174901850
B1818353834954N11208327WA0174901849
B1818363834956N11208333WA0174801848
B1818373834960N11208338WA0174801848
B1818383834964N11208342WA0174701847
B1818393834970N11208343WA0174601847
B1818403834975N11208342WA0174601846
B1818413834980N11208341WA0174501846
B1818423834985N11208339WA0174501847
B1818433834990N11208337WA0174501849
B1818443834994N11208335WA0174501851
B1818453834998N11208332WA0174501851
B1818463835003N11208330WA0174501852
B1818473835007N11208328WA0174501853
B1818483835011N11208329WA0174601855
B1818493835014N11208332WA0174601856
B1818503835015N11208338WA0174701856
B1818513835015N11208346WA0174701854
B1818523835013N11208354WA0174701853
B1818533835008N11208361WA0174701852
B1818543835002N11208365WA0174601852
B1818553834996N11208366WA0174601853
B1818563834990N11208365WA0174601853
B1818573834985N11208362WA0174601854
B1818583834981N11208358WA0174701855
B1818593834979N11208353WA0174701855
B1819003834977N11208347WA0174701854
B1819013834977N11208340WA0174701853
B1819023834977N11208333WA0174701854
B1819033834978N11208327WA0174701856
B1819043834980N11208322WA0174701856
B1819053834983N11208317WA0174801857
B1819063834987N11208314WA0174801856
B1819073834992N11208312WA0174801856
B1819083834997N11208311WA0174901857
B1819093835002N11208313WA0174901858
B1819103835006N11208316WA0174901859
B1819113835009N11208321WA0175001859
B1819123835010N11208327WA0175001860
B1819133835011N11208335WA0175001860
B1819143835009N11208342WA0175101859
B1819153835006N11208349WA0175101858
B1819163835002N11208355WA0175101858
B1819173834996N11208359WA0175001857
B1819183834989N11208361WA0175001856
B1819193834983N11208361WA0175001854
B1819203834977N11208359WA0174901854
B1819213834971N11208354WA0174901854
B1819223834967N11208349WA0174801854
B1819233834964N11208344WA0174801856
B1819243834961N11208339WA0174801857
B1819253834958N11208335WA0174801858
B1819263834955N11208330WA0174801860
B1819273834952N11208326WA0174901860
B1819283834949N11208322WA0174901861
B1819293834945N11208318WA0174901861
B1819303834942N11208314WA0174901861
B1819313834939N11208310WA0174901860
B1819323834935N11208306WA0174901859
B1819333834931N11208302WA0174901858
B1819343834928N11208297WA0174901856
B1819353834925N11208291WA0174801855
B1819363834924N11208286WA0174801855
B1819373834924N11208280WA0174701853
B1819383834926N11208274WA0174701851
B1819393834929N11208269WA0174601848
B1819403834933N11208266WA0174501846
B1819413834938N11208263WA0174401844
B1819423834943N11208262WA0174301843
B1819433834948N11208261WA0174201843
B1819443834952N11208261WA0174101844
B1819453834956N11208260WA0174101845
B1819463834959N11208259WA0174001846
B1819473834962N11208256WA0174001846
B1819483834964N11208252WA0174001846
B1819493834967N11208247WA0174001845
B1819503834968N11208240WA0173901844
B1819513834968N11208233WA0173901844
B1819523834967N11208227WA0173901844
B1819533834966N11208222WA0173801844
B1819543834963N11208217WA0173801843
B1819553834960N11208212WA0173801842
B1819563834956N11208207WA0173701841
B1819573834952N11208204WA0173701840
B1819583834947N11208201WA0173601839
B1819593834943N11208199WA0173601837
B1820003834937N11208198WA0173501835
B1820013834932N11208199WA0173401833
B1820023834927N11208202WA0173301831
B1820033834922N11208207WA0173201829
B1820043834918N11208213WA0173101828
B1820053834915N11208220WA0173001827
B1820063834913N11208226WA0172801827
B1820073834913N11208232WA0172801826
B1820083834914N11208237WA0172601824
B1820093834916N11208243WA0172501821
B1820103834920N11208247WA0172401819
B1820113834925N11208250WA0172301818
B1820123834929N11208252WA0172101817
B1820133834934N11208252WA0172001817
B1820143834938N11208250WA0171901818
B1820153834941N11208247WA0171901818
B1820163834944N11208242WA0171801817
B1820173834946N11208237WA0171701816
B1820183834948N11208232WA0171601816
B1820193834951N11208226WA0171601815
B1820203834953N11208221WA0171501814
B1820213834956N11208215WA0171501813
B1820223834959N11208209WA0171401812
B1820233834962N11208203WA0171301811
B1820243834965N11208197WA0171201811
B1820253834968N11208191WA0171201811
B1820263834972N11208185WA0171101811
B1820273834974N11208179WA0171101812
B1820283834977N11208174WA0171101812
B1820293834979N11208169WA0171101813
B1820303834981N11208164WA0171101813
B1820313834984N11208160WA0171001811
B1820323834987N11208155WA0171001809
B1820333834990N11208150WA0171001807
B1820343834993N11208143WA0170901805
B1820353834994N11208137WA0170801804
B1820363834995N11208130WA0170701803
B1820373834995N11208122WA0170601801
B1820383834996N11208114WA0170501799
B1820393834997N11208106WA0170401799
B1820403834999N11208100WA0170301799
B1820413835001N11208094WA0170201800
B1820423835002N11208089WA0170201801
B1820433835004N11208084WA0170201802
B1820443835005N11208080WA0170101802
B1820453835007N11208075WA0170101800
B1820463835010N11208071WA0170001799
B1820473835012N11208066WA0170001796
B1820483835015N11208061WA0169901794
B1820493835019N11208057WA0169801792
B1820503835022N11208053WA0169601789
B1820513835026N11208049WA0169501787
B1820523835030N11208047WA0169401786
B1820533835034N11208045WA0169301784
B1820543835039N11208043WA0169101783
B1820553835043N11208042WA0169101783
B1820563835047N11208041WA0168901782
B1820573835050N11208041WA0168901782
B1820583835055N11208040WA0168701780
B1820593835059N11208041WA0168701779
B1821003835063N11208042WA0168501777
B1821013835068N11208044WA0168401775
B1821023835072N11208047WA0168301773
B1821033835076N11208050WA0168201770
B1821043835081N11208053WA0168001768
B1821053835084N11208057WA0167901767
B1821063835088N11208062WA0167701766
B1821073835091N11208067WA0167601764
B1821083835094N11208072WA0167501764
B1821093835097N11208076WA0167401765
B1821103835099N11208081WA0167301765
B1821113835102N11208085WA0167201765
B1821123835104N11208089WA0167101765
B1821133835106N11208093WA0167101764
B1821143835109N11208097WA0167001762
B1821153835111N11208101WA0166901761
B1821163835115N11208106WA0166801759
B1821173835118N11208110WA0166701757
B1821183835122N11208114WA0166601756
B1821193835125N11208118WA0166501754
B1821203835128N11208122WA0166401753
B1821213835131N11208126WA0166301751
B1821223835134N11208131WA0166201749
B1821233835137N11208135WA0166101747
B1821243835140N11208140WA0165901745
B1821253835143N11208145WA0165801743
B1821263835147N11208148WA0165601740
B1821273835151N11208152WA0165501738
B1821283835155N11208154WA0165301736
B1821293835159N11208155WA0165101735
B1821303835163N11208155WA0165001734
B1821313835168N11208155WA0164801733
B1821323835172N11208155WA0164701732
B1821333835176N11208156WA0164601730
B1821343835181N11208156WA0164401728
B1821353835186N11208157WA0164201726
B1821363835191N11208158WA0164101724
B1821373835195N11208160WA0163901722
B1821383835199N11208163WA0163701720
B1821393835203N11208165WA0163601719
B1821403835207N11208167WA0163401717
B1821413835211N11208168WA0163301716
B1821423835215N11208169WA0163101714
B1821433835219N11208169WA0163001713
B1821443835223N11208167WA0162801710
B1821453835227N11208165WA0162701707
B1821463835231N11208163WA0162501705
B1821473835236N11208161WA0162301703
B1821483835240N11208160WA0162101701
B1821493835244N11208160WA0162001699
B1821503835248N11208161WA0161801698
B1821513835252N11208163WA0161701697
B1821523835256N11208164WA0161501696
B1821533835260N11208164WA0161401694
B1821543835264N11208162WA0161201692
B1821553835268N11208159WA0161101689
B1821563835272N11208154WA0160901687
B1821573835275N11208149WA0160801685
B1821583835279N11208144WA0160601684
B1821593835283N11208139WA0160501683
B1822003835287N11208134WA0160301682
B1822013835291N11208130WA0160201680
B1822023835295N11208126WA0160101680
B1822033835299N11208122WA0160001679
B1822043835301N11208117WA0159901679
B1822053835304N11208114WA0159801678
B1822063835305N11208112WA0159701678
B1822073835307N11208110WA0159601678
B1822083835308N11208108WA0159501677
B1822093835309N11208108WA0159401677
B1822103835309N11208107WA0159301677
B1822113835310N11208107WA0159301678
B1822123835310N11208108WA0159301678
B1822133835310N11208109WA0159201678
B1822143835309N11208109WA0159201678
B1822153835309N11208109WA0159201678
B1822163835310N11208108WA0159101678
